{
"type": "FeatureCollection",
"name": "facilities_rescue",
"crs": { "type": "name", "properties": { "name": "urn:ogc:def:crs:EPSG::4490" } },
"features": [
{ "type": "Feature", "properties": { "name": "合肥市消防救援局", "lng": 117.196385, "lat": 31.81086, "type": "救援力量", "subtype": "消防站", "address": "支队机关大楼前(柳树塘地铁站D口步行190米)", "tel": "", "capacity": 5, "capacity_unit": "辆", "coverage_radius": 3000, "id": 0 }, "geometry": { "type": "Point", "coordinates": [ 117.196385, 31.81086 ] } },
{ "type": "Feature", "properties": { "name": "安徽省消防救援局", "lng": 117.290408, "lat": 31.732272, "type": "救援力量", "subtype": "消防站", "address": "中山路3388号", "tel": "", "capacity": 5, "capacity_unit": "辆", "coverage_radius": 3000, "id": 1 }, "geometry": { "type": "Point", "coordinates": [ 117.290408, 31.732272 ] } },
{ "type": "Feature", "properties": { "name": "安徽省消防救援总队训练与战勤保障支队", "lng": 117.223703, "lat": 31.764853, "type": "救援力量", "subtype": "消防站", "address": "丹霞路与志勤路交叉口南220米", "tel": "", "capacity": 5, "capacity_unit": "辆", "coverage_radius": 3000, "id": 2 }, "geometry": { "type": "Point", "coordinates": [ 117.223703, 31.764853 ] } },
{ "type": "Feature", "properties": { "name": "高新区消防救援大队天乐消防救援站", "lng": 117.209522, "lat": 31.843802, "type": "救援力量", "subtype": "消防站", "address": "高新技术产业开发区博微田村大厦天智路43号", "tel": "", "capacity": 5, "capacity_unit": "辆", "coverage_radius": 3000, "id": 3 }, "geometry": { "type": "Point", "coordinates": [ 117.209522, 31.843802 ] } },
{ "type": "Feature", "properties": { "name": "合肥市包河区消防救援局", "lng": 117.303826, "lat": 31.829189, "type": "救援力量", "subtype": "消防站", "address": "望江东路与万岗路交叉口北60米", "tel": "", "capacity": 5, "capacity_unit": "辆", "coverage_radius": 3000, "id": 4 }, "geometry": { "type": "Point", "coordinates": [ 117.303826, 31.829189 ] } },
{ "type": "Feature", "properties": { "name": "肥东县消防救援局(撮镇路消防救援站)", "lng": 117.474721, "lat": 31.833265, "type": "救援力量", "subtype": "消防站", "address": "撮镇路辅路", "tel": "", "capacity": 5, "capacity_unit": "辆", "coverage_radius": 3000, "id": 5 }, "geometry": { "type": "Point", "coordinates": [ 117.474721, 31.833265 ] } },
{ "type": "Feature", "properties": { "name": "肥西县消防救援局", "lng": 117.136529, "lat": 31.751708, "type": "救援力量", "subtype": "消防站", "address": "苏岗路", "tel": "", "capacity": 5, "capacity_unit": "辆", "coverage_radius": 3000, "id": 6 }, "geometry": { "type": "Point", "coordinates": [ 117.136529, 31.751708 ] } },
{ "type": "Feature", "properties": { "name": "合肥市消防救援支队特勤大队一站", "lng": 117.283079, "lat": 31.879192, "type": "救援力量", "subtype": "消防站", "address": "北一环路与濉溪二村巷交叉口", "tel": "", "capacity": 5, "capacity_unit": "辆", "coverage_radius": 3000, "id": 7 }, "geometry": { "type": "Point", "coordinates": [ 117.283079, 31.879192 ] } },
{ "type": "Feature", "properties": { "name": "合肥经济技术开发区消防救援大队", "lng": 117.19387, "lat": 31.784347, "type": "救援力量", "subtype": "消防站", "address": "翠微路与云外路交叉口西180米", "tel": "", "capacity": 5, "capacity_unit": "辆", "coverage_radius": 3000, "id": 8 }, "geometry": { "type": "Point", "coordinates": [ 117.19387, 31.784347 ] } },
{ "type": "Feature", "properties": { "name": "合肥市瑶海区漕冲消防救援站", "lng": 117.353817, "lat": 31.854706, "type": "救援力量", "subtype": "消防站", "address": "乐水路与漕冲路交叉口东南150米", "tel": "", "capacity": 5, "capacity_unit": "辆", "coverage_radius": 3000, "id": 9 }, "geometry": { "type": "Point", "coordinates": [ 117.353817, 31.854706 ] } },
{ "type": "Feature", "properties": { "name": "合肥市蜀山区消防救援局", "lng": 117.257396, "lat": 31.830637, "type": "救援力量", "subtype": "消防站", "address": "望江西路94-5号附近", "tel": "", "capacity": 5, "capacity_unit": "辆", "coverage_radius": 3000, "id": 10 }, "geometry": { "type": "Point", "coordinates": [ 117.257396, 31.830637 ] } },
{ "type": "Feature", "properties": { "name": "新站高新区消防消防救援大队", "lng": 117.337199, "lat": 31.9756, "type": "救援力量", "subtype": "消防站", "address": "新蚌埠路与魏武路交口向西200米", "tel": "", "capacity": 5, "capacity_unit": "辆", "coverage_radius": 3000, "id": 11 }, "geometry": { "type": "Point", "coordinates": [ 117.337199, 31.9756 ] } },
{ "type": "Feature", "properties": { "name": "双凤消防", "lng": 117.246414, "lat": 31.976217, "type": "救援力量", "subtype": "消防站", "address": "南飞路与金梅路交叉口西北160米", "tel": "", "capacity": 5, "capacity_unit": "辆", "coverage_radius": 3000, "id": 12 }, "geometry": { "type": "Point", "coordinates": [ 117.246414, 31.976217 ] } },
{ "type": "Feature", "properties": { "name": "合肥市瑶海区消防救援局", "lng": 117.325224, "lat": 31.861824, "type": "救援力量", "subtype": "消防站", "address": "长江东大街与南陵路交口西北角", "tel": "", "capacity": 5, "capacity_unit": "辆", "coverage_radius": 3000, "id": 13 }, "geometry": { "type": "Point", "coordinates": [ 117.325224, 31.861824 ] } },
{ "type": "Feature", "properties": { "name": "合肥市蜀山区小庙消防救援站", "lng": 117.056724, "lat": 31.851028, "type": "救援力量", "subtype": "消防站", "address": "长江西路与小蜀山西路交叉口北120米", "tel": "", "capacity": 5, "capacity_unit": "辆", "coverage_radius": 3000, "id": 14 }, "geometry": { "type": "Point", "coordinates": [ 117.056724, 31.851028 ] } },
{ "type": "Feature", "properties": { "name": "合肥市庐阳区消防救援局", "lng": 117.255467, "lat": 31.885652, "type": "救援力量", "subtype": "消防站", "address": "肥西路3016号(四泉桥地铁站C口步行90米)", "tel": "", "capacity": 5, "capacity_unit": "辆", "coverage_radius": 3000, "id": 15 }, "geometry": { "type": "Point", "coordinates": [ 117.255467, 31.885652 ] } },
{ "type": "Feature", "properties": { "name": "合肥市消防救援支队特勤大队三站", "lng": 117.31624, "lat": 31.738413, "type": "救援力量", "subtype": "消防站", "address": "长沙路与嵩山路交口东北角", "tel": "", "capacity": 5, "capacity_unit": "辆", "coverage_radius": 3000, "id": 16 }, "geometry": { "type": "Point", "coordinates": [ 117.31624, 31.738413 ] } },
{ "type": "Feature", "properties": { "name": "安徽巢湖经济开发区消防救援大队", "lng": 117.898912, "lat": 31.626437, "type": "救援力量", "subtype": "消防站", "address": "半汤大道与山冲路交叉口东南180米", "tel": "", "capacity": 5, "capacity_unit": "辆", "coverage_radius": 3000, "id": 17 }, "geometry": { "type": "Point", "coordinates": [ 117.898912, 31.626437 ] } },
{ "type": "Feature", "properties": { "name": "包河区消防大队骆岗消防救援站", "lng": 117.333425, "lat": 31.792185, "type": "救援力量", "subtype": "消防站", "address": "内蒙路西50米", "tel": "", "capacity": 5, "capacity_unit": "辆", "coverage_radius": 3000, "id": 18 }, "geometry": { "type": "Point", "coordinates": [ 117.333425, 31.792185 ] } },
{ "type": "Feature", "properties": { "name": "长丰县下塘镇政府专职消防队", "lng": 117.240781, "lat": 32.164963, "type": "救援力量", "subtype": "消防站", "address": "智慧大道与秀水路交叉口南400米", "tel": "", "capacity": 5, "capacity_unit": "辆", "coverage_radius": 3000, "id": 19 }, "geometry": { "type": "Point", "coordinates": [ 117.240781, 32.164963 ] } },
{ "type": "Feature", "properties": { "name": "安徽正华同安消防科技有限公司", "lng": 117.367641, "lat": 31.909913, "type": "救援力量", "subtype": "消防站", "address": "文忠路777号", "tel": "0551-65528119", "capacity": 5, "capacity_unit": "辆", "coverage_radius": 3000, "id": 20 }, "geometry": { "type": "Point", "coordinates": [ 117.367641, 31.909913 ] } },
{ "type": "Feature", "properties": { "name": "宝湾国际小型消防站", "lng": 117.2892, "lat": 31.940316, "type": "救援力量", "subtype": "消防站", "address": "宝湾一道与宝湾路交叉口南60米", "tel": "", "capacity": 5, "capacity_unit": "辆", "coverage_radius": 3000, "id": 21 }, "geometry": { "type": "Point", "coordinates": [ 117.2892, 31.940316 ] } },
{ "type": "Feature", "properties": { "name": "合肥市包河区万年埠政府专职消防队", "lng": 117.307196, "lat": 31.705573, "type": "救援力量", "subtype": "消防站", "address": "万达城(地铁站)滨湖宝文中心向东100米", "tel": "", "capacity": 5, "capacity_unit": "辆", "coverage_radius": 3000, "id": 22 }, "geometry": { "type": "Point", "coordinates": [ 117.307196, 31.705573 ] } },
{ "type": "Feature", "properties": { "name": "蜀山区井岗消防救援站", "lng": 117.17703, "lat": 31.855999, "type": "救援力量", "subtype": "消防站", "address": "井岗路与山湖路交汇处", "tel": "", "capacity": 5, "capacity_unit": "辆", "coverage_radius": 3000, "id": 23 }, "geometry": { "type": "Point", "coordinates": [ 117.17703, 31.855999 ] } },
{ "type": "Feature", "properties": { "name": "肥东县南环路消防救援站", "lng": 117.45357, "lat": 31.871545, "type": "救援力量", "subtype": "消防站", "address": "长江东路与桥头集路交叉口西南160米", "tel": "", "capacity": 5, "capacity_unit": "辆", "coverage_radius": 3000, "id": 24 }, "geometry": { "type": "Point", "coordinates": [ 117.45357, 31.871545 ] } },
{ "type": "Feature", "properties": { "name": "天水消防救援站", "lng": 117.302797, "lat": 31.929153, "type": "救援力量", "subtype": "消防站", "address": "新站消防东北门东南60米", "tel": "", "capacity": 5, "capacity_unit": "辆", "coverage_radius": 3000, "id": 25 }, "geometry": { "type": "Point", "coordinates": [ 117.302797, 31.929153 ] } },
{ "type": "Feature", "properties": { "name": "长宁中心南岗老街微型消防站", "lng": 117.109273, "lat": 31.850046, "type": "救援力量", "subtype": "消防站", "address": "西街与长江西路辅路交叉口西南20米", "tel": "", "capacity": 5, "capacity_unit": "辆", "coverage_radius": 3000, "id": 26 }, "geometry": { "type": "Point", "coordinates": [ 117.109273, 31.850046 ] } },
{ "type": "Feature", "properties": { "name": "水家湖消防救援站", "lng": 117.142117, "lat": 32.475822, "type": "救援力量", "subtype": "消防站", "address": "水湖镇长丰路与昌湖路交叉口", "tel": "", "capacity": 5, "capacity_unit": "辆", "coverage_radius": 3000, "id": 27 }, "geometry": { "type": "Point", "coordinates": [ 117.142117, 32.475822 ] } },
{ "type": "Feature", "properties": { "name": "合肥消防救援机动支队", "lng": 117.457071, "lat": 31.954057, "type": "救援力量", "subtype": "消防站", "address": "魏武路119号原肥东县健康驿站", "tel": "", "capacity": 5, "capacity_unit": "辆", "coverage_radius": 3000, "id": 28 }, "geometry": { "type": "Point", "coordinates": [ 117.457071, 31.954057 ] } },
{ "type": "Feature", "properties": { "name": "派河消防救援站", "lng": 117.147815, "lat": 31.702888, "type": "救援力量", "subtype": "消防站", "address": "G330(合铜路)", "tel": "", "capacity": 5, "capacity_unit": "辆", "coverage_radius": 3000, "id": 29 }, "geometry": { "type": "Point", "coordinates": [ 117.147815, 31.702888 ] } },
{ "type": "Feature", "properties": { "name": "新海消防救援站", "lng": 117.369399, "lat": 31.890526, "type": "救援力量", "subtype": "消防站", "address": "新汴河西", "tel": "", "capacity": 5, "capacity_unit": "辆", "coverage_radius": 3000, "id": 30 }, "geometry": { "type": "Point", "coordinates": [ 117.369399, 31.890526 ] } },
{ "type": "Feature", "properties": { "name": "包河大队芜湖路消防救援站", "lng": 117.296691, "lat": 31.85607, "type": "救援力量", "subtype": "消防站", "address": "芜湖路139号", "tel": "", "capacity": 5, "capacity_unit": "辆", "coverage_radius": 3000, "id": 31 }, "geometry": { "type": "Point", "coordinates": [ 117.296691, 31.85607 ] } },
{ "type": "Feature", "properties": { "name": "合肥新港消防救援站", "lng": 117.214384, "lat": 31.713901, "type": "救援力量", "subtype": "消防站", "address": "月台路与云谷路交叉口西北80米", "tel": "", "capacity": 5, "capacity_unit": "辆", "coverage_radius": 3000, "id": 32 }, "geometry": { "type": "Point", "coordinates": [ 117.214384, 31.713901 ] } },
{ "type": "Feature", "properties": { "name": "庐江县消防救援局", "lng": 117.255822, "lat": 31.249688, "type": "救援力量", "subtype": "消防站", "address": "移湖路北100米", "tel": "0551-87302119", "capacity": 5, "capacity_unit": "辆", "coverage_radius": 3000, "id": 33 }, "geometry": { "type": "Point", "coordinates": [ 117.255822, 31.249688 ] } },
{ "type": "Feature", "properties": { "name": "合肥祈明消防设备有限责任公司", "lng": 117.317513, "lat": 31.946926, "type": "救援力量", "subtype": "消防站", "address": "新站区新店社区", "tel": "0551-64219747", "capacity": 5, "capacity_unit": "辆", "coverage_radius": 3000, "id": 34 }, "geometry": { "type": "Point", "coordinates": [ 117.317513, 31.946926 ] } },
{ "type": "Feature", "properties": { "name": "巢湖市消防救援大队向阳路消防救援站", "lng": 117.899304, "lat": 31.569245, "type": "救援力量", "subtype": "消防站", "address": "向阳南路与前进路交叉口西140米", "tel": "", "capacity": 5, "capacity_unit": "辆", "coverage_radius": 3000, "id": 35 }, "geometry": { "type": "Point", "coordinates": [ 117.899304, 31.569245 ] } },
{ "type": "Feature", "properties": { "name": "合肥经济技术开发区空港消防执勤点", "lng": 117.022781, "lat": 31.962611, "type": "救援力量", "subtype": "消防站", "address": "新淮大道与萧山路交叉口东南140米", "tel": "", "capacity": 5, "capacity_unit": "辆", "coverage_radius": 3000, "id": 36 }, "geometry": { "type": "Point", "coordinates": [ 117.022781, 31.962611 ] } },
{ "type": "Feature", "properties": { "name": "合肥新站高新技术产业开发区陶冲湖政府专职消防队", "lng": 117.340931, "lat": 31.927443, "type": "救援力量", "subtype": "消防站", "address": "翠柏路37号(陶冲湖东地铁站C口步行460米)", "tel": "", "capacity": 5, "capacity_unit": "辆", "coverage_radius": 3000, "id": 37 }, "geometry": { "type": "Point", "coordinates": [ 117.340931, 31.927443 ] } },
{ "type": "Feature", "properties": { "name": "梅冲湖消防救援站", "lng": 117.290686, "lat": 31.99517, "type": "救援力量", "subtype": "消防站", "address": "梅冲湖路25号", "tel": "", "capacity": 5, "capacity_unit": "辆", "coverage_radius": 3000, "id": 38 }, "geometry": { "type": "Point", "coordinates": [ 117.290686, 31.99517 ] } },
{ "type": "Feature", "properties": { "name": "肥西县花岗镇政府专职消防队", "lng": 117.056961, "lat": 31.624115, "type": "救援力量", "subtype": "消防站", "address": "华阳河路花岗镇政府西侧约160米", "tel": "", "capacity": 5, "capacity_unit": "辆", "coverage_radius": 3000, "id": 39 }, "geometry": { "type": "Point", "coordinates": [ 117.056961, 31.624115 ] } },
{ "type": "Feature", "properties": { "name": "一鸣消防", "lng": 117.314039, "lat": 31.975685, "type": "救援力量", "subtype": "消防站", "address": "九顶山路与双凤路交叉口东北100米", "tel": "15385897684", "capacity": 5, "capacity_unit": "辆", "coverage_radius": 3000, "id": 40 }, "geometry": { "type": "Point", "coordinates": [ 117.314039, 31.975685 ] } },
{ "type": "Feature", "properties": { "name": "巢湖市公安消防大队", "lng": 117.851484, "lat": 31.5773, "type": "救援力量", "subtype": "消防站", "address": "丽水湾路与亚父路交叉口西北80米", "tel": "", "capacity": 5, "capacity_unit": "辆", "coverage_radius": 3000, "id": 41 }, "geometry": { "type": "Point", "coordinates": [ 117.851484, 31.5773 ] } },
{ "type": "Feature", "properties": { "name": "合肥高新区消防救援大队", "lng": 117.147362, "lat": 31.84035, "type": "救援力量", "subtype": "消防站", "address": "彩虹路与杨林路交叉口西南40米", "tel": "", "capacity": 5, "capacity_unit": "辆", "coverage_radius": 3000, "id": 42 }, "geometry": { "type": "Point", "coordinates": [ 117.147362, 31.84035 ] } },
{ "type": "Feature", "properties": { "name": "庐江县消防救援大队龙桥消防救援站", "lng": 117.457233, "lat": 31.13586, "type": "救援力量", "subtype": "消防站", "address": "龙桥大道666号", "tel": "", "capacity": 5, "capacity_unit": "辆", "coverage_radius": 3000, "id": 43 }, "geometry": { "type": "Point", "coordinates": [ 117.457233, 31.13586 ] } },
{ "type": "Feature", "properties": { "name": "安徽省消防工程有限公司", "lng": 117.275544, "lat": 31.865812, "type": "救援力量", "subtype": "消防站", "address": "三孝口街道霍邱路180号十六所小区11栋4楼", "tel": "0551-62822232", "capacity": 5, "capacity_unit": "辆", "coverage_radius": 3000, "id": 44 }, "geometry": { "type": "Point", "coordinates": [ 117.275544, 31.865812 ] } },
{ "type": "Feature", "properties": { "name": "肥西县紫蓬镇政府专职消防队", "lng": 117.106044, "lat": 31.746258, "type": "救援力量", "subtype": "消防站", "address": "玉兰大道5km处", "tel": "", "capacity": 5, "capacity_unit": "辆", "coverage_radius": 3000, "id": 45 }, "geometry": { "type": "Point", "coordinates": [ 117.106044, 31.746258 ] } },
{ "type": "Feature", "properties": { "name": "合肥高新技术开发区消防大队", "lng": 117.147164, "lat": 31.839272, "type": "救援力量", "subtype": "消防站", "address": "杨林路与彩虹路交叉口西南140米", "tel": "", "capacity": 5, "capacity_unit": "辆", "coverage_radius": 3000, "id": 46 }, "geometry": { "type": "Point", "coordinates": [ 117.147164, 31.839272 ] } },
{ "type": "Feature", "properties": { "name": "丹霞消防救援站", "lng": 117.242922, "lat": 31.764449, "type": "救援力量", "subtype": "消防站", "address": "丹霞路97号", "tel": "", "capacity": 5, "capacity_unit": "辆", "coverage_radius": 3000, "id": 47 }, "geometry": { "type": "Point", "coordinates": [ 117.242922, 31.764449 ] } },
{ "type": "Feature", "properties": { "name": "肥东县梁园镇政府专职消防队", "lng": 117.55146, "lat": 31.9913, "type": "救援力量", "subtype": "消防站", "address": "329国道与振兴街交叉口南280米", "tel": "", "capacity": 5, "capacity_unit": "辆", "coverage_radius": 3000, "id": 48 }, "geometry": { "type": "Point", "coordinates": [ 117.55146, 31.9913 ] } },
{ "type": "Feature", "properties": { "name": "合肥市蜀山区稻香村消防救援站", "lng": 117.257583, "lat": 31.830354, "type": "救援力量", "subtype": "消防站", "address": "蜀山区综合应急救援大队南门旁", "tel": "", "capacity": 5, "capacity_unit": "辆", "coverage_radius": 3000, "id": 49 }, "geometry": { "type": "Point", "coordinates": [ 117.257583, 31.830354 ] } },
{ "type": "Feature", "properties": { "name": "杏花消防救援站", "lng": 117.281147, "lat": 31.919405, "type": "救援力量", "subtype": "消防站", "address": "阜阳北路1169号", "tel": "", "capacity": 5, "capacity_unit": "辆", "coverage_radius": 3000, "id": 50 }, "geometry": { "type": "Point", "coordinates": [ 117.281147, 31.919405 ] } },
{ "type": "Feature", "properties": { "name": "三孝口消防救援站", "lng": 117.280617, "lat": 31.860641, "type": "救援力量", "subtype": "消防站", "address": "桐城路210号", "tel": "", "capacity": 5, "capacity_unit": "辆", "coverage_radius": 3000, "id": 51 }, "geometry": { "type": "Point", "coordinates": [ 117.280617, 31.860641 ] } },
{ "type": "Feature", "properties": { "name": "众成工贸·大风消防", "lng": 117.276371, "lat": 31.962444, "type": "救援力量", "subtype": "消防站", "address": "凤仪路与双凤路交汇处向南350米", "tel": "0551-66779119", "capacity": 5, "capacity_unit": "辆", "coverage_radius": 3000, "id": 52 }, "geometry": { "type": "Point", "coordinates": [ 117.276371, 31.962444 ] } },
{ "type": "Feature", "properties": { "name": "庐阳区消防大队", "lng": 117.25488, "lat": 31.885512, "type": "救援力量", "subtype": "消防站", "address": "公安消防大队西门旁(四泉桥地铁站C口步行210米)", "tel": "", "capacity": 5, "capacity_unit": "辆", "coverage_radius": 3000, "id": 53 }, "geometry": { "type": "Point", "coordinates": [ 117.25488, 31.885512 ] } },
{ "type": "Feature", "properties": { "name": "合肥市包河区望湖消防救援站", "lng": 117.303571, "lat": 31.829027, "type": "救援力量", "subtype": "消防站", "address": "望江东路与马鞍山路辅路交叉口东160米", "tel": "", "capacity": 5, "capacity_unit": "辆", "coverage_radius": 3000, "id": 54 }, "geometry": { "type": "Point", "coordinates": [ 117.303571, 31.829027 ] } },
{ "type": "Feature", "properties": { "name": "合肥天任消防设备有限公司", "lng": 117.321332, "lat": 31.828452, "type": "救援力量", "subtype": "消防站", "address": "国际五金机电商贸城二期B区25栋126-138号", "tel": "15609688119;18326137119;19556503119", "capacity": 5, "capacity_unit": "辆", "coverage_radius": 3000, "id": 55 }, "geometry": { "type": "Point", "coordinates": [ 117.321332, 31.828452 ] } },
{ "type": "Feature", "properties": { "name": "合肥市包河区宿松路消防救援站", "lng": 117.26816, "lat": 31.81785, "type": "救援力量", "subtype": "消防站", "address": "宿松路与休宁路交叉口南100米", "tel": "", "capacity": 5, "capacity_unit": "辆", "coverage_radius": 3000, "id": 56 }, "geometry": { "type": "Point", "coordinates": [ 117.26816, 31.81785 ] } },
{ "type": "Feature", "properties": { "name": "安徽消防机动队(公交站)", "lng": 117.457905, "lat": 31.953276, "type": "救援力量", "subtype": "消防站", "address": "354路", "tel": "", "capacity": 5, "capacity_unit": "辆", "coverage_radius": 3000, "id": 57 }, "geometry": { "type": "Point", "coordinates": [ 117.457905, 31.953276 ] } },
{ "type": "Feature", "properties": { "name": "合肥支队瑶海消防大队", "lng": 117.325429, "lat": 31.861845, "type": "救援力量", "subtype": "消防站", "address": "长江东大街", "tel": "", "capacity": 5, "capacity_unit": "辆", "coverage_radius": 3000, "id": 58 }, "geometry": { "type": "Point", "coordinates": [ 117.325429, 31.861845 ] } },
{ "type": "Feature", "properties": { "name": "安盾消防科技工厂直营", "lng": 117.427476, "lat": 31.840817, "type": "救援力量", "subtype": "消防站", "address": "撮镇镇喻闸路2号绿益厂内1栋512室", "tel": "18955162783", "capacity": 5, "capacity_unit": "辆", "coverage_radius": 3000, "id": 59 }, "geometry": { "type": "Point", "coordinates": [ 117.427476, 31.840817 ] } },
{ "type": "Feature", "properties": { "name": "合肥市庐阳区沱河消防救援站", "lng": 117.276499, "lat": 31.946837, "type": "救援力量", "subtype": "消防站", "address": "沱河消防南门旁", "tel": "", "capacity": 5, "capacity_unit": "辆", "coverage_radius": 3000, "id": 60 }, "geometry": { "type": "Point", "coordinates": [ 117.276499, 31.946837 ] } },
{ "type": "Feature", "properties": { "name": "消防劳保五金大卖场", "lng": 117.339663, "lat": 31.93194, "type": "救援力量", "subtype": "消防站", "address": "京商国际商贸城D区BJ108-109", "tel": "13339148911;18949861088", "capacity": 5, "capacity_unit": "辆", "coverage_radius": 3000, "id": 61 }, "geometry": { "type": "Point", "coordinates": [ 117.339663, 31.93194 ] } },
{ "type": "Feature", "properties": { "name": "龙子湖路专职消防救援站", "lng": 117.358425, "lat": 31.955754, "type": "救援力量", "subtype": "消防站", "address": "项王路与周庙路交叉口北200米", "tel": "", "capacity": 5, "capacity_unit": "辆", "coverage_radius": 3000, "id": 62 }, "geometry": { "type": "Point", "coordinates": [ 117.358425, 31.955754 ] } },
{ "type": "Feature", "properties": { "name": "循环经济示范园消防站", "lng": 117.490195, "lat": 31.763988, "type": "救援力量", "subtype": "消防站", "address": "四顶山路", "tel": "", "capacity": 5, "capacity_unit": "辆", "coverage_radius": 3000, "id": 63 }, "geometry": { "type": "Point", "coordinates": [ 117.490195, 31.763988 ] } },
{ "type": "Feature", "properties": { "name": "长丰县徐桥苑消防执勤点", "lng": 117.265872, "lat": 31.955957, "type": "救援力量", "subtype": "消防站", "address": "金珠路与凤巢路交叉口东140米", "tel": "", "capacity": 5, "capacity_unit": "辆", "coverage_radius": 3000, "id": 64 }, "geometry": { "type": "Point", "coordinates": [ 117.265872, 31.955957 ] } },
{ "type": "Feature", "properties": { "name": "合肥市包河区塘西河消防救援站", "lng": 117.29132, "lat": 31.732411, "type": "救援力量", "subtype": "消防站", "address": "广西路与中山路交叉口北100米", "tel": "", "capacity": 5, "capacity_unit": "辆", "coverage_radius": 3000, "id": 65 }, "geometry": { "type": "Point", "coordinates": [ 117.29132, 31.732411 ] } },
{ "type": "Feature", "properties": { "name": "安徽省大风消防科技有限公司", "lng": 117.338241, "lat": 32.222185, "type": "救援力量", "subtype": "消防站", "address": "017县道", "tel": "", "capacity": 5, "capacity_unit": "辆", "coverage_radius": 3000, "id": 66 }, "geometry": { "type": "Point", "coordinates": [ 117.338241, 32.222185 ] } },
{ "type": "Feature", "properties": { "name": "长丰县消防救援局", "lng": 117.24689, "lat": 31.975978, "type": "救援力量", "subtype": "消防站", "address": "金梅路与南飞路交叉口西北140米", "tel": "", "capacity": 5, "capacity_unit": "辆", "coverage_radius": 3000, "id": 67 }, "geometry": { "type": "Point", "coordinates": [ 117.24689, 31.975978 ] } },
{ "type": "Feature", "properties": { "name": "合肥市玉长消防技术有限公司", "lng": 117.184421, "lat": 31.7778, "type": "救援力量", "subtype": "消防站", "address": "九龙路东湖高新合肥创新中心12-2幢2楼204室", "tel": "", "capacity": 5, "capacity_unit": "辆", "coverage_radius": 3000, "id": 68 }, "geometry": { "type": "Point", "coordinates": [ 117.184421, 31.7778 ] } },
{ "type": "Feature", "properties": { "name": "明皇路消防执勤点", "lng": 117.375039, "lat": 31.881302, "type": "救援力量", "subtype": "消防站", "address": "罗岗路105号", "tel": "", "capacity": 5, "capacity_unit": "辆", "coverage_radius": 3000, "id": 69 }, "geometry": { "type": "Point", "coordinates": [ 117.375039, 31.881302 ] } },
{ "type": "Feature", "properties": { "name": "合肥市瑶海区周谷堆消防救援站", "lng": 117.390776, "lat": 31.839478, "type": "救援力量", "subtype": "消防站", "address": "百大周谷堆粮油冷冻交易市场A10", "tel": "", "capacity": 5, "capacity_unit": "辆", "coverage_radius": 3000, "id": 70 }, "geometry": { "type": "Point", "coordinates": [ 117.390776, 31.839478 ] } },
{ "type": "Feature", "properties": { "name": "合肥市瑶海区花冲消防救援站", "lng": 117.32531, "lat": 31.861783, "type": "救援力量", "subtype": "消防站", "address": "长江东大街与南陵路交叉口西北80米", "tel": "", "capacity": 5, "capacity_unit": "辆", "coverage_radius": 3000, "id": 71 }, "geometry": { "type": "Point", "coordinates": [ 117.32531, 31.861783 ] } },
{ "type": "Feature", "properties": { "name": "肥东县经济技术开发区政府专职消防队", "lng": 117.428143, "lat": 31.894344, "type": "救援力量", "subtype": "消防站", "address": "祥和路10号", "tel": "", "capacity": 5, "capacity_unit": "辆", "coverage_radius": 3000, "id": 72 }, "geometry": { "type": "Point", "coordinates": [ 117.428143, 31.894344 ] } },
{ "type": "Feature", "properties": { "name": "五里墩消防救援站", "lng": 117.232372, "lat": 31.852909, "type": "救援力量", "subtype": "消防站", "address": "长江西路高架入口与长江西路辅路交叉口北120米", "tel": "", "capacity": 5, "capacity_unit": "辆", "coverage_radius": 3000, "id": 73 }, "geometry": { "type": "Point", "coordinates": [ 117.232372, 31.852909 ] } },
{ "type": "Feature", "properties": { "name": "安徽成威消防科技有限公司", "lng": 117.200732, "lat": 31.844447, "type": "救援力量", "subtype": "消防站", "address": "天柱路与天达路交口华亿科学园B1栋10层", "tel": "18555398680", "capacity": 5, "capacity_unit": "辆", "coverage_radius": 3000, "id": 74 }, "geometry": { "type": "Point", "coordinates": [ 117.200732, 31.844447 ] } },
{ "type": "Feature", "properties": { "name": "蜀山消防(五里墩中队)", "lng": 117.232373, "lat": 31.852918, "type": "救援力量", "subtype": "消防站", "address": "长江西路辅路与长江西路高架入口交叉口北120米", "tel": "", "capacity": 5, "capacity_unit": "辆", "coverage_radius": 3000, "id": 75 }, "geometry": { "type": "Point", "coordinates": [ 117.232373, 31.852918 ] } },
{ "type": "Feature", "properties": { "name": "合肥消防救援支队特勤大队二站", "lng": 117.325125, "lat": 31.886589, "type": "救援力量", "subtype": "消防站", "address": "北二环800号", "tel": "", "capacity": 5, "capacity_unit": "辆", "coverage_radius": 3000, "id": 76 }, "geometry": { "type": "Point", "coordinates": [ 117.325125, 31.886589 ] } },
{ "type": "Feature", "properties": { "name": "长丰县义井镇专职消防队", "lng": 117.102963, "lat": 32.309111, "type": "救援力量", "subtype": "消防站", "address": "曹岗村村民委员会向北50米", "tel": "", "capacity": 5, "capacity_unit": "辆", "coverage_radius": 3000, "id": 77 }, "geometry": { "type": "Point", "coordinates": [ 117.102963, 32.309111 ] } },
{ "type": "Feature", "properties": { "name": "安徽千喜消防工程有限公司", "lng": 117.377164, "lat": 31.858671, "type": "救援力量", "subtype": "消防站", "address": "龙岗路与新安江路交叉口文一名门广场3号楼2层213", "tel": "0551-62829119", "capacity": 5, "capacity_unit": "辆", "coverage_radius": 3000, "id": 78 }, "geometry": { "type": "Point", "coordinates": [ 117.377164, 31.858671 ] } },
{ "type": "Feature", "properties": { "name": "学林公园专职消防救援站", "lng": 117.37776, "lat": 31.898724, "type": "救援力量", "subtype": "消防站", "address": "泗水路与相山路交口", "tel": "", "capacity": 5, "capacity_unit": "辆", "coverage_radius": 3000, "id": 79 }, "geometry": { "type": "Point", "coordinates": [ 117.37776, 31.898724 ] } },
{ "type": "Feature", "properties": { "name": "安徽向阳消防安全科技有限公司", "lng": 117.294136, "lat": 31.994336, "type": "救援力量", "subtype": "消防站", "address": "淮南北路003号4厂房", "tel": "13955109318", "capacity": 5, "capacity_unit": "辆", "coverage_radius": 3000, "id": 80 }, "geometry": { "type": "Point", "coordinates": [ 117.294136, 31.994336 ] } },
{ "type": "Feature", "properties": { "name": "绿地中心春台街微型消防站", "lng": 117.268933, "lat": 31.810544, "type": "救援力量", "subtype": "消防站", "address": "黟县路667号绿地·中心公馆F1层", "tel": "", "capacity": 5, "capacity_unit": "辆", "coverage_radius": 3000, "id": 81 }, "geometry": { "type": "Point", "coordinates": [ 117.268933, 31.810544 ] } },
{ "type": "Feature", "properties": { "name": "三河专职消防队", "lng": 117.259737, "lat": 31.5181, "type": "救援力量", "subtype": "消防站", "address": "王祠路1号", "tel": "", "capacity": 5, "capacity_unit": "辆", "coverage_radius": 3000, "id": 82 }, "geometry": { "type": "Point", "coordinates": [ 117.259737, 31.5181 ] } },
{ "type": "Feature", "properties": { "name": "合肥消防支队特勤三中队", "lng": 117.315716, "lat": 31.738474, "type": "救援力量", "subtype": "消防站", "address": "求是路与嵩山路交叉口东北80米", "tel": "", "capacity": 5, "capacity_unit": "辆", "coverage_radius": 3000, "id": 83 }, "geometry": { "type": "Point", "coordinates": [ 117.315716, 31.738474 ] } },
{ "type": "Feature", "properties": { "name": "合肥市庐阳区四里河消防救援站", "lng": 117.254898, "lat": 31.885535, "type": "救援力量", "subtype": "消防站", "address": "公安消防大队西门旁(四泉桥地铁站3号口步行200米)", "tel": "", "capacity": 5, "capacity_unit": "辆", "coverage_radius": 3000, "id": 84 }, "geometry": { "type": "Point", "coordinates": [ 117.254898, 31.885535 ] } },
{ "type": "Feature", "properties": { "name": "肥西消防指挥中心", "lng": 117.136548, "lat": 31.752132, "type": "救援力量", "subtype": "消防站", "address": "玉兰大道与苏岗路交叉口西120米", "tel": "", "capacity": 5, "capacity_unit": "辆", "coverage_radius": 3000, "id": 85 }, "geometry": { "type": "Point", "coordinates": [ 117.136548, 31.752132 ] } },
{ "type": "Feature", "properties": { "name": "合肥经济开发区长岗小型消防站", "lng": 117.038841, "lat": 31.950478, "type": "救援力量", "subtype": "消防站", "address": "七星路1号", "tel": "", "capacity": 5, "capacity_unit": "辆", "coverage_radius": 3000, "id": 86 }, "geometry": { "type": "Point", "coordinates": [ 117.038841, 31.950478 ] } },
{ "type": "Feature", "properties": { "name": "华丰劳保消防", "lng": 117.415287, "lat": 31.838652, "type": "救援力量", "subtype": "消防站", "address": "华东建材城A区127栋14-22号", "tel": "0551-62519719;13966711156;13966716488", "capacity": 5, "capacity_unit": "辆", "coverage_radius": 3000, "id": 87 }, "geometry": { "type": "Point", "coordinates": [ 117.415287, 31.838652 ] } },
{ "type": "Feature", "properties": { "name": "安徽金南方消防通风设备有限公司", "lng": 117.763037, "lat": 31.671413, "type": "救援力量", "subtype": "消防站", "address": "中垾镇105省道与王庙路西北角300米", "tel": "18755127863", "capacity": 5, "capacity_unit": "辆", "coverage_radius": 3000, "id": 88 }, "geometry": { "type": "Point", "coordinates": [ 117.763037, 31.671413 ] } },
{ "type": "Feature", "properties": { "name": "合肥市消防支队滨湖中队", "lng": 117.29102, "lat": 31.732594, "type": "救援力量", "subtype": "消防站", "address": "中山路c1-104号附近", "tel": "", "capacity": 5, "capacity_unit": "辆", "coverage_radius": 3000, "id": 89 }, "geometry": { "type": "Point", "coordinates": [ 117.29102, 31.732594 ] } },
{ "type": "Feature", "properties": { "name": "庐阳消防大队沱河中队", "lng": 117.276311, "lat": 31.947137, "type": "救援力量", "subtype": "消防站", "address": "洪河路", "tel": "", "capacity": 5, "capacity_unit": "辆", "coverage_radius": 3000, "id": 90 }, "geometry": { "type": "Point", "coordinates": [ 117.276311, 31.947137 ] } },
{ "type": "Feature", "properties": { "name": "安徽润兴河消防器材有限公司", "lng": 117.33625, "lat": 31.99118, "type": "救援力量", "subtype": "消防站", "address": "怀远路25号", "tel": "15037073251", "capacity": 5, "capacity_unit": "辆", "coverage_radius": 3000, "id": 91 }, "geometry": { "type": "Point", "coordinates": [ 117.33625, 31.99118 ] } },
{ "type": "Feature", "properties": { "name": "巢湖市居巢消防救援站", "lng": 117.851361, "lat": 31.577053, "type": "救援力量", "subtype": "消防站", "address": "亚父路与丽水湾路交叉口西北60米", "tel": "", "capacity": 5, "capacity_unit": "辆", "coverage_radius": 3000, "id": 92 }, "geometry": { "type": "Point", "coordinates": [ 117.851361, 31.577053 ] } },
{ "type": "Feature", "properties": { "name": "鸣安消防器材(灭火器销售点)", "lng": 117.130152, "lat": 31.830459, "type": "救援力量", "subtype": "消防站", "address": "望江西路与创新大道交口西北角祥源城S15一102商铺", "tel": "18326080573", "capacity": 5, "capacity_unit": "辆", "coverage_radius": 3000, "id": 93 }, "geometry": { "type": "Point", "coordinates": [ 117.130152, 31.830459 ] } },
{ "type": "Feature", "properties": { "name": "合肥市庐阳区淮河路步行街消防执勤点", "lng": 117.298766, "lat": 31.863058, "type": "救援力量", "subtype": "消防站", "address": "环城南路29号", "tel": "", "capacity": 5, "capacity_unit": "辆", "coverage_radius": 3000, "id": 94 }, "geometry": { "type": "Point", "coordinates": [ 117.298766, 31.863058 ] } },
{ "type": "Feature", "properties": { "name": "合肥固客消防报警设备总汇", "lng": 117.322836, "lat": 31.826674, "type": "救援力量", "subtype": "消防站", "address": "淝河镇当涂路2号(尧渡河路地铁站F口步行190米)", "tel": "13955268203", "capacity": 5, "capacity_unit": "辆", "coverage_radius": 3000, "id": 95 }, "geometry": { "type": "Point", "coordinates": [ 117.322836, 31.826674 ] } },
{ "type": "Feature", "properties": { "name": "鑫盛消防器材(瑞龙花园店)", "lng": 117.251381, "lat": 31.981155, "type": "救援力量", "subtype": "消防站", "address": "瑞龙花园10号楼108室外面门面房", "tel": "19314052879", "capacity": 5, "capacity_unit": "辆", "coverage_radius": 3000, "id": 96 }, "geometry": { "type": "Point", "coordinates": [ 117.251381, 31.981155 ] } },
{ "type": "Feature", "properties": { "name": "岗集镇专职消防队", "lng": 117.193593, "lat": 31.957894, "type": "救援力量", "subtype": "消防站", "address": "瑞风路2号", "tel": "", "capacity": 5, "capacity_unit": "辆", "coverage_radius": 3000, "id": 97 }, "geometry": { "type": "Point", "coordinates": [ 117.193593, 31.957894 ] } },
{ "type": "Feature", "properties": { "name": "安徽天之水消防科技股份有限公司", "lng": 117.267334, "lat": 31.931321, "type": "救援力量", "subtype": "消防站", "address": "清河路868号庐阳大数据产业园15栋18楼", "tel": "0551-63686678;4008677119", "capacity": 5, "capacity_unit": "辆", "coverage_radius": 3000, "id": 98 }, "geometry": { "type": "Point", "coordinates": [ 117.267334, 31.931321 ] } },
{ "type": "Feature", "properties": { "name": "新站消防", "lng": 117.369814, "lat": 31.890603, "type": "救援力量", "subtype": "消防站", "address": "新海消防救援站东南门东北60米", "tel": "", "capacity": 5, "capacity_unit": "辆", "coverage_radius": 3000, "id": 99 }, "geometry": { "type": "Point", "coordinates": [ 117.369814, 31.890603 ] } },
{ "type": "Feature", "properties": { "name": "友铭钢材", "lng": 117.205305, "lat": 31.635194, "type": "救援力量", "subtype": "消防站", "address": "严店镇合铜路185号", "tel": "0551-68207773;18788830718", "capacity": 5, "capacity_unit": "辆", "coverage_radius": 3000, "id": 100 }, "geometry": { "type": "Point", "coordinates": [ 117.205305, 31.635194 ] } },
{ "type": "Feature", "properties": { "name": "包河消防", "lng": 117.333882, "lat": 31.792087, "type": "救援力量", "subtype": "消防站", "address": "内蒙路庐江商会A座", "tel": "", "capacity": 5, "capacity_unit": "辆", "coverage_radius": 3000, "id": 101 }, "geometry": { "type": "Point", "coordinates": [ 117.333882, 31.792087 ] } },
{ "type": "Feature", "properties": { "name": "枞阳路消防站", "lng": 117.34434, "lat": 31.842259, "type": "救援力量", "subtype": "消防站", "address": "枞阳路与复兴路交叉口北180米", "tel": "", "capacity": 5, "capacity_unit": "辆", "coverage_radius": 3000, "id": 102 }, "geometry": { "type": "Point", "coordinates": [ 117.34434, 31.842259 ] } },
{ "type": "Feature", "properties": { "name": "曼雨智能消防应急灯", "lng": 117.319504, "lat": 31.825957, "type": "救援力量", "subtype": "消防站", "address": "五金城A区二期15幢102号", "tel": "15105692863;18119657827", "capacity": 5, "capacity_unit": "辆", "coverage_radius": 3000, "id": 103 }, "geometry": { "type": "Point", "coordinates": [ 117.319504, 31.825957 ] } },
{ "type": "Feature", "properties": { "name": "安徽省凌跃消防科技有限公司", "lng": 117.294059, "lat": 31.88158, "type": "救援力量", "subtype": "消防站", "address": "嘉山路街道濉溪路126号安徽轻工商城7栋404-407", "tel": "13514992888", "capacity": 5, "capacity_unit": "辆", "coverage_radius": 3000, "id": 104 }, "geometry": { "type": "Point", "coordinates": [ 117.294059, 31.88158 ] } },
{ "type": "Feature", "properties": { "name": "乾龙消防器材直营店", "lng": 117.320757, "lat": 31.8274, "type": "救援力量", "subtype": "消防站", "address": "安徽国际五金机电商贸城二期B区17栋125-127号", "tel": "15255155328", "capacity": 5, "capacity_unit": "辆", "coverage_radius": 3000, "id": 105 }, "geometry": { "type": "Point", "coordinates": [ 117.320757, 31.8274 ] } },
{ "type": "Feature", "properties": { "name": "南七应急消防综合服务站", "lng": 117.241991, "lat": 31.827059, "type": "救援力量", "subtype": "消防站", "address": "洪岗路11号", "tel": "", "capacity": 5, "capacity_unit": "辆", "coverage_radius": 3000, "id": 106 }, "geometry": { "type": "Point", "coordinates": [ 117.241991, 31.827059 ] } },
{ "type": "Feature", "properties": { "name": "肥东县长临河消防救援站", "lng": 117.468896, "lat": 31.713569, "type": "救援力量", "subtype": "消防站", "address": "长临河镇罗店村", "tel": "", "capacity": 5, "capacity_unit": "辆", "coverage_radius": 3000, "id": 107 }, "geometry": { "type": "Point", "coordinates": [ 117.468896, 31.713569 ] } },
{ "type": "Feature", "properties": { "name": "中叶消防技术有限公司", "lng": 117.247663, "lat": 31.996875, "type": "救援力量", "subtype": "消防站", "address": "双凤开发区北城世纪城一期祥徽苑写字楼3号楼2010室", "tel": "18788847838", "capacity": 5, "capacity_unit": "辆", "coverage_radius": 3000, "id": 108 }, "geometry": { "type": "Point", "coordinates": [ 117.247663, 31.996875 ] } },
{ "type": "Feature", "properties": { "name": "肥东县石塘镇政府专职消防队", "lng": 117.641729, "lat": 31.933644, "type": "救援力量", "subtype": "消防站", "address": "银桥街与桥东街交口", "tel": "", "capacity": 5, "capacity_unit": "辆", "coverage_radius": 3000, "id": 109 }, "geometry": { "type": "Point", "coordinates": [ 117.641729, 31.933644 ] } },
{ "type": "Feature", "properties": { "name": "庐江县同大镇消防执勤点", "lng": 117.336185, "lat": 31.504553, "type": "救援力量", "subtype": "消防站", "address": "103省道", "tel": "", "capacity": 5, "capacity_unit": "辆", "coverage_radius": 3000, "id": 110 }, "geometry": { "type": "Point", "coordinates": [ 117.336185, 31.504553 ] } },
{ "type": "Feature", "properties": { "name": "长丰县造甲镇政府专职消防队", "lng": 117.34646, "lat": 32.244256, "type": "救援力量", "subtype": "消防站", "address": "造甲镇", "tel": "", "capacity": 5, "capacity_unit": "辆", "coverage_radius": 3000, "id": 111 }, "geometry": { "type": "Point", "coordinates": [ 117.34646, 32.244256 ] } },
{ "type": "Feature", "properties": { "name": "百安消防安徽办事处", "lng": 117.41062, "lat": 31.836319, "type": "救援力量", "subtype": "消防站", "address": "E栋110号", "tel": "13855675653", "capacity": 5, "capacity_unit": "辆", "coverage_radius": 3000, "id": 112 }, "geometry": { "type": "Point", "coordinates": [ 117.41062, 31.836319 ] } },
{ "type": "Feature", "properties": { "name": "江恒消防物资宝隆钢管", "lng": 117.317721, "lat": 31.824187, "type": "救援力量", "subtype": "消防站", "address": "", "tel": "15855131786", "capacity": 5, "capacity_unit": "辆", "coverage_radius": 3000, "id": 113 }, "geometry": { "type": "Point", "coordinates": [ 117.317721, 31.824187 ] } },
{ "type": "Feature", "properties": { "name": "经开消防", "lng": 117.24282, "lat": 31.764981, "type": "救援力量", "subtype": "消防站", "address": "丹霞路97号", "tel": "", "capacity": 5, "capacity_unit": "辆", "coverage_radius": 3000, "id": 114 }, "geometry": { "type": "Point", "coordinates": [ 117.24282, 31.764981 ] } },
{ "type": "Feature", "properties": { "name": "欣久智能消防国泰消防合肥办事处", "lng": 117.321325, "lat": 31.828575, "type": "救援力量", "subtype": "消防站", "address": "国际五金机电商贸城二期B区25栋126-130", "tel": "18326137119", "capacity": 5, "capacity_unit": "辆", "coverage_radius": 3000, "id": 115 }, "geometry": { "type": "Point", "coordinates": [ 117.321325, 31.828575 ] } },
{ "type": "Feature", "properties": { "name": "安徽湘江消防工程有限公司", "lng": 117.328889, "lat": 31.82951, "type": "救援力量", "subtype": "消防站", "address": "南淝河路淝河大厦A座2408室", "tel": "0551-62571119;18005695671", "capacity": 5, "capacity_unit": "辆", "coverage_radius": 3000, "id": 116 }, "geometry": { "type": "Point", "coordinates": [ 117.328889, 31.82951 ] } },
{ "type": "Feature", "properties": { "name": "安徽省正平消防工程有限公司", "lng": 117.242057, "lat": 31.870744, "type": "救援力量", "subtype": "消防站", "address": "五里墩街道清溪路中汽大厦A座703号", "tel": "18019576536", "capacity": 5, "capacity_unit": "辆", "coverage_radius": 3000, "id": 117 }, "geometry": { "type": "Point", "coordinates": [ 117.242057, 31.870744 ] } },
{ "type": "Feature", "properties": { "name": "巢湖市消防救援局", "lng": 117.899246, "lat": 31.569368, "type": "救援力量", "subtype": "消防站", "address": "义城路9号", "tel": "", "capacity": 5, "capacity_unit": "辆", "coverage_radius": 3000, "id": 118 }, "geometry": { "type": "Point", "coordinates": [ 117.899246, 31.569368 ] } },
{ "type": "Feature", "properties": { "name": "安徽成威消防科技有限公司", "lng": 117.164045, "lat": 31.819384, "type": "救援力量", "subtype": "消防站", "address": "高新区机电产业园七号楼一层", "tel": "", "capacity": 5, "capacity_unit": "辆", "coverage_radius": 3000, "id": 119 }, "geometry": { "type": "Point", "coordinates": [ 117.164045, 31.819384 ] } },
{ "type": "Feature", "properties": { "name": "浩深消防", "lng": 117.341929, "lat": 31.932071, "type": "救援力量", "subtype": "消防站", "address": "淮海大道188号京商商贸城G区", "tel": "", "capacity": 5, "capacity_unit": "辆", "coverage_radius": 3000, "id": 120 }, "geometry": { "type": "Point", "coordinates": [ 117.341929, 31.932071 ] } },
{ "type": "Feature", "properties": { "name": "长丰县朱巷镇政府专职消防站", "lng": 117.230539, "lat": 32.327124, "type": "救援力量", "subtype": "消防站", "address": "永宁路8号", "tel": "", "capacity": 5, "capacity_unit": "辆", "coverage_radius": 3000, "id": 121 }, "geometry": { "type": "Point", "coordinates": [ 117.230539, 32.327124 ] } },
{ "type": "Feature", "properties": { "name": "嘉雄消防应急照明", "lng": 117.319625, "lat": 31.826898, "type": "救援力量", "subtype": "消防站", "address": "二期B区13栋115(尧渡河路地铁站E口步行460米)", "tel": "13655659014", "capacity": 5, "capacity_unit": "辆", "coverage_radius": 3000, "id": 122 }, "geometry": { "type": "Point", "coordinates": [ 117.319625, 31.826898 ] } },
{ "type": "Feature", "properties": { "name": "安信消防", "lng": 117.259973, "lat": 31.486771, "type": "救援力量", "subtype": "消防站", "address": "永盛大道与马河路交叉口东北60米", "tel": "", "capacity": 5, "capacity_unit": "辆", "coverage_radius": 3000, "id": 123 }, "geometry": { "type": "Point", "coordinates": [ 117.259973, 31.486771 ] } },
{ "type": "Feature", "properties": { "name": "长临河镇消防工作站", "lng": 117.468004, "lat": 31.689406, "type": "救援力量", "subtype": "消防站", "address": "星光东路与万寿路交叉口西北40米", "tel": "", "capacity": 5, "capacity_unit": "辆", "coverage_radius": 3000, "id": 124 }, "geometry": { "type": "Point", "coordinates": [ 117.468004, 31.689406 ] } },
{ "type": "Feature", "properties": { "name": "合肥天广消防设备有限责任公司", "lng": 117.294564, "lat": 31.881585, "type": "救援力量", "subtype": "消防站", "address": "明光路街道北一环安徽轻工商城7号1204", "tel": "0551-67120799", "capacity": 5, "capacity_unit": "辆", "coverage_radius": 3000, "id": 125 }, "geometry": { "type": "Point", "coordinates": [ 117.294564, 31.881585 ] } },
{ "type": "Feature", "properties": { "name": "化工园区专职消防救援站", "lng": 117.325974, "lat": 31.946511, "type": "救援力量", "subtype": "消防站", "address": "怀远路34号", "tel": "", "capacity": 5, "capacity_unit": "辆", "coverage_radius": 3000, "id": 126 }, "geometry": { "type": "Point", "coordinates": [ 117.325974, 31.946511 ] } },
{ "type": "Feature", "properties": { "name": "五金城微型消防站", "lng": 117.31803, "lat": 31.827097, "type": "救援力量", "subtype": "消防站", "address": "二环路与望江路交汇处安徽五金机电商贸城A座西侧", "tel": "0551-65295011", "capacity": 5, "capacity_unit": "辆", "coverage_radius": 3000, "id": 127 }, "geometry": { "type": "Point", "coordinates": [ 117.31803, 31.827097 ] } },
{ "type": "Feature", "properties": { "name": "中隐于市微型消防站", "lng": 117.277962, "lat": 31.845713, "type": "救援力量", "subtype": "消防站", "address": "曙光路55号屯溪路小学对面", "tel": "", "capacity": 5, "capacity_unit": "辆", "coverage_radius": 3000, "id": 128 }, "geometry": { "type": "Point", "coordinates": [ 117.277962, 31.845713 ] } },
{ "type": "Feature", "properties": { "name": "林新消防科技有限公司", "lng": 117.231467, "lat": 31.785418, "type": "救援力量", "subtype": "消防站", "address": "金寨南路204号大华国际港A2004室", "tel": "17718181879", "capacity": 5, "capacity_unit": "辆", "coverage_radius": 3000, "id": 129 }, "geometry": { "type": "Point", "coordinates": [ 117.231467, 31.785418 ] } },
{ "type": "Feature", "properties": { "name": "安徽维宁消防安全技术有限公司", "lng": 117.186006, "lat": 31.777995, "type": "救援力量", "subtype": "消防站", "address": "九龙路东湖高新8栋102", "tel": "15056009530", "capacity": 5, "capacity_unit": "辆", "coverage_radius": 3000, "id": 130 }, "geometry": { "type": "Point", "coordinates": [ 117.186006, 31.777995 ] } },
{ "type": "Feature", "properties": { "name": "庐江县东顾山街道消防执勤点", "lng": 117.304584, "lat": 31.246444, "type": "救援力量", "subtype": "消防站", "address": "晨光路与邓湖路交叉口", "tel": "", "capacity": 5, "capacity_unit": "辆", "coverage_radius": 3000, "id": 131 }, "geometry": { "type": "Point", "coordinates": [ 117.304584, 31.246444 ] } },
{ "type": "Feature", "properties": { "name": "肥西县三河镇政府专职消防队", "lng": 117.259664, "lat": 31.517647, "type": "救援力量", "subtype": "消防站", "address": "二龙家园东北侧160米", "tel": "", "capacity": 5, "capacity_unit": "辆", "coverage_radius": 3000, "id": 132 }, "geometry": { "type": "Point", "coordinates": [ 117.259664, 31.517647 ] } },
{ "type": "Feature", "properties": { "name": "安徽兴众达消防材料一站式", "lng": 117.426683, "lat": 31.872017, "type": "救援力量", "subtype": "消防站", "address": "徽商大市场9栋123号(祥和地铁站C口步行420米)", "tel": "", "capacity": 5, "capacity_unit": "辆", "coverage_radius": 3000, "id": 133 }, "geometry": { "type": "Point", "coordinates": [ 117.426683, 31.872017 ] } },
{ "type": "Feature", "properties": { "name": "合肥泽诺消防设备有限公司灭火器维修厂", "lng": 117.323631, "lat": 31.78666, "type": "救援力量", "subtype": "消防站", "address": "北京路与大连路交口向西300米", "tel": "15375264119", "capacity": 5, "capacity_unit": "辆", "coverage_radius": 3000, "id": 134 }, "geometry": { "type": "Point", "coordinates": [ 117.323631, 31.78666 ] } },
{ "type": "Feature", "properties": { "name": "安徽省中信消防工程有限公司", "lng": 117.309442, "lat": 31.801688, "type": "救援力量", "subtype": "消防站", "address": "淝河镇高铁路美生滨江花月三期办公楼15楼", "tel": "", "capacity": 5, "capacity_unit": "辆", "coverage_radius": 3000, "id": 135 }, "geometry": { "type": "Point", "coordinates": [ 117.309442, 31.801688 ] } },
{ "type": "Feature", "properties": { "name": "恒基消防技术公司", "lng": 117.221596, "lat": 31.824081, "type": "救援力量", "subtype": "消防站", "address": "怀宁路1809号安德兴业大厦B座F6层", "tel": "0551-62690119;0551-64222119", "capacity": 5, "capacity_unit": "辆", "coverage_radius": 3000, "id": 136 }, "geometry": { "type": "Point", "coordinates": [ 117.221596, 31.824081 ] } },
{ "type": "Feature", "properties": { "name": "合肥安志消防设备有限公司", "lng": 117.276641, "lat": 31.269953, "type": "救援力量", "subtype": "消防站", "address": "庐城镇五里中路877-7-8号", "tel": "13966657623;18119695118", "capacity": 5, "capacity_unit": "辆", "coverage_radius": 3000, "id": 137 }, "geometry": { "type": "Point", "coordinates": [ 117.276641, 31.269953 ] } },
{ "type": "Feature", "properties": { "name": "庐江县汤池镇消防执勤点", "lng": 117.08993, "lat": 31.338139, "type": "救援力量", "subtype": "消防站", "address": "华夏幼儿园隔壁", "tel": "", "capacity": 5, "capacity_unit": "辆", "coverage_radius": 3000, "id": 138 }, "geometry": { "type": "Point", "coordinates": [ 117.08993, 31.338139 ] } },
{ "type": "Feature", "properties": { "name": "合肥久亿消防材料有限公司", "lng": 117.327478, "lat": 31.828373, "type": "救援力量", "subtype": "消防站", "address": "丰汇建材市场C区132-134号", "tel": "", "capacity": 5, "capacity_unit": "辆", "coverage_radius": 3000, "id": 139 }, "geometry": { "type": "Point", "coordinates": [ 117.327478, 31.828373 ] } },
{ "type": "Feature", "properties": { "name": "中国消防救援", "lng": 117.283158, "lat": 31.879393, "type": "救援力量", "subtype": "消防站", "address": "民政大厦北门西50米", "tel": "", "capacity": 5, "capacity_unit": "辆", "coverage_radius": 3000, "id": 140 }, "geometry": { "type": "Point", "coordinates": [ 117.283158, 31.879393 ] } },
{ "type": "Feature", "properties": { "name": "磨店社区消防工作站", "lng": 117.426081, "lat": 31.931008, "type": "救援力量", "subtype": "消防站", "address": "学府路与梁宇路交口向南150米", "tel": "", "capacity": 5, "capacity_unit": "辆", "coverage_radius": 3000, "id": 141 }, "geometry": { "type": "Point", "coordinates": [ 117.426081, 31.931008 ] } },
{ "type": "Feature", "properties": { "name": "安徽中众消防技术有限公司", "lng": 117.347201, "lat": 31.938906, "type": "救援力量", "subtype": "消防站", "address": "唐河路润升科技产业园588号", "tel": "", "capacity": 5, "capacity_unit": "辆", "coverage_radius": 3000, "id": 142 }, "geometry": { "type": "Point", "coordinates": [ 117.347201, 31.938906 ] } },
{ "type": "Feature", "properties": { "name": "安徽乐居消防科技有限公司", "lng": 117.322681, "lat": 31.827479, "type": "救援力量", "subtype": "消防站", "address": "东二环路国际五金机电商贸城三期B区11栋124-125号", "tel": "15856974922;18010851365", "capacity": 5, "capacity_unit": "辆", "coverage_radius": 3000, "id": 143 }, "geometry": { "type": "Point", "coordinates": [ 117.322681, 31.827479 ] } },
{ "type": "Feature", "properties": { "name": "中国消防救援", "lng": 117.280786, "lat": 31.860546, "type": "救援力量", "subtype": "消防站", "address": "富华大厦西北门旁", "tel": "", "capacity": 5, "capacity_unit": "辆", "coverage_radius": 3000, "id": 144 }, "geometry": { "type": "Point", "coordinates": [ 117.280786, 31.860546 ] } },
{ "type": "Feature", "properties": { "name": "蜀山区平安家园消防救援站", "lng": 117.243906, "lat": 31.850321, "type": "救援力量", "subtype": "消防站", "address": "长江西路315号(五里墩地铁站B口步行280米)", "tel": "", "capacity": 5, "capacity_unit": "辆", "coverage_radius": 3000, "id": 145 }, "geometry": { "type": "Point", "coordinates": [ 117.243906, 31.850321 ] } },
{ "type": "Feature", "properties": { "name": "巢湖市消防队对面", "lng": 117.896494, "lat": 31.627511, "type": "救援力量", "subtype": "消防站", "address": "山冲路与半汤大道交叉口西北约80米", "tel": "", "capacity": 5, "capacity_unit": "辆", "coverage_radius": 3000, "id": 146 }, "geometry": { "type": "Point", "coordinates": [ 117.896494, 31.627511 ] } },
{ "type": "Feature", "properties": { "name": "巢湖市国泰消防设备制造有限公司", "lng": 117.849865, "lat": 31.680574, "type": "救援力量", "subtype": "消防站", "address": "夏阁镇工业园区", "tel": "18056516119;18956071210", "capacity": 5, "capacity_unit": "辆", "coverage_radius": 3000, "id": 147 }, "geometry": { "type": "Point", "coordinates": [ 117.849865, 31.680574 ] } },
{ "type": "Feature", "properties": { "name": "合肥市瑶海区消防行政服务窗口", "lng": 117.325704, "lat": 31.86167, "type": "救援力量", "subtype": "消防站", "address": "长江东大街与南陵路交叉口西北40米", "tel": "", "capacity": 5, "capacity_unit": "辆", "coverage_radius": 3000, "id": 148 }, "geometry": { "type": "Point", "coordinates": [ 117.325704, 31.86167 ] } },
{ "type": "Feature", "properties": { "name": "合肥金苗消防工程有限公司", "lng": 117.378039, "lat": 32.062505, "type": "救援力量", "subtype": "消防站", "address": "元瞳镇工业聚集区众元路1号", "tel": "", "capacity": 5, "capacity_unit": "辆", "coverage_radius": 3000, "id": 149 }, "geometry": { "type": "Point", "coordinates": [ 117.378039, 32.062505 ] } },
{ "type": "Feature", "properties": { "name": "安徽勤志消防", "lng": 117.228149, "lat": 31.772731, "type": "救援力量", "subtype": "消防站", "address": "石门路与蓬莱路交叉口西北240米", "tel": "", "capacity": 5, "capacity_unit": "辆", "coverage_radius": 3000, "id": 150 }, "geometry": { "type": "Point", "coordinates": [ 117.228149, 31.772731 ] } },
{ "type": "Feature", "properties": { "name": "消防救援", "lng": 117.136582, "lat": 31.751812, "type": "救援力量", "subtype": "消防站", "address": "玉兰大道与苏岗路交叉口西南120米", "tel": "", "capacity": 5, "capacity_unit": "辆", "coverage_radius": 3000, "id": 151 }, "geometry": { "type": "Point", "coordinates": [ 117.136582, 31.751812 ] } },
{ "type": "Feature", "properties": { "name": "合肥消防", "lng": 117.298688, "lat": 31.863011, "type": "救援力量", "subtype": "消防站", "address": "环城公园东路与勤劳巷交叉口西南20米", "tel": "", "capacity": 5, "capacity_unit": "辆", "coverage_radius": 3000, "id": 152 }, "geometry": { "type": "Point", "coordinates": [ 117.298688, 31.863011 ] } },
{ "type": "Feature", "properties": { "name": "安徽安康消防总仓库", "lng": 117.408378, "lat": 31.829777, "type": "救援力量", "subtype": "消防站", "address": "大彭路与宣小路交口向东100米(南)", "tel": "", "capacity": 5, "capacity_unit": "辆", "coverage_radius": 3000, "id": 153 }, "geometry": { "type": "Point", "coordinates": [ 117.408378, 31.829777 ] } },
{ "type": "Feature", "properties": { "name": "南巢消防队", "lng": 117.855686, "lat": 31.60549, "type": "救援力量", "subtype": "消防站", "address": "安徽医科大学临床医学院附属合肥巢湖爱心医院附近", "tel": "", "capacity": 5, "capacity_unit": "辆", "coverage_radius": 3000, "id": 154 }, "geometry": { "type": "Point", "coordinates": [ 117.855686, 31.60549 ] } },
{ "type": "Feature", "properties": { "name": "欣旺消防器材(佳兴园店)", "lng": 117.254406, "lat": 31.782343, "type": "救援力量", "subtype": "消防站", "address": "习友路与芙蓉路交叉口东180米", "tel": "13349196027", "capacity": 5, "capacity_unit": "辆", "coverage_radius": 3000, "id": 155 }, "geometry": { "type": "Point", "coordinates": [ 117.254406, 31.782343 ] } },
{ "type": "Feature", "properties": { "name": "白山镇消防站(公交站)", "lng": 117.390533, "lat": 31.462809, "type": "救援力量", "subtype": "消防站", "address": "L103路", "tel": "", "capacity": 5, "capacity_unit": "辆", "coverage_radius": 3000, "id": 156 }, "geometry": { "type": "Point", "coordinates": [ 117.390533, 31.462809 ] } },
{ "type": "Feature", "properties": { "name": "鑫源消防器材", "lng": 117.254896, "lat": 31.855814, "type": "救援力量", "subtype": "消防站", "address": "淠河路与东兴街交叉口东120米", "tel": "17855170328", "capacity": 5, "capacity_unit": "辆", "coverage_radius": 3000, "id": 157 }, "geometry": { "type": "Point", "coordinates": [ 117.254896, 31.855814 ] } },
{ "type": "Feature", "properties": { "name": "庐江县岗湾街道消防执勤点", "lng": 117.292359, "lat": 31.244632, "type": "救援力量", "subtype": "消防站", "address": "文明中路54号", "tel": "", "capacity": 5, "capacity_unit": "辆", "coverage_radius": 3000, "id": 158 }, "geometry": { "type": "Point", "coordinates": [ 117.292359, 31.244632 ] } },
{ "type": "Feature", "properties": { "name": "合肥奕宸消防器材", "lng": 117.324395, "lat": 31.826922, "type": "救援力量", "subtype": "消防站", "address": "安徽五金机电商贸城三期C区1栋119.120", "tel": "17756066119", "capacity": 5, "capacity_unit": "辆", "coverage_radius": 3000, "id": 159 }, "geometry": { "type": "Point", "coordinates": [ 117.324395, 31.826922 ] } },
{ "type": "Feature", "properties": { "name": "庐江县庐城消防救援站", "lng": 117.255821, "lat": 31.249699, "type": "救援力量", "subtype": "消防站", "address": "移湖西路18号", "tel": "0551-87302119", "capacity": 5, "capacity_unit": "辆", "coverage_radius": 3000, "id": 160 }, "geometry": { "type": "Point", "coordinates": [ 117.255821, 31.249699 ] } },
{ "type": "Feature", "properties": { "name": "和烨消防消防一站式(华东店)", "lng": 117.409071, "lat": 31.836871, "type": "救援力量", "subtype": "消防站", "address": "华东钢材城I区103栋119号", "tel": "18326698883", "capacity": 5, "capacity_unit": "辆", "coverage_radius": 3000, "id": 161 }, "geometry": { "type": "Point", "coordinates": [ 117.409071, 31.836871 ] } },
{ "type": "Feature", "properties": { "name": "长丰县杜集镇政府专职消防队", "lng": 117.34266, "lat": 32.369991, "type": "救援力量", "subtype": "消防站", "address": "繁华路", "tel": "", "capacity": 5, "capacity_unit": "辆", "coverage_radius": 3000, "id": 162 }, "geometry": { "type": "Point", "coordinates": [ 117.34266, 32.369991 ] } },
{ "type": "Feature", "properties": { "name": "安徽兵安消防科技有限公司", "lng": 117.337075, "lat": 31.788875, "type": "救援力量", "subtype": "消防站", "address": "上海路7号", "tel": "18056059080;18255179911", "capacity": 5, "capacity_unit": "辆", "coverage_radius": 3000, "id": 163 }, "geometry": { "type": "Point", "coordinates": [ 117.337075, 31.788875 ] } },
{ "type": "Feature", "properties": { "name": "合肥市城建消防事务中心", "lng": 117.285227, "lat": 31.870036, "type": "救援力量", "subtype": "消防站", "address": "逍遥津街道阜阳路51号城乡建设局5楼", "tel": "", "capacity": 5, "capacity_unit": "辆", "coverage_radius": 3000, "id": 164 }, "geometry": { "type": "Point", "coordinates": [ 117.285227, 31.870036 ] } },
{ "type": "Feature", "properties": { "name": "安徽皓安消防设备有限公司", "lng": 117.321852, "lat": 31.826831, "type": "救援力量", "subtype": "消防站", "address": "当涂路2号五金城三期B区19栋110-111号", "tel": "13023063009;15656028119", "capacity": 5, "capacity_unit": "辆", "coverage_radius": 3000, "id": 165 }, "geometry": { "type": "Point", "coordinates": [ 117.321852, 31.826831 ] } },
{ "type": "Feature", "properties": { "name": "安徽莱德消防科技有限公司", "lng": 117.328623, "lat": 31.828224, "type": "救援力量", "subtype": "消防站", "address": "丰汇钢材市场E2栋131-133室", "tel": "18715078119", "capacity": 5, "capacity_unit": "辆", "coverage_radius": 3000, "id": 166 }, "geometry": { "type": "Point", "coordinates": [ 117.328623, 31.828224 ] } },
{ "type": "Feature", "properties": { "name": "合肥四达消防工程有限公司", "lng": 117.346451, "lat": 31.982486, "type": "救援力量", "subtype": "消防站", "address": "佳海工业城一期C区79幢", "tel": "13739291988;15605514333", "capacity": 5, "capacity_unit": "辆", "coverage_radius": 3000, "id": 167 }, "geometry": { "type": "Point", "coordinates": [ 117.346451, 31.982486 ] } },
{ "type": "Feature", "properties": { "name": "合肥尧安消防工程有限公司", "lng": 117.356189, "lat": 31.869455, "type": "救援力量", "subtype": "消防站", "address": "恒通路与长江东路交叉口西北160米", "tel": "15375412982;18655159003", "capacity": 5, "capacity_unit": "辆", "coverage_radius": 3000, "id": 168 }, "geometry": { "type": "Point", "coordinates": [ 117.356189, 31.869455 ] } },
{ "type": "Feature", "properties": { "name": "合肥九路消防报警设备运营中心", "lng": 117.409634, "lat": 31.836317, "type": "救援力量", "subtype": "消防站", "address": "华东建材城H区102号九路消防", "tel": "18256548119", "capacity": 5, "capacity_unit": "辆", "coverage_radius": 3000, "id": 169 }, "geometry": { "type": "Point", "coordinates": [ 117.409634, 31.836317 ] } },
{ "type": "Feature", "properties": { "name": "合肥拓新消防安全科技有限公司", "lng": 117.293975, "lat": 31.994675, "type": "救援力量", "subtype": "消防站", "address": "淮南北路003号院内4号厂房", "tel": "", "capacity": 5, "capacity_unit": "辆", "coverage_radius": 3000, "id": 170 }, "geometry": { "type": "Point", "coordinates": [ 117.293975, 31.994675 ] } },
{ "type": "Feature", "properties": { "name": "安徽永坤消防工程有限公司", "lng": 117.205761, "lat": 31.758426, "type": "救援力量", "subtype": "消防站", "address": "建海建设大厦B栋", "tel": "", "capacity": 5, "capacity_unit": "辆", "coverage_radius": 3000, "id": 171 }, "geometry": { "type": "Point", "coordinates": [ 117.205761, 31.758426 ] } },
{ "type": "Feature", "properties": { "name": "龙兴消防", "lng": 117.320739, "lat": 31.827529, "type": "救援力量", "subtype": "消防站", "address": "安徽国际五金商贸城二期B区17栋102室", "tel": "15715602729", "capacity": 5, "capacity_unit": "辆", "coverage_radius": 3000, "id": 172 }, "geometry": { "type": "Point", "coordinates": [ 117.320739, 31.827529 ] } },
{ "type": "Feature", "properties": { "name": "红门集团消防实训设备生产基地", "lng": 117.205773, "lat": 31.743011, "type": "救援力量", "subtype": "消防站", "address": "合掌路104号", "tel": "15555167892", "capacity": 5, "capacity_unit": "辆", "coverage_radius": 3000, "id": 173 }, "geometry": { "type": "Point", "coordinates": [ 117.205773, 31.743011 ] } },
{ "type": "Feature", "properties": { "name": "永达安消防科技工程有限公司", "lng": 117.189015, "lat": 31.813435, "type": "救援力量", "subtype": "消防站", "address": "梧桐路与香樟大道交叉口深港数字化产业园4幢D区", "tel": "", "capacity": 5, "capacity_unit": "辆", "coverage_radius": 3000, "id": 174 }, "geometry": { "type": "Point", "coordinates": [ 117.189015, 31.813435 ] } },
{ "type": "Feature", "properties": { "name": "浙江信达可恩消防股份有限公司安徽分公司", "lng": 117.207974, "lat": 31.852354, "type": "救援力量", "subtype": "消防站", "address": "高新技术产业开发区科学大道103号浙商大厦写字楼A栋1106室", "tel": "", "capacity": 5, "capacity_unit": "辆", "coverage_radius": 3000, "id": 175 }, "geometry": { "type": "Point", "coordinates": [ 117.207974, 31.852354 ] } },
{ "type": "Feature", "properties": { "name": "合肥长原消防工程有限责任公司", "lng": 117.245567, "lat": 31.830221, "type": "救援力量", "subtype": "消防站", "address": "黄山花园2栋写字楼3楼309", "tel": "0551-65609300", "capacity": 5, "capacity_unit": "辆", "coverage_radius": 3000, "id": 176 }, "geometry": { "type": "Point", "coordinates": [ 117.245567, 31.830221 ] } },
{ "type": "Feature", "properties": { "name": "杨庙镇专职消防队", "lng": 117.086543, "lat": 32.194833, "type": "救援力量", "subtype": "消防站", "address": "信用一街与信用路交叉口西南180米", "tel": "", "capacity": 5, "capacity_unit": "辆", "coverage_radius": 3000, "id": 177 }, "geometry": { "type": "Point", "coordinates": [ 117.086543, 32.194833 ] } },
{ "type": "Feature", "properties": { "name": "安徽崇正消防设备有限公司", "lng": 117.430189, "lat": 31.829578, "type": "救援力量", "subtype": "消防站", "address": "撮镇镇裕溪路888号浙商城1号办公楼16层", "tel": "13856082119", "capacity": 5, "capacity_unit": "辆", "coverage_radius": 3000, "id": 178 }, "geometry": { "type": "Point", "coordinates": [ 117.430189, 31.829578 ] } },
{ "type": "Feature", "properties": { "name": "安徽辰龙消防设备制造有限公司", "lng": 117.764075, "lat": 31.791825, "type": "救援力量", "subtype": "消防站", "address": "柘皋镇中南高科合巢智能制造产业园", "tel": "", "capacity": 5, "capacity_unit": "辆", "coverage_radius": 3000, "id": 179 }, "geometry": { "type": "Point", "coordinates": [ 117.764075, 31.791825 ] } },
{ "type": "Feature", "properties": { "name": "蓬辉水箱消防水箱生活水箱厂", "lng": 117.269266, "lat": 31.967605, "type": "救援力量", "subtype": "消防站", "address": "金江路30号", "tel": "13866718879", "capacity": 5, "capacity_unit": "辆", "coverage_radius": 3000, "id": 180 }, "geometry": { "type": "Point", "coordinates": [ 117.269266, 31.967605 ] } },
{ "type": "Feature", "properties": { "name": "安徽消防配件总代理合肥宝辉消防物资", "lng": 117.408436, "lat": 31.837402, "type": "救援力量", "subtype": "消防站", "address": "和平路b区", "tel": "15055176107", "capacity": 5, "capacity_unit": "辆", "coverage_radius": 3000, "id": 181 }, "geometry": { "type": "Point", "coordinates": [ 117.408436, 31.837402 ] } },
{ "type": "Feature", "properties": { "name": "安徽永松消防工程有限公司", "lng": 117.429193, "lat": 31.843028, "type": "救援力量", "subtype": "消防站", "address": "新世界路华吉晟玻璃厂内", "tel": "", "capacity": 5, "capacity_unit": "辆", "coverage_radius": 3000, "id": 182 }, "geometry": { "type": "Point", "coordinates": [ 117.429193, 31.843028 ] } },
{ "type": "Feature", "properties": { "name": "合肥途岩消防科技有限公司", "lng": 117.325969, "lat": 31.825562, "type": "救援力量", "subtype": "消防站", "address": "五金商贸城C区12栋132-133", "tel": "", "capacity": 5, "capacity_unit": "辆", "coverage_radius": 3000, "id": 183 }, "geometry": { "type": "Point", "coordinates": [ 117.325969, 31.825562 ] } },
{ "type": "Feature", "properties": { "name": "安徽警阳消防", "lng": 117.091759, "lat": 31.76195, "type": "救援力量", "subtype": "消防站", "address": "五金区B一1313", "tel": "18056071551", "capacity": 5, "capacity_unit": "辆", "coverage_radius": 3000, "id": 184 }, "geometry": { "type": "Point", "coordinates": [ 117.091759, 31.76195 ] } },
{ "type": "Feature", "properties": { "name": "龙门寺服务区微型消防站治安巡逻", "lng": 117.105917, "lat": 32.138732, "type": "救援力量", "subtype": "消防站", "address": "龙门寺服务区与S17蚌合高速交叉口东北340米", "tel": "", "capacity": 5, "capacity_unit": "辆", "coverage_radius": 3000, "id": 185 }, "geometry": { "type": "Point", "coordinates": [ 117.105917, 32.138732 ] } },
{ "type": "Feature", "properties": { "name": "华润万象汇微型消防站", "lng": 117.256469, "lat": 31.888136, "type": "救援力量", "subtype": "消防站", "address": "桃花店路华润橡树湾-三期", "tel": "", "capacity": 5, "capacity_unit": "辆", "coverage_radius": 3000, "id": 186 }, "geometry": { "type": "Point", "coordinates": [ 117.256469, 31.888136 ] } },
{ "type": "Feature", "properties": { "name": "瑶海消防", "lng": 117.353822, "lat": 31.854855, "type": "救援力量", "subtype": "消防站", "address": "乐水路与曹冲路交叉口东南80米", "tel": "", "capacity": 5, "capacity_unit": "辆", "coverage_radius": 3000, "id": 187 }, "geometry": { "type": "Point", "coordinates": [ 117.353822, 31.854855 ] } },
{ "type": "Feature", "properties": { "name": "合肥市蜀山区综合应急救援大队", "lng": 117.257451, "lat": 31.830369, "type": "救援力量", "subtype": "消防站", "address": "望江西路55号", "tel": "", "capacity": 5, "capacity_unit": "辆", "coverage_radius": 3000, "id": 188 }, "geometry": { "type": "Point", "coordinates": [ 117.257451, 31.830369 ] } },
{ "type": "Feature", "properties": { "name": "肥西县山南镇消防救援站", "lng": 116.878307, "lat": 31.628037, "type": "救援力量", "subtype": "消防站", "address": "山吕路与山农路交叉口南240米", "tel": "", "capacity": 5, "capacity_unit": "辆", "coverage_radius": 3000, "id": 189 }, "geometry": { "type": "Point", "coordinates": [ 116.878307, 31.628037 ] } },
{ "type": "Feature", "properties": { "name": "庐江县矾山镇消防执勤点", "lng": 117.428397, "lat": 31.098792, "type": "救援力量", "subtype": "消防站", "address": "矾山镇(原)卫生院内", "tel": "", "capacity": 5, "capacity_unit": "辆", "coverage_radius": 3000, "id": 190 }, "geometry": { "type": "Point", "coordinates": [ 117.428397, 31.098792 ] } },
{ "type": "Feature", "properties": { "name": "安源消防", "lng": 116.871841, "lat": 31.798404, "type": "救援力量", "subtype": "消防站", "address": "官山路与肥西路交叉口西南80米", "tel": "", "capacity": 5, "capacity_unit": "辆", "coverage_radius": 3000, "id": 191 }, "geometry": { "type": "Point", "coordinates": [ 116.871841, 31.798404 ] } },
{ "type": "Feature", "properties": { "name": "阳光里微型消防站", "lng": 117.342599, "lat": 31.768135, "type": "救援力量", "subtype": "消防站", "address": "河南路与沪中支路交叉口东南40米", "tel": "", "capacity": 5, "capacity_unit": "辆", "coverage_radius": 3000, "id": 192 }, "geometry": { "type": "Point", "coordinates": [ 117.342599, 31.768135 ] } },
{ "type": "Feature", "properties": { "name": "合肥新桥国际机场消防站", "lng": 116.971501, "lat": 31.995023, "type": "救援力量", "subtype": "消防站", "address": "091乡道", "tel": "", "capacity": 5, "capacity_unit": "辆", "coverage_radius": 3000, "id": 193 }, "geometry": { "type": "Point", "coordinates": [ 116.971501, 31.995023 ] } },
{ "type": "Feature", "properties": { "name": "合肥市瑶海区消防安全委员会", "lng": 117.325607, "lat": 31.861698, "type": "救援力量", "subtype": "消防站", "address": "长江东大街与南陵路交叉口西北40米", "tel": "", "capacity": 5, "capacity_unit": "辆", "coverage_radius": 3000, "id": 194 }, "geometry": { "type": "Point", "coordinates": [ 117.325607, 31.861698 ] } },
{ "type": "Feature", "properties": { "name": "巢湖市槐林镇专职消防队", "lng": 117.620706, "lat": 31.421787, "type": "救援力量", "subtype": "消防站", "address": "槐林派出所西南门旁", "tel": "", "capacity": 5, "capacity_unit": "辆", "coverage_radius": 3000, "id": 195 }, "geometry": { "type": "Point", "coordinates": [ 117.620706, 31.421787 ] } },
{ "type": "Feature", "properties": { "name": "长丰县朱巷镇应急消防站", "lng": 117.23051, "lat": 32.327113, "type": "救援力量", "subtype": "消防站", "address": "永宁路8号", "tel": "", "capacity": 5, "capacity_unit": "辆", "coverage_radius": 3000, "id": 196 }, "geometry": { "type": "Point", "coordinates": [ 117.23051, 32.327113 ] } },
{ "type": "Feature", "properties": { "name": "百大周谷堆大兴物流园消防站", "lng": 117.382359, "lat": 31.837911, "type": "救援力量", "subtype": "消防站", "address": "百大周谷堆副食品交易中心b2号楼25号", "tel": "", "capacity": 5, "capacity_unit": "辆", "coverage_radius": 3000, "id": 197 }, "geometry": { "type": "Point", "coordinates": [ 117.382359, 31.837911 ] } },
{ "type": "Feature", "properties": { "name": "合肥经济技术开发区消防大队丹霞中队", "lng": 117.242861, "lat": 31.764982, "type": "救援力量", "subtype": "消防站", "address": "丹霞路与天都路交叉口东200米", "tel": "", "capacity": 5, "capacity_unit": "辆", "coverage_radius": 3000, "id": 198 }, "geometry": { "type": "Point", "coordinates": [ 117.242861, 31.764982 ] } },
{ "type": "Feature", "properties": { "name": "官亭消防站", "lng": 116.884754, "lat": 31.804235, "type": "救援力量", "subtype": "消防站", "address": "长江西路辅路与玉成路交叉口东260米", "tel": "", "capacity": 5, "capacity_unit": "辆", "coverage_radius": 3000, "id": 199 }, "geometry": { "type": "Point", "coordinates": [ 116.884754, 31.804235 ] } },
{ "type": "Feature", "properties": { "name": "琼林苑消防站", "lng": 117.426175, "lat": 31.931075, "type": "救援力量", "subtype": "消防站", "address": "梁宇路与学府路交叉口南80米", "tel": "", "capacity": 5, "capacity_unit": "辆", "coverage_radius": 3000, "id": 200 }, "geometry": { "type": "Point", "coordinates": [ 117.426175, 31.931075 ] } },
{ "type": "Feature", "properties": { "name": "九九夕阳红微型消防站", "lng": 117.362385, "lat": 31.889686, "type": "救援力量", "subtype": "消防站", "address": "九久夕阳红老年城新海大道店西南门旁", "tel": "", "capacity": 5, "capacity_unit": "辆", "coverage_radius": 3000, "id": 201 }, "geometry": { "type": "Point", "coordinates": [ 117.362385, 31.889686 ] } },
{ "type": "Feature", "properties": { "name": "庐阳消防", "lng": 117.281044, "lat": 31.919686, "type": "救援力量", "subtype": "消防站", "address": "金钢大厦北侧80米", "tel": "", "capacity": 5, "capacity_unit": "辆", "coverage_radius": 3000, "id": 202 }, "geometry": { "type": "Point", "coordinates": [ 117.281044, 31.919686 ] } },
{ "type": "Feature", "properties": { "name": "长丰县杜集镇应急消防站", "lng": 117.342545, "lat": 32.370017, "type": "救援力量", "subtype": "消防站", "address": "繁华路", "tel": "", "capacity": 5, "capacity_unit": "辆", "coverage_radius": 3000, "id": 203 }, "geometry": { "type": "Point", "coordinates": [ 117.342545, 32.370017 ] } },
{ "type": "Feature", "properties": { "name": "中建一局消防", "lng": 117.339583, "lat": 31.923846, "type": "救援力量", "subtype": "消防站", "address": "东淝河路京商国际商贸城I区", "tel": "", "capacity": 5, "capacity_unit": "辆", "coverage_radius": 3000, "id": 204 }, "geometry": { "type": "Point", "coordinates": [ 117.339583, 31.923846 ] } },
{ "type": "Feature", "properties": { "name": "治安消防岗亭", "lng": 117.270439, "lat": 31.809817, "type": "救援力量", "subtype": "消防站", "address": "竹西巷与宿松路交叉口东80米", "tel": "", "capacity": 5, "capacity_unit": "辆", "coverage_radius": 3000, "id": 205 }, "geometry": { "type": "Point", "coordinates": [ 117.270439, 31.809817 ] } },
{ "type": "Feature", "properties": { "name": "撮镇镇唐安社区消防办公室", "lng": 117.402334, "lat": 31.828899, "type": "救援力量", "subtype": "消防站", "address": "青年小区北3门东南80米", "tel": "", "capacity": 5, "capacity_unit": "辆", "coverage_radius": 3000, "id": 206 }, "geometry": { "type": "Point", "coordinates": [ 117.402334, 31.828899 ] } },
{ "type": "Feature", "properties": { "name": "黄巷村淝河大厦微型消防站", "lng": 117.328662, "lat": 31.829564, "type": "救援力量", "subtype": "消防站", "address": "南淝河路淝河大厦", "tel": "", "capacity": 5, "capacity_unit": "辆", "coverage_radius": 3000, "id": 207 }, "geometry": { "type": "Point", "coordinates": [ 117.328662, 31.829564 ] } },
{ "type": "Feature", "properties": { "name": "合肥创新产业园消防站", "lng": 117.137728, "lat": 31.831852, "type": "救援力量", "subtype": "消防站", "address": "望江西路与梅岭巷交叉口东北220米", "tel": "", "capacity": 5, "capacity_unit": "辆", "coverage_radius": 3000, "id": 208 }, "geometry": { "type": "Point", "coordinates": [ 117.137728, 31.831852 ] } },
{ "type": "Feature", "properties": { "name": "芫东社区微型消防", "lng": 117.301553, "lat": 31.852629, "type": "救援力量", "subtype": "消防站", "address": "马鞍山路76号能源大厦F1层", "tel": "", "capacity": 5, "capacity_unit": "辆", "coverage_radius": 3000, "id": 209 }, "geometry": { "type": "Point", "coordinates": [ 117.301553, 31.852629 ] } },
{ "type": "Feature", "properties": { "name": "上派镇潭冲社区微型消防站", "lng": 117.152025, "lat": 31.702425, "type": "救援力量", "subtype": "消防站", "address": "人民路与振宁路交叉口南120米", "tel": "", "capacity": 5, "capacity_unit": "辆", "coverage_radius": 3000, "id": 210 }, "geometry": { "type": "Point", "coordinates": [ 117.152025, 31.702425 ] } },
{ "type": "Feature", "properties": { "name": "合肥微型消防站", "lng": 117.243356, "lat": 31.831168, "type": "救援力量", "subtype": "消防站", "address": "望江路与东至路交叉口西260米", "tel": "", "capacity": 5, "capacity_unit": "辆", "coverage_radius": 3000, "id": 211 }, "geometry": { "type": "Point", "coordinates": [ 117.243356, 31.831168 ] } },
{ "type": "Feature", "properties": { "name": "金寨南路社区消防工作办公室", "lng": 117.265412, "lat": 31.82484, "type": "救援力量", "subtype": "消防站", "address": "常青街道上派路名都花园东100米附近", "tel": "", "capacity": 5, "capacity_unit": "辆", "coverage_radius": 3000, "id": 212 }, "geometry": { "type": "Point", "coordinates": [ 117.265412, 31.82484 ] } },
{ "type": "Feature", "properties": { "name": "望江东路社区微型消防站", "lng": 117.273899, "lat": 31.82814, "type": "救援力量", "subtype": "消防站", "address": "手表厂小区北1门旁", "tel": "", "capacity": 5, "capacity_unit": "辆", "coverage_radius": 3000, "id": 213 }, "geometry": { "type": "Point", "coordinates": [ 117.273899, 31.82814 ] } },
{ "type": "Feature", "properties": { "name": "合肥中菜市消防站", "lng": 117.257607, "lat": 31.902864, "type": "救援力量", "subtype": "消防站", "address": "清源路与望峰路交叉口西180米", "tel": "", "capacity": 5, "capacity_unit": "辆", "coverage_radius": 3000, "id": 214 }, "geometry": { "type": "Point", "coordinates": [ 117.257607, 31.902864 ] } },
{ "type": "Feature", "properties": { "name": "瑶海区大兴镇微型消防站", "lng": 117.386121, "lat": 31.83234, "type": "救援力量", "subtype": "消防站", "address": "钟油坊路附近", "tel": "", "capacity": 5, "capacity_unit": "辆", "coverage_radius": 3000, "id": 215 }, "geometry": { "type": "Point", "coordinates": [ 117.386121, 31.83234 ] } },
{ "type": "Feature", "properties": { "name": "高新区长宁中心社区微型消防站", "lng": 117.137442, "lat": 31.816329, "type": "救援力量", "subtype": "消防站", "address": "复兴路复兴家园", "tel": "", "capacity": 5, "capacity_unit": "辆", "coverage_radius": 3000, "id": 216 }, "geometry": { "type": "Point", "coordinates": [ 117.137442, 31.816329 ] } },
{ "type": "Feature", "properties": { "name": "五里庙装饰世界微型消防站", "lng": 117.323427, "lat": 31.835533, "type": "救援力量", "subtype": "消防站", "address": "东二环路五里庙装饰世界", "tel": "", "capacity": 5, "capacity_unit": "辆", "coverage_radius": 3000, "id": 217 }, "geometry": { "type": "Point", "coordinates": [ 117.323427, 31.835533 ] } },
{ "type": "Feature", "properties": { "name": "常青街道凌大塘社区微型消防站", "lng": 117.289766, "lat": 31.811286, "type": "救援力量", "subtype": "消防站", "address": "望湖西苑南门旁", "tel": "", "capacity": 5, "capacity_unit": "辆", "coverage_radius": 3000, "id": 218 }, "geometry": { "type": "Point", "coordinates": [ 117.289766, 31.811286 ] } },
{ "type": "Feature", "properties": { "name": "茶博城微型消防站", "lng": 117.320988, "lat": 31.769309, "type": "救援力量", "subtype": "消防站", "address": "南翔二路华夏国际茶博城(包河大道店)", "tel": "", "capacity": 5, "capacity_unit": "辆", "coverage_radius": 3000, "id": 219 }, "geometry": { "type": "Point", "coordinates": [ 117.320988, 31.769309 ] } },
{ "type": "Feature", "properties": { "name": "上派镇爱和社区微型消防站", "lng": 117.151611, "lat": 31.718363, "type": "救援力量", "subtype": "消防站", "address": "爱和家园", "tel": "", "capacity": 5, "capacity_unit": "辆", "coverage_radius": 3000, "id": 220 }, "geometry": { "type": "Point", "coordinates": [ 117.151611, 31.718363 ] } },
{ "type": "Feature", "properties": { "name": "圆通市场微型消防站", "lng": 117.166942, "lat": 31.718859, "type": "救援力量", "subtype": "消防站", "address": "青年路与S二路交叉口西北100米", "tel": "", "capacity": 5, "capacity_unit": "辆", "coverage_radius": 3000, "id": 221 }, "geometry": { "type": "Point", "coordinates": [ 117.166942, 31.718859 ] } },
{ "type": "Feature", "properties": { "name": "常青街道淝南社区微型消防站", "lng": 117.280478, "lat": 31.804468, "type": "救援力量", "subtype": "消防站", "address": "潜口路与龙图路交叉口南100米", "tel": "", "capacity": 5, "capacity_unit": "辆", "coverage_radius": 3000, "id": 222 }, "geometry": { "type": "Point", "coordinates": [ 117.280478, 31.804468 ] } },
{ "type": "Feature", "properties": { "name": "仰光社区微型消防站", "lng": 117.267605, "lat": 31.822072, "type": "救援力量", "subtype": "消防站", "address": "晨光苑南苑北2门旁", "tel": "", "capacity": 5, "capacity_unit": "辆", "coverage_radius": 3000, "id": 223 }, "geometry": { "type": "Point", "coordinates": [ 117.267605, 31.822072 ] } },
{ "type": "Feature", "properties": { "name": "合肥首创奥莱微型消防站", "lng": 117.289317, "lat": 31.692135, "type": "救援力量", "subtype": "消防站", "address": "徽州大道与珠江路交口合肥首创奥特莱斯", "tel": "", "capacity": 5, "capacity_unit": "辆", "coverage_radius": 3000, "id": 224 }, "geometry": { "type": "Point", "coordinates": [ 117.289317, 31.692135 ] } },
{ "type": "Feature", "properties": { "name": "庐阳区公安消防大队", "lng": 117.254717, "lat": 31.885548, "type": "救援力量", "subtype": "消防站", "address": "畅园新村西区西门北110米", "tel": "", "capacity": 5, "capacity_unit": "辆", "coverage_radius": 3000, "id": 225 }, "geometry": { "type": "Point", "coordinates": [ 117.254717, 31.885548 ] } },
{ "type": "Feature", "properties": { "name": "镇政府专职消防队", "lng": 116.886426, "lat": 31.620446, "type": "救援力量", "subtype": "消防站", "address": "440省道与045县道交叉口东320米", "tel": "", "capacity": 5, "capacity_unit": "辆", "coverage_radius": 3000, "id": 226 }, "geometry": { "type": "Point", "coordinates": [ 116.886426, 31.620446 ] } },
{ "type": "Feature", "properties": { "name": "航南社区微型消防站", "lng": 117.302729, "lat": 31.853237, "type": "救援力量", "subtype": "消防站", "address": "银屏一巷滨水华城", "tel": "", "capacity": 5, "capacity_unit": "辆", "coverage_radius": 3000, "id": 227 }, "geometry": { "type": "Point", "coordinates": [ 117.302729, 31.853237 ] } },
{ "type": "Feature", "properties": { "name": "森林微型消防站", "lng": 117.81833, "lat": 31.556599, "type": "救援力量", "subtype": "消防站", "address": "东庵林场东庵森林公园", "tel": "", "capacity": 5, "capacity_unit": "辆", "coverage_radius": 3000, "id": 228 }, "geometry": { "type": "Point", "coordinates": [ 117.81833, 31.556599 ] } },
{ "type": "Feature", "properties": { "name": "新桥服务区微型消防站", "lng": 116.893794, "lat": 31.918278, "type": "救援力量", "subtype": "消防站", "address": "新桥服务区北侧", "tel": "", "capacity": 5, "capacity_unit": "辆", "coverage_radius": 3000, "id": 229 }, "geometry": { "type": "Point", "coordinates": [ 116.893794, 31.918278 ] } },
{ "type": "Feature", "properties": { "name": "合肥华润万象城微型消防站", "lng": 117.230261, "lat": 31.800348, "type": "救援力量", "subtype": "消防站", "address": "潜山路111号万象城F1层", "tel": "0551-65507119", "capacity": 5, "capacity_unit": "辆", "coverage_radius": 3000, "id": 230 }, "geometry": { "type": "Point", "coordinates": [ 117.230261, 31.800348 ] } }
]
}
