{
"type": "FeatureCollection",
"name": "tanlu_fault_hefei_4490",
"crs": { "type": "name", "properties": { "name": "urn:ogc:def:crs:EPSG::4490" } },
"features": [
{ "type": "Feature", "properties": { "name": "郯庐断裂带（合肥段）" }, "geometry": { "type": "MultiLineString", "coordinates": [ [ [ 117.908932, 32.814764000000103 ], [ 117.845919, 32.545451 ], [ 117.806975, 32.454329000000101 ], [ 117.772408, 32.381434 ], [ 117.731287, 32.283021 ], [ 117.68369, 32.171852000000101 ], [ 117.661949, 32.104414 ], [ 117.653238, 32.075251 ], [ 117.644459, 32.035149 ], [ 117.635726, 32.002339 ], [ 117.603338, 31.936735 ], [ 117.568829, 31.872957 ], [ 117.53228, 31.823766 ], [ 117.491548, 31.787343 ] ], [ [ 116.950278, 30.767248000000102 ], [ 116.939118, 30.752118 ], [ 116.866642, 30.676401000000102 ], [ 116.781272, 30.605433000000101 ], [ 116.729312, 30.5628530000001 ], [ 116.675595, 30.5344850000001 ], [ 116.605293, 30.510872 ], [ 116.531278, 30.484104000000102 ], [ 116.442415, 30.444719 ], [ 116.370186, 30.408475 ], [ 116.318236, 30.367474000000101 ], [ 116.281045, 30.3248800000001 ], [ 116.276254551, 30.319629027000101 ], [ 116.23643, 30.275976 ], [ 116.190038, 30.238128 ], [ 116.158614, 30.231844 ], [ 116.110545, 30.220839000000101 ], [ 116.071676, 30.205089 ], [ 116.056474, 30.193161 ] ], [ [ 117.12649771, 30.019697244 ], [ 117.191374, 30.045796 ], [ 117.269101, 30.075718000000101 ], [ 117.307949, 30.0883110000001 ], [ 117.396704, 30.110327 ], [ 117.455909, 30.130794 ], [ 117.526252, 30.160724000000101 ], [ 117.561378, 30.168583000000101 ], [ 117.611304, 30.181165 ], [ 117.709338, 30.211067 ], [ 117.777824, 30.239419000000101 ], [ 117.842698, 30.2804070000001 ], [ 117.933496, 30.3340010000001 ], [ 117.976146, 30.3639580000001 ], [ 118.029992, 30.412852 ], [ 118.080166, 30.464908 ], [ 118.147073, 30.535894 ], [ 118.21949, 30.6021380000001 ], [ 118.275172, 30.649451 ], [ 118.301082592, 30.6626783990001 ], [ 118.30218863, 30.663534146000099 ], [ 118.3039198, 30.664866106000101 ], [ 118.305655344, 30.6661923610001 ], [ 118.307395244, 30.667512897000101 ], [ 118.309139481, 30.668827698000101 ], [ 118.310888035, 30.670136752000101 ], [ 118.312640889, 30.6714400440001 ], [ 118.314398023, 30.672737559 ], [ 118.316159418, 30.674029284000099 ], [ 118.317925055, 30.6753152050001 ], [ 118.319694915, 30.676595307000099 ], [ 118.321468979, 30.677869577000099 ], [ 118.323247227, 30.679138001000101 ], [ 118.32502964, 30.680400566000099 ], [ 118.326816199, 30.681657257 ], [ 118.328606884, 30.682908061 ], [ 118.330401677, 30.684152965000099 ], [ 118.332200557, 30.685391954000099 ], [ 118.334003506, 30.6866250160001 ], [ 118.335810503, 30.687852138 ], [ 118.337621529, 30.6890733050001 ], [ 118.339436565, 30.690288505000101 ], [ 118.341255591, 30.691497724 ], [ 118.343078587, 30.692700950000098 ], [ 118.344905533, 30.6938981700001 ], [ 118.346736409, 30.695089369000101 ], [ 118.348571197, 30.6962745360001 ], [ 118.350409875, 30.6974536580001 ], [ 118.352252424, 30.6986267220001 ], [ 118.354098824, 30.699793715000101 ], [ 118.355949055, 30.700954624000101 ], [ 118.357803097, 30.702109438 ], [ 118.35966093, 30.703258142 ], [ 118.361522533, 30.704400726000099 ], [ 118.363387888, 30.7055371770001 ], [ 118.365256972, 30.7066674820001 ], [ 118.367129767, 30.707791629 ], [ 118.369006251, 30.708909605000098 ], [ 118.370886405, 30.710021400000102 ], [ 118.372770208, 30.711127000000101 ], [ 118.374657639, 30.712226394000101 ], [ 118.376548679, 30.713319570000099 ], [ 118.378443307, 30.7144065160001 ], [ 118.380341502, 30.715487221 ], [ 118.382243244, 30.7165616710001 ], [ 118.384148511, 30.717629857000102 ], [ 118.386057285, 30.718691766000099 ], [ 118.387969543, 30.719747387 ], [ 118.389885265, 30.720796708000101 ], [ 118.39180443, 30.721839718000101 ], [ 118.393727018, 30.722876406000101 ], [ 118.395653007, 30.723906761000102 ], [ 118.397582377, 30.7249307700001 ], [ 118.399515108, 30.725948424000102 ], [ 118.401451177, 30.726959712000099 ], [ 118.403390564, 30.727964621000101 ], [ 118.405333248, 30.728963142000101 ], [ 118.407279208, 30.7299552630001 ], [ 118.409228424, 30.730940975000099 ], [ 118.411180872, 30.731920265 ], [ 118.413136534, 30.732893124 ], [ 118.415095386, 30.7338595400001 ], [ 118.41705741, 30.7348195050001 ], [ 118.419022581, 30.735773006 ], [ 118.420990881, 30.736720034000101 ], [ 118.422962287, 30.737660579000099 ], [ 118.424936778, 30.738594630000101 ], [ 118.426914332, 30.739522177000101 ], [ 118.428894929, 30.740443211000098 ], [ 118.430878547, 30.741357720000099 ], [ 118.432865163, 30.7422656960001 ], [ 118.434854757, 30.743167129000099 ], [ 118.436847308, 30.7440620080001 ], [ 118.438842793, 30.744950324000101 ], [ 118.440841191, 30.745832067 ], [ 118.44284248, 30.746707228 ], [ 118.444846639, 30.747575798000099 ], [ 118.446853646, 30.748437766000102 ], [ 118.448863479, 30.749293124000101 ], [ 118.450876116, 30.750141863000099 ], [ 118.452891536, 30.7509839720001 ], [ 118.454909717, 30.751819443 ], [ 118.456930636, 30.752648268000101 ], [ 118.458954273, 30.753470436 ], [ 118.460980604, 30.75428594 ], [ 118.463009609, 30.755094769 ], [ 118.465041265, 30.755896916 ], [ 118.46707555, 30.756692372000099 ], [ 118.469112442, 30.757481128000101 ], [ 118.471151919, 30.758263176000099 ], [ 118.473193959, 30.759038507000099 ], [ 118.47523854, 30.7598071130001 ], [ 118.47728564, 30.760568985000099 ], [ 118.479335236, 30.761324115 ], [ 118.481387307, 30.762072495 ], [ 118.483441829, 30.762814117000101 ], [ 118.485498781, 30.763548973000098 ], [ 118.487558141, 30.764277055 ], [ 118.489619886, 30.764998354000099 ], [ 118.491683994, 30.765712864000101 ], [ 118.493750442, 30.766420577000101 ], [ 118.495819209, 30.7671214840001 ], [ 118.497890271, 30.7678155780001 ], [ 118.499963607, 30.768502852 ], [ 118.502039193, 30.769183299000101 ], [ 118.504117008, 30.76985691 ], [ 118.506197028, 30.770523678000099 ], [ 118.508279232, 30.7711835970001 ], [ 118.510363596, 30.771836659000101 ], [ 118.512450099, 30.772482858 ], [ 118.514538717, 30.773122185000101 ], [ 118.516629429, 30.773754634000099 ], [ 118.51872221, 30.774380199000099 ], [ 118.520817039, 30.774998873000101 ], [ 118.522913893, 30.7756106480001 ], [ 118.52501275, 30.7762155180001 ], [ 118.527113585, 30.776813477000101 ], [ 118.529216378, 30.7774045190001 ], [ 118.531321104, 30.777988636000099 ], [ 118.533427741, 30.7785658220001 ], [ 118.535536267, 30.779136072000099 ], [ 118.537646658, 30.7796993790001 ], [ 118.539758892, 30.7802557370001 ], [ 118.541872946, 30.780805139000101 ], [ 118.543988796, 30.781347581 ], [ 118.546106421, 30.781883056000101 ], [ 118.548225796, 30.782411558 ], [ 118.550346899, 30.782933081000099 ], [ 118.552469707, 30.7834476200001 ], [ 118.554594198, 30.783955170000102 ], [ 118.556720347, 30.784455725 ], [ 118.558848132, 30.784949279 ], [ 118.560977531, 30.7854358270001 ], [ 118.563108519, 30.7859153630001 ], [ 118.565241073, 30.786387884000099 ], [ 118.567375172, 30.7868533820001 ], [ 118.569510791, 30.787311855 ], [ 118.571647908, 30.787763295 ], [ 118.573786498, 30.7882077 ], [ 118.57592654, 30.788645063 ], [ 118.57806801, 30.78907538 ], [ 118.580210885, 30.789498646000101 ], [ 118.582355141, 30.789914857 ], [ 118.584500755, 30.790324009000098 ], [ 118.586647704, 30.7907260960001 ], [ 118.588795966, 30.791121115000099 ], [ 118.590945515, 30.791509061000099 ], [ 118.59309633, 30.791889930000099 ], [ 118.595248387, 30.7922637180001 ], [ 118.597401662, 30.792630420000101 ], [ 118.599556133, 30.792990034000098 ], [ 118.601711776, 30.793342554 ], [ 118.603868567, 30.793687978 ], [ 118.606026483, 30.794026301000098 ], [ 118.608185502, 30.794357519000101 ], [ 118.610345598, 30.794681630000099 ], [ 118.61250675, 30.794998629000101 ], [ 118.614668934, 30.795308514000101 ], [ 118.616832125, 30.795611281 ], [ 118.618996302, 30.795906926 ], [ 118.62116144, 30.796195446000102 ], [ 118.621384641, 30.796224777000099 ], [ 118.625784899, 30.797552160000102 ], [ 118.632370055, 30.799532379000102 ], [ 118.638957277, 30.801505714000101 ], [ 118.645546557, 30.803472163 ], [ 118.652137889, 30.805431725000101 ], [ 118.658731265, 30.807384397000099 ], [ 118.665326679, 30.809330178 ], [ 118.671924122, 30.811269064 ], [ 118.678523589, 30.813201055 ], [ 118.68512507, 30.8151261470001 ], [ 118.69172856, 30.817044339000098 ], [ 118.698334051, 30.818955628000101 ], [ 118.704941536, 30.8208600130001 ], [ 118.711551008, 30.8227574910001 ], [ 118.718162459, 30.824648061000101 ], [ 118.724775883, 30.82653172 ], [ 118.731391271, 30.828408466 ], [ 118.738008617, 30.830278298000099 ], [ 118.744627914, 30.832141212000099 ], [ 118.751249154, 30.833997208000099 ], [ 118.75787233, 30.835846283000102 ], [ 118.764497435, 30.8376884350001 ], [ 118.771124462, 30.839523662000101 ], [ 118.777753403, 30.8413519620001 ], [ 118.784384251, 30.843173333 ], [ 118.791016999, 30.844987773000099 ], [ 118.79765164, 30.84679528 ], [ 118.804288166, 30.848595852000098 ], [ 118.810926571, 30.850389487000101 ], [ 118.817566846, 30.852176184000101 ], [ 118.824208985, 30.85395594 ], [ 118.83085298, 30.855728753000101 ], [ 118.837498825, 30.8574946210001 ], [ 118.844146511, 30.859253543000101 ], [ 118.850796032, 30.861005516 ], [ 118.857447381, 30.862750539 ], [ 118.864100549, 30.864488610000102 ], [ 118.87075553, 30.8662197260001 ], [ 118.877412317, 30.867943886 ], [ 118.884070902, 30.8696610890001 ], [ 118.890731279, 30.871371331 ], [ 118.897393439, 30.873074611 ], [ 118.904057375, 30.8747709280001 ], [ 118.910723081, 30.876460280000099 ], [ 118.917390548, 30.878142664000102 ], [ 118.92405977, 30.879818079000099 ], [ 118.93073074, 30.881486524000099 ], [ 118.933780214, 30.882246746000099 ] ], [ [ 117.745886009, 31.449913436000099 ], [ 117.478892532, 30.87863831 ] ], [ [ 117.467950694, 30.715565781000102 ], [ 117.421350795, 30.62540663 ], [ 117.384736553, 30.5493349270001 ], [ 117.36143654, 30.436636095 ] ], [ [ 118.254958415, 30.964838156 ], [ 118.260132338, 30.9603585340001 ] ], [ [ 118.260132338, 30.9603585340001 ], [ 118.422300107, 30.819952434000101 ] ], [ [ 118.407897949, 31.167114258000101 ], [ 118.387878418, 31.144714355000101 ], [ 118.377929687, 31.125122070000099 ], [ 118.354492187, 31.090087891000099 ], [ 118.343078613, 31.0726928710001 ], [ 118.329101562, 31.055480957 ], [ 118.320129395, 31.045898437000101 ], [ 118.304321289, 31.026672363 ], [ 118.295288086, 31.0084838870001 ], [ 118.284301758, 30.990722656000099 ], [ 118.264282227, 30.9666748050001 ], [ 118.260132338, 30.9603585340001 ] ], [ [ 118.260132338, 30.9603585340001 ], [ 118.246276855, 30.93927002 ], [ 118.228088379, 30.92388916 ], [ 118.202880859, 30.913513184000099 ], [ 118.176513672, 30.900085449000098 ], [ 118.143676758, 30.887512207 ], [ 118.124328613, 30.876098633000101 ], [ 118.09552002, 30.845703125000099 ], [ 118.073303223, 30.827270508000101 ], [ 118.047912598, 30.8065185550001 ], [ 118.026489258, 30.794494629 ], [ 117.99810791, 30.7819213870001 ], [ 117.977294922, 30.775512695000099 ], [ 117.95111084, 30.770874023000101 ] ], [ [ 118.716674805, 31.637512207 ], [ 118.670288086, 31.539916992000101 ], [ 118.595703125, 31.407287598 ], [ 118.508117676, 31.279479980000101 ], [ 118.465087891, 31.224304199000098 ], [ 118.430480957, 31.1715087890001 ] ], [ [ 116.948412165, 32.701169281 ], [ 116.892980613, 32.572668865000097 ], [ 116.814872518, 32.429050754000102 ] ], [ [ 117.456742, 30.832555 ], [ 117.370246, 30.7868770000001 ], [ 117.280649, 30.720863000000101 ], [ 117.203071, 30.6751760000001 ], [ 117.193843121, 30.670363893000101 ] ], [ [ 117.193843121, 30.670363893000101 ], [ 117.110614, 30.626962 ], [ 117.044974, 30.58889 ], [ 116.96242992, 30.533094938000101 ] ], [ [ 117.577195, 32.024862 ], [ 117.499809, 32.009685 ], [ 117.383809, 31.999632000000101 ], [ 117.31833, 31.986986000000101 ], [ 117.238051, 31.9845240000001 ], [ 117.145865, 31.979532 ], [ 117.06557, 31.974528 ], [ 116.976468, 31.98733 ], [ 116.893344, 32.005211000000102 ], [ 116.807327, 32.035808000000102 ], [ 116.718385, 32.074035 ], [ 116.635261, 32.091916 ], [ 116.620952, 32.09479 ] ], [ [ 116.620952, 32.09479 ], [ 116.620765944, 32.094233996000099 ] ], [ [ 116.620986, 32.094892000000101 ], [ 116.620952, 32.09479 ] ], [ [ 116.620952, 32.09479 ], [ 116.546192, 32.109803 ], [ 116.442243, 32.125163 ], [ 116.428579716, 32.125176982000099 ] ], [ [ 116.428562, 32.1251770000001 ], [ 116.29658, 32.12531 ], [ 116.218302, 32.128976000000101 ], [ 116.130156, 32.1331050000001 ], [ 116.003906, 32.149596000000102 ], [ 115.9267, 32.175854000000101 ] ], [ [ 117.409417, 31.5148930000001 ], [ 117.349159, 31.370662 ], [ 117.298917, 31.307554 ], [ 117.259761, 31.246014 ], [ 117.19458, 31.156078 ], [ 117.157121, 31.070851000000101 ], [ 117.097489, 30.982489 ], [ 117.067702, 30.943044 ], [ 117.045301, 30.9035930000001 ], [ 117.00806, 30.8531030000001 ], [ 116.985668, 30.81523 ], [ 116.950278, 30.767248000000102 ] ], [ [ 117.503093, 31.776303 ], [ 117.484394, 31.738427000000101 ], [ 117.441615, 31.6879430000001 ], [ 117.362085, 31.539513 ] ], [ [ 117.853447762, 33.083248005000101 ], [ 117.906757762, 33.046878005000103 ], [ 117.91088954766245, 33.043653090799062 ] ], [ [ 117.91088954766245, 33.043653090799062 ], [ 117.969341163, 32.998030820000103 ], [ 117.985755762, 32.985219005000097 ], [ 118.059141137076651, 32.939563710796314 ] ], [ [ 118.059141137076651, 32.939563710796314 ], [ 118.072187762, 32.931447005000102 ], [ 118.09812679, 32.913405824000101 ], [ 118.099033762, 32.9127750050001 ] ], [ [ 118.383339762, 32.734273005 ], [ 118.410520762, 32.714787005000098 ], [ 118.456495762, 32.686319005000101 ], [ 118.503264942, 32.644490773000101 ], [ 118.547840894, 32.608542425000103 ], [ 118.598168581, 32.565404407000102 ] ], [ [ 118.487636, 31.788729 ], [ 118.470986, 31.7663620000001 ], [ 118.426621, 31.668553 ], [ 118.383844, 31.560616 ], [ 118.338664, 31.454088000000102 ], [ 118.328468, 31.408436000000101 ], [ 118.311322, 31.345915 ], [ 118.292236, 31.30631 ], [ 118.288274283, 31.299870089000098 ] ], [ [ 117.562041, 31.7557170000001 ], [ 117.561380838, 31.754813422 ] ], [ [ 117.561380838, 31.754813422 ], [ 117.537833, 31.722583 ], [ 117.507937, 31.665770000000101 ], [ 117.409417, 31.5148930000001 ] ], [ [ 115.620895, 34.014658 ], [ 115.713616, 33.950849 ], [ 115.778451, 33.895033 ], [ 115.852447, 33.8153140000001 ], [ 115.935739, 33.732930000000103 ], [ 116.059234, 33.626613 ], [ 116.154892, 33.536253 ], [ 116.19194, 33.504358000000103 ], [ 116.269174, 33.4458750000001 ], [ 116.389665, 33.355490000000103 ], [ 116.432888, 33.318279000000103 ], [ 116.587506, 33.225204 ], [ 116.695601232, 33.167118482 ], [ 116.760749, 33.132111000000101 ], [ 116.881389, 33.065619 ], [ 117.039261, 32.996435 ] ], [ [ 116.198654, 31.381112000000101 ], [ 116.161906, 31.4077470000001 ], [ 116.091298, 31.430332 ], [ 115.967001, 31.448873 ], [ 115.83545, 31.455145000000101 ], [ 115.687138, 31.459387 ], [ 115.583985, 31.463766 ], [ 115.490122, 31.493209 ], [ 115.460154, 31.508726 ], [ 115.384768, 31.512386 ] ], [ [ 116.896417, 31.0746560000001 ], [ 116.825327, 31.115408000000102 ], [ 116.742315, 31.151086 ], [ 116.60573, 31.176649000000101 ], [ 116.525594, 31.197069 ], [ 116.406942, 31.237869 ], [ 116.323897, 31.268462 ], [ 116.217359, 31.344844000000101 ], [ 116.193705, 31.365208 ] ], [ [ 117.939491598, 32.394432023 ], [ 117.92586, 32.363255 ], [ 117.895905, 32.296969 ], [ 117.864064, 32.224368 ], [ 117.834228, 32.177029 ], [ 117.795111, 32.121804 ], [ 117.763399, 32.06973 ], [ 117.737236, 32.019229000000102 ], [ 117.694388, 31.957692000000101 ], [ 117.642279, 31.891428000000101 ], [ 117.619946, 31.863029 ], [ 117.573435, 31.806233 ], [ 117.552939, 31.7762530000001 ], [ 117.546357313, 31.762373767 ] ], [ [ 117.546357313, 31.762373767 ], [ 117.545455, 31.760471 ] ], [ [ 118.099033762, 32.9127750050001 ], [ 118.153338330049209, 32.875004575578629 ] ], [ [ 118.153338330049209, 32.875004575578629 ], [ 118.158579762, 32.871359005 ], [ 118.226609762, 32.827079005000101 ], [ 118.314907762, 32.776463005 ], [ 118.366410762, 32.746410005000101 ], [ 118.383339762, 32.734273005 ] ], [ [ 117.555851, 33.995975 ], [ 117.489087, 33.8915900000001 ], [ 117.458499, 33.841691 ], [ 117.430637339, 33.775850528 ], [ 117.411242, 33.730017000000103 ], [ 117.33991, 33.573291 ], [ 117.317204, 33.458783 ], [ 117.302693, 33.337618 ], [ 117.264321, 33.244486000000101 ], [ 117.220292, 33.164865 ], [ 117.18979, 33.087459000000102 ], [ 117.164654, 33.013345000000101 ], [ 117.133385, 32.935367 ], [ 117.08125, 32.780444 ], [ 117.066753, 32.730023000000102 ] ], [ [ 117.170866, 31.939707000000102 ], [ 117.269924, 31.887475000000101 ], [ 117.311594, 31.870406 ], [ 117.347386, 31.851287 ], [ 117.396515, 31.826963 ], [ 117.446509, 31.805481 ], [ 117.481029, 31.790536 ], [ 117.534428, 31.768377 ], [ 117.546357313, 31.762373767 ] ], [ [ 117.546357313, 31.762373767 ], [ 117.561380838, 31.754813422 ] ], [ [ 117.561380838, 31.754813422 ], [ 117.609882, 31.730406000000102 ], [ 117.69123, 31.675305 ], [ 117.756105, 31.6357420000001 ], [ 117.87807589, 31.5593770350001 ] ], [ [ 116.087593582, 33.571097483000102 ], [ 116.04675, 33.400117000000101 ], [ 116.001934, 33.274474 ], [ 115.954796, 33.196252000000101 ], [ 115.918334, 33.12976 ], [ 115.896082, 33.067952 ], [ 115.887707, 32.98782 ], [ 115.861902, 32.917174 ], [ 115.848654, 32.860006 ], [ 115.821301, 32.764693000000101 ], [ 115.804592, 32.707505 ], [ 115.794029, 32.682092 ], [ 115.777248, 32.613463000000102 ], [ 115.767851, 32.5372 ], [ 115.762515, 32.507477000000101 ] ], [ [ 116.872049, 31.243246 ], [ 116.798317, 31.2724130000001 ], [ 116.747492, 31.289154 ], [ 116.702679, 31.319208 ], [ 116.629061, 31.355598 ], [ 116.584872, 31.374590000000101 ], [ 116.533339, 31.399906 ], [ 116.490976, 31.415738000000101 ], [ 116.417358, 31.452129 ], [ 116.347442, 31.490094 ], [ 116.260852, 31.518603 ], [ 116.159724, 31.573221 ], [ 116.100764, 31.621252000000101 ], [ 116.034936, 31.65872 ], [ 115.970846, 31.6726600000001 ], [ 115.879883, 31.692334 ], [ 115.828186, 31.706937 ], [ 115.782102, 31.718036 ], [ 115.71572, 31.730735 ], [ 115.66776, 31.7370990000001 ], [ 115.630896, 31.7466100000001 ], [ 115.623645, 31.747987000000101 ] ], [ [ 116.843885, 30.98077 ], [ 116.779603, 30.927545000000102 ], [ 116.692398, 30.858158 ], [ 116.618066, 30.7808630000001 ], [ 116.527039, 30.690953 ], [ 116.44155, 30.601038 ], [ 116.382136, 30.547413 ], [ 116.332082, 30.514305 ], [ 116.23373, 30.433876000000101 ], [ 116.159527, 30.377108 ], [ 116.088996, 30.317178000000101 ], [ 116.038882, 30.274596 ], [ 116.007398, 30.2588380000001 ] ], [ [ 117.362085, 31.539513 ], [ 117.165567, 31.239793 ], [ 117.104257, 31.178274 ], [ 117.048585, 31.13254 ], [ 116.974451, 31.086825000000101 ], [ 116.950907, 31.0620960000001 ], [ 116.85198, 30.987473000000101 ], [ 116.843885, 30.98077 ] ], [ [ 116.96242992, 30.533094938000101 ], [ 116.928544, 30.510190000000101 ], [ 116.812161, 30.4391180000001 ], [ 116.713662, 30.375655000000101 ], [ 116.594466, 30.330010000000101 ], [ 116.478195, 30.276735000000102 ], [ 116.358999, 30.231090000000101 ], [ 116.23389, 30.190536000000101 ], [ 116.138571, 30.160122000000101 ], [ 116.102787, 30.142361000000101 ] ], [ [ 115.892505, 31.101056 ], [ 115.922422, 31.132096 ], [ 115.968824, 31.171523 ], [ 116.020923, 31.236209 ], [ 116.06922, 31.283529 ], [ 116.11191, 31.319803 ], [ 116.176743, 31.354475 ], [ 116.217587, 31.3907500000001 ], [ 116.286212, 31.441208 ], [ 116.349269, 31.486935 ] ], [ [ 116.360586761, 31.4951155790001 ], [ 116.519570142, 31.6268446670001 ] ], [ [ 118.395685434, 31.8216479210001 ], [ 118.312272543, 31.745334 ], [ 118.156095215, 31.587381929000099 ], [ 118.085450677, 31.509905815000099 ], [ 118.043839272, 31.471068504000101 ], [ 117.927327339, 31.376749321 ] ], [ [ 116.099842, 32.840431000000102 ], [ 116.172733, 32.8153620000001 ], [ 116.271529, 32.771465 ], [ 116.425261, 32.743882 ], [ 116.521886, 32.7328580000001 ], [ 116.631626, 32.7123220000001 ], [ 116.715191, 32.718483 ], [ 116.785107, 32.706829 ], [ 116.863341, 32.684399 ], [ 116.934659, 32.670584 ] ], [ [ 115.84764, 32.85225 ], [ 115.933403, 32.868315000000102 ], [ 115.986916, 32.8727400000001 ], [ 116.042495, 32.865319 ], [ 116.102059, 32.856242000000101 ] ], [ [ 118.401675664, 31.8218099750001 ], [ 118.455006166, 31.857363642000099 ], [ 118.514262279, 31.907731338000101 ], [ 118.532987844, 31.921485626 ] ], [ [ 118.340667292, 32.028661326000098 ], [ 118.176995767, 31.906601206000101 ], [ 118.052161553, 31.834474771000099 ], [ 117.938666221, 31.7713257670001 ], [ 117.93686698, 31.770160833 ], [ 117.934953618, 31.76891371 ], [ 117.933044192, 31.767660569 ], [ 117.93113872, 31.766401424 ], [ 117.92923722, 31.7651362870001 ], [ 117.927339713, 31.763865171000099 ], [ 117.925446217, 31.762588088000101 ], [ 117.92355675, 31.7613050510001 ], [ 117.921671331, 31.760016072 ], [ 117.919789979, 31.7587211640001 ], [ 117.917912713, 31.757420341000099 ], [ 117.916039551, 31.7561136150001 ], [ 117.914170511, 31.7548009980001 ], [ 117.912305613, 31.7534825050001 ], [ 117.910444874, 31.752158148 ], [ 117.908588314, 31.7508279400001 ], [ 117.90673595, 31.749491894000101 ], [ 117.904887801, 31.748150024 ], [ 117.903043885, 31.746802342000102 ], [ 117.901204221, 31.745448863 ], [ 117.899368826, 31.744089600000098 ], [ 117.89753772, 31.742724566 ], [ 117.895710919, 31.7413537740001 ], [ 117.893888442, 31.739977239 ], [ 117.892070308, 31.738594973000101 ], [ 117.890256534, 31.7372069910001 ], [ 117.888447138, 31.7358133070001 ], [ 117.886642138, 31.734413933 ], [ 117.884841553, 31.7330088850001 ], [ 117.883045399, 31.731598175 ], [ 117.881253694, 31.730181819000101 ], [ 117.879466458, 31.728759829000101 ], [ 117.877683706, 31.727332221 ], [ 117.875905457, 31.725899007000098 ], [ 117.874131728, 31.724460203 ], [ 117.872362538, 31.7230158230001 ], [ 117.870597902, 31.721565880000099 ], [ 117.86883784, 31.720110390000102 ], [ 117.867082369, 31.718649367000101 ], [ 117.865331505, 31.717182824000101 ], [ 117.863585266, 31.715710778000101 ], [ 117.86184367, 31.714233242 ], [ 117.860106734, 31.712750231000101 ], [ 117.858374474, 31.711261759000099 ], [ 117.856646909, 31.709767842000101 ], [ 117.854924055, 31.708268494 ], [ 117.853205929, 31.706763731000098 ], [ 117.851492548, 31.705253566000099 ], [ 117.84978393, 31.703738015000098 ], [ 117.848080091, 31.702217093000101 ], [ 117.846381048, 31.700690816000101 ], [ 117.844686818, 31.6991591970001 ], [ 117.842997418, 31.697622253000102 ], [ 117.841312865, 31.696079998000101 ], [ 117.839633174, 31.6945324490001 ], [ 117.838075476, 31.693088521 ], [ 117.838033387, 31.6930217570001 ], [ 117.837219455, 31.691737729000099 ], [ 117.836399461, 31.690457564 ], [ 117.835573424, 31.6891812900001 ], [ 117.834741363, 31.687908936 ], [ 117.833903296, 31.686640529 ], [ 117.833059241, 31.685376099000099 ], [ 117.832209217, 31.6841156740001 ], [ 117.831353245, 31.682859281 ], [ 117.830491342, 31.681606949000098 ], [ 117.829623527, 31.680358706 ], [ 117.828749822, 31.679114579 ], [ 117.827870244, 31.677874598000098 ], [ 117.826984813, 31.676638788 ], [ 117.82609355, 31.6754071780001 ], [ 117.825196474, 31.6741797960001 ], [ 117.824293606, 31.672956669000101 ], [ 117.823384965, 31.671737824 ], [ 117.822470571, 31.670523288000101 ], [ 117.821550446, 31.669313089000099 ], [ 117.82062461, 31.668107253000102 ], [ 117.819693083, 31.666905809000099 ], [ 117.818755886, 31.665708781 ], [ 117.817813041, 31.664516198000101 ], [ 117.816864568, 31.663328085 ], [ 117.815910489, 31.66214447 ], [ 117.814950824, 31.6609653790001 ], [ 117.813985596, 31.659790838 ], [ 117.813014825, 31.6586208740001 ], [ 117.812038534, 31.657455512000102 ], [ 117.811056745, 31.656294779000099 ], [ 117.810069478, 31.655138700000101 ], [ 117.809076758, 31.6539873020001 ], [ 117.808078604, 31.652840610000101 ], [ 117.807075041, 31.6516986500001 ], [ 117.80606609, 31.650561447000101 ], [ 117.805051774, 31.6494290270001 ], [ 117.804032115, 31.648301416 ], [ 117.803007137, 31.647178637000099 ], [ 117.801976862, 31.6460607170001 ], [ 117.800941313, 31.644947680000101 ], [ 117.799900514, 31.643839551 ], [ 117.798854488, 31.6427363560001 ], [ 117.797803257, 31.641638118000099 ], [ 117.796746846, 31.640544862000102 ], [ 117.795685279, 31.639456613 ], [ 117.794618578, 31.638373395000102 ], [ 117.793546768, 31.637295232 ], [ 117.792469872, 31.636222148000101 ], [ 117.791387916, 31.635154168 ], [ 117.790300922, 31.634091314 ], [ 117.789208916, 31.633033612000101 ], [ 117.788897778, 31.632734074 ] ], [ [ 118.835926716, 33.305203032000101 ], [ 118.775533, 33.272421000000101 ], [ 118.555879595, 33.201526096000102 ], [ 118.520525578, 33.159744076 ], [ 118.404184, 33.053914 ], [ 118.381966, 33.042340000000102 ], [ 118.319158, 32.990829 ], [ 118.194804328, 32.907627386000101 ], [ 118.153338330049209, 32.875004575578629 ] ], [ [ 118.153338330049209, 32.875004575578629 ], [ 118.084565505, 32.82089849 ] ], [ [ 118.820585491, 32.331037533000099 ], [ 118.786448301, 32.304718527 ], [ 118.67511711, 32.218199231000099 ], [ 118.653867265, 32.199310480000101 ], [ 118.593762696, 32.145884197 ], [ 118.516024034, 32.102495176 ], [ 118.356930958, 32.050066776000101 ] ], [ [ 118.080512369, 34.078110893000101 ], [ 118.074760633, 34.013403866000097 ], [ 118.063257162, 33.938631302000097 ], [ 118.050315757, 33.8796760110001 ], [ 118.03306055, 33.791962042000101 ], [ 118.015805343, 33.712875676000102 ], [ 118.012929475, 33.694182535 ], [ 117.981294928, 33.5906512930001 ], [ 117.948222448, 33.451171703000099 ], [ 117.905084431, 33.278619632000101 ], [ 117.859070545, 33.113257231 ], [ 117.821684263, 32.999660451000103 ], [ 117.782860047, 32.893253341 ], [ 117.755539303, 32.819918711000099 ], [ 117.721028889, 32.693380526000098 ] ], [ [ 118.175416008, 34.011965932000102 ], [ 118.16535047, 33.958762377000099 ], [ 118.159598735, 33.919938161000097 ], [ 118.140905594, 33.837975928 ], [ 118.117898651, 33.761765430000104 ], [ 118.102081378, 33.679803196000101 ], [ 118.077636501, 33.548951209000101 ], [ 118.070446832, 33.50149939 ], [ 118.060381294, 33.438230297000104 ], [ 118.050315757, 33.397968148000103 ], [ 118.001426003, 33.2915610370001 ], [ 117.966915589, 33.200971200000097 ], [ 117.938156911, 33.12763657 ], [ 117.91088954766245, 33.043653090799062 ] ], [ [ 117.91088954766245, 33.043653090799062 ], [ 117.902208563, 33.016915658000102 ], [ 117.87920162, 32.950770698 ] ], [ [ 117.887829224, 32.8903774730001 ], [ 117.804429056, 32.684752922000101 ] ], [ [ 118.098553114, 33.0682285970001 ], [ 118.074108237, 32.989142231000102 ], [ 118.059141137076651, 32.939563710796314 ] ], [ [ 118.059141137076651, 32.939563710796314 ], [ 118.051101295, 32.9129317330001 ], [ 118.028094352, 32.810838425 ], [ 118.028094352, 32.770576275000103 ] ], [ [ 117.832295683, 32.575017262000102 ], [ 117.746019648, 32.6171966570001 ], [ 117.632902179, 32.672796768000097 ], [ 117.517867465, 32.743734842 ], [ 117.326142942, 32.820424651000103 ] ], [ [ 118.403767967, 32.45957995 ], [ 118.409277749, 32.452448121000103 ], [ 118.411154806, 32.449120167 ], [ 118.412257563, 32.447160407000098 ], [ 118.413463043, 32.445012635000097 ], [ 118.41480748, 32.4426105350001 ], [ 118.41692745, 32.438838422000103 ], [ 118.418515388, 32.436357425 ], [ 118.419870808, 32.434413996 ], [ 118.421327268, 32.432398111000097 ], [ 118.42282582, 32.430347172 ], [ 118.425306331, 32.426921061000101 ], [ 118.426703104, 32.424959641 ], [ 118.428055437, 32.423028489 ], [ 118.429364888, 32.421119553 ], [ 118.430633014, 32.419224783000097 ], [ 118.431861373, 32.417336127000098 ], [ 118.434156925, 32.413633206 ], [ 118.435354861, 32.411617771000103 ], [ 118.436545566, 32.409567345000099 ], [ 118.437727475, 32.4074925500001 ], [ 118.438899029, 32.405404007000101 ], [ 118.440058667, 32.403312339000102 ], [ 118.441204827, 32.401228167000099 ], [ 118.442335952, 32.399162113 ], [ 118.443450481, 32.397124799 ], [ 118.444546857, 32.3951268470001 ], [ 118.445623523, 32.393178879000097 ], [ 118.447456235, 32.389916791000097 ], [ 118.448575997, 32.387955079000101 ], [ 118.449716623, 32.385976631000098 ], [ 118.450875815, 32.383983113000099 ], [ 118.452051275, 32.381976189000099 ], [ 118.453240708, 32.379957522 ], [ 118.454441817, 32.377928778000097 ], [ 118.455652306, 32.375891620000097 ], [ 118.456869878, 32.3738477140001 ], [ 118.458092239, 32.371798724000101 ], [ 118.459317094, 32.369746315 ], [ 118.460542146, 32.367692151000099 ], [ 118.461765103, 32.365637898 ], [ 118.462983668, 32.3635852210001 ], [ 118.464195549, 32.3615357850001 ], [ 118.466587375, 32.357472127000101 ], [ 118.467785087, 32.355443470000097 ], [ 118.468986718, 32.353424193000102 ], [ 118.470196874, 32.351415402 ], [ 118.471420156, 32.349418205000099 ], [ 118.472661166, 32.347433706000103 ], [ 118.473924506, 32.345463013000099 ], [ 118.475214779, 32.3435072300001 ], [ 118.476536584, 32.341567463 ], [ 118.477894524, 32.339644818000103 ], [ 118.479293198, 32.337740400000101 ], [ 118.481140712, 32.335341715000098 ], [ 118.482711267, 32.3333821720001 ], [ 118.484330015, 32.331416007000101 ], [ 118.485969021, 32.329465736000103 ], [ 118.487113854, 32.328124045 ], [ 118.487600356, 32.327553873000099 ], [ 118.489196095, 32.325702937000102 ], [ 118.490728316, 32.323935447000103 ], [ 118.4921691, 32.322273921000097 ], [ 118.493490533, 32.320740882000102 ], [ 118.496255004, 32.317458593000097 ], [ 118.497867583, 32.315516457000101 ], [ 118.499534794, 32.313501284 ], [ 118.499856132, 32.313329072 ], [ 118.536334809, 32.279867104000097 ], [ 118.568342799, 32.250477745000097 ] ], [ [ 118.047458482, 32.716216555000102 ], [ 118.038992665, 32.690415498 ], [ 118.037668544, 32.6863800080001 ], [ 118.02368166, 32.643752531000104 ], [ 118.017027572, 32.623473034000099 ], [ 118.001469338, 32.587907040000097 ], [ 117.994241141, 32.57138344 ], [ 117.98202761, 32.543463410000101 ], [ 117.947375656, 32.490588100000103 ] ], [ [ 118.001662249, 32.714232461000101 ], [ 118.00029931, 32.712096645000102 ], [ 117.998811437, 32.709669303000098 ], [ 117.997813717, 32.707895083 ], [ 117.996758172, 32.705900314000097 ], [ 117.995688719, 32.703755793000099 ], [ 117.994649269, 32.701532321000101 ], [ 117.993028104, 32.697647414000102 ], [ 117.992249513, 32.695492430000101 ], [ 117.991531581, 32.693318951 ], [ 117.990864836, 32.691131341000101 ], [ 117.990239803, 32.68893396 ], [ 117.989647011, 32.686731172000101 ], [ 117.989076989, 32.684527337000098 ], [ 117.988082802, 32.680590343000098 ], [ 117.987518006, 32.678378072 ], [ 117.986937129, 32.676132196000097 ], [ 117.986350937, 32.673869218 ], [ 117.985770195, 32.671605643000099 ], [ 117.985205666, 32.6693579760001 ], [ 117.984668112, 32.667142723 ], [ 117.984168294, 32.664976389000103 ], [ 117.983570115, 32.662146839000101 ], [ 117.983186906, 32.6601121140001 ], [ 117.982830443, 32.658053992000099 ], [ 117.982485295, 32.655944060000103 ], [ 117.982136034, 32.653753902000098 ], [ 117.981767233, 32.651455103 ], [ 117.981027801, 32.6470818270001 ], [ 117.980547243, 32.6444351210001 ], [ 117.980048105, 32.641800866 ], [ 117.979538395, 32.639199264000098 ], [ 117.979026121, 32.636650515 ], [ 117.978519287, 32.634174821 ], [ 117.978025897, 32.6317923820001 ], [ 117.977553956, 32.629523399 ], [ 117.977111464, 32.627388075000098 ], [ 117.976706422, 32.625406611000102 ], [ 117.97634683, 32.623599209000098 ], [ 117.975839681, 32.620849277 ], [ 117.975582579, 32.619264519000097 ], [ 117.975261033, 32.617187143000102 ], [ 117.974561561, 32.612562445 ], [ 117.974104008, 32.609500536 ], [ 117.973667633, 32.606536701 ], [ 117.9732602, 32.603734789 ], [ 117.972889466, 32.601158650000102 ], [ 117.972563191, 32.5988721350001 ], [ 117.972289131, 32.596939093000103 ], [ 117.972075042, 32.595423376 ], [ 117.971909967, 32.59425752 ], [ 117.971833175, 32.593727274000102 ], [ 117.971450894, 32.590507104 ], [ 117.971220447, 32.587577971000101 ], [ 117.971097464, 32.5850336540001 ], [ 117.971037582, 32.582967929000098 ], [ 117.97095115, 32.58078606 ], [ 117.97067926, 32.579254304000102 ], [ 117.97000623, 32.575764987000099 ], [ 117.969442224, 32.572843167000102 ], [ 117.968921009, 32.570186838 ], [ 117.968437976, 32.567781696000097 ], [ 117.96798852, 32.565613435 ], [ 117.967568038, 32.5636677520001 ], [ 117.966875281, 32.560703974 ], [ 117.96644986, 32.558976454000103 ], [ 117.965937778, 32.556867798 ], [ 117.965371192, 32.554517976000099 ], [ 117.964235006, 32.549787503000097 ], [ 117.963688301, 32.5475212280001 ], [ 117.963155043, 32.545367023 ], [ 117.962597983, 32.543223645000097 ], [ 117.961912296, 32.540754174000099 ], [ 117.961224991, 32.538459905000103 ], [ 117.960509134, 32.536233796000097 ], [ 117.959770226, 32.534062733 ], [ 117.959328123, 32.532818407 ], [ 117.95802541, 32.521704629000098 ], [ 117.957907567, 32.521445104000101 ], [ 117.956281269, 32.517961868 ], [ 117.953597309, 32.51228122 ], [ 117.952509619, 32.50976904 ], [ 117.951305841, 32.506013024000097 ], [ 117.950426088, 32.503333264 ], [ 117.949560192, 32.500632189 ], [ 117.948710512, 32.497938094000098 ], [ 117.947879403, 32.495279276000097 ], [ 117.947069222, 32.492684031000103 ], [ 117.946282323, 32.490180655000103 ], [ 117.945521058, 32.487797444000101 ], [ 117.94478778, 32.485562694000102 ], [ 117.944084838, 32.483504702000097 ], [ 117.943414585, 32.481651765 ], [ 117.942779368, 32.480032180000102 ], [ 117.942181537, 32.478674242000103 ], [ 117.941513403, 32.4774244910001 ], [ 117.940794643, 32.476102969000102 ], [ 117.939745382, 32.473976603 ], [ 117.938332702, 32.471036942000097 ], [ 117.936953992, 32.468105348000101 ], [ 117.935660974, 32.465253086000097 ], [ 117.934451768, 32.462494600000099 ], [ 117.933324496, 32.459844334000103 ], [ 117.932277277, 32.457316731 ], [ 117.931308231, 32.454926234000098 ], [ 117.930415479, 32.452687285000103 ], [ 117.929597143, 32.4506143280001 ], [ 117.928851343, 32.448721805 ], [ 117.928176202, 32.447024158000097 ], [ 117.927569841, 32.4455358290001 ], [ 117.927030385, 32.4442712600001 ], [ 117.926479505, 32.443090898 ], [ 117.925799097, 32.4417687010001 ], [ 117.924726676, 32.4397120940001 ], [ 117.922699244, 32.4358273140001 ], [ 117.921391766, 32.433312646 ], [ 117.920223423, 32.43106091 ], [ 117.91916425, 32.429015491000101 ], [ 117.918184291, 32.4271197690001 ], [ 117.916666341, 32.424179086 ] ] ] } }
]
}
