{"type": "FeatureCollection", "features": [{"type": "Feature", "properties": {"name": "中国科学技术大学附属第一医院(南区)", "type": "综合医院", "address": "荷叶地街道天鹅湖路1号", "tel": "0551-62283114;0551-62284132", "lng": 117.2494, "lat": 31.814395}, "geometry": {"type": "Point", "coordinates": [117.2494, 31.814395]}}, {"type": "Feature", "properties": {"name": "蜀山区荷叶地街道社区卫生服务中心", "type": "综合医院", "address": "荷叶地路82号", "tel": "0551-63506456", "lng": 117.24065, "lat": 31.821548}, "geometry": {"type": "Point", "coordinates": [117.24065, 31.821548]}}, {"type": "Feature", "properties": {"name": "笔架山街道社区卫生服务中心", "type": "综合医院", "address": "高河西路和聚云峰路交口西北角", "tel": "0551-65582916", "lng": 117.219495, "lat": 31.821902}, "geometry": {"type": "Point", "coordinates": [117.219495, 31.821902]}}, {"type": "Feature", "properties": {"name": "安徽省立医院南区2期", "type": "综合医院", "address": "茗香路与花亭湖路交叉口东北140米", "tel": "", "lng": 117.249386, "lat": 31.813388}, "geometry": {"type": "Point", "coordinates": [117.249386, 31.813388]}}, {"type": "Feature", "properties": {"name": "安徽医科大学第二附属医院", "type": "综合医院", "address": "合肥经济技术开发区芙蓉路678号", "tel": "0551-63869114;0551-63869420", "lng": 117.21241, "lat": 31.790188}, "geometry": {"type": "Point", "coordinates": [117.21241, 31.790188]}}, {"type": "Feature", "properties": {"name": "蜀山区南七街道社区卫生服务中心", "type": "综合医院", "address": "洪岗路丁香家园2栋", "tel": "0551-65770569;0551-65770636", "lng": 117.240301, "lat": 31.827287}, "geometry": {"type": "Point", "coordinates": [117.240301, 31.827287]}}, {"type": "Feature", "properties": {"name": "高新区兴园社区卫生服务中心", "type": "综合医院", "address": "科学大道8号", "tel": "", "lng": 117.205035, "lat": 31.817779}, "geometry": {"type": "Point", "coordinates": [117.205035, 31.817779]}}, {"type": "Feature", "properties": {"name": "合肥安中中医医院", "type": "综合医院", "address": "南屏家园3幢102号", "tel": "0551-64272688", "lng": 117.246199, "lat": 31.828393}, "geometry": {"type": "Point", "coordinates": [117.246199, 31.828393]}}, {"type": "Feature", "properties": {"name": "蜀山区西园街道社区卫生服务中心", "type": "综合医院", "address": "贵池路9 号", "tel": "0551-67192649", "lng": 117.247685, "lat": 31.846312}, "geometry": {"type": "Point", "coordinates": [117.247685, 31.846312]}}, {"type": "Feature", "properties": {"name": "中国人民解放军联勤保障部队第九〇一医院", "type": "综合医院", "address": "长江西路424号", "tel": "0551-65966510", "lng": 117.24737, "lat": 31.853909}, "geometry": {"type": "Point", "coordinates": [117.24737, 31.853909]}}, {"type": "Feature", "properties": {"name": "合肥光明医院", "type": "综合医院", "address": "环湖东路572号", "tel": "4000109099", "lng": 117.215123, "lat": 31.84731}, "geometry": {"type": "Point", "coordinates": [117.215123, 31.84731]}}, {"type": "Feature", "properties": {"name": "合肥市第三人民医院望江路院区", "type": "综合医院", "address": "芜湖路街道望江东路204号", "tel": "0551-63669024;0551-63669097", "lng": 117.267442, "lat": 31.830264}, "geometry": {"type": "Point", "coordinates": [117.267442, 31.830264]}}, {"type": "Feature", "properties": {"name": "稻香村街道社区卫生服务中心", "type": "综合医院", "address": "望江西路102号华力大厦F1层", "tel": "0551-63719209;0551-63719211", "lng": 117.253309, "lat": 31.830337}, "geometry": {"type": "Point", "coordinates": [117.253309, 31.830337]}}, {"type": "Feature", "properties": {"name": "合肥长淮中医医院", "type": "综合医院", "address": "金寨路161号(中国科大东区地铁站C口步行420米)", "tel": "15555187705", "lng": 117.268335, "lat": 31.841357}, "geometry": {"type": "Point", "coordinates": [117.268335, 31.841357]}}, {"type": "Feature", "properties": {"name": "安徽医科大学第一附属医院绩溪路院区", "type": "综合医院", "address": "绩溪路218号", "tel": "0551-62922114;0551-62922406", "lng": 117.267662, "lat": 31.847151}, "geometry": {"type": "Point", "coordinates": [117.267662, 31.847151]}}, {"type": "Feature", "properties": {"name": "安徽中医药大学第一附属医院", "type": "综合医院", "address": "梅山路117号", "tel": "0551-62838605;0551-62838661", "lng": 117.260208, "lat": 31.85348}, "geometry": {"type": "Point", "coordinates": [117.260208, 31.85348]}}, {"type": "Feature", "properties": {"name": "高新区天乐社区卫生服务中心", "type": "综合医院", "address": "天达路华亿科技园A1座", "tel": "0551-62066531;0551-65322697", "lng": 117.201392, "lat": 31.844525}, "geometry": {"type": "Point", "coordinates": [117.201392, 31.844525]}}, {"type": "Feature", "properties": {"name": "安徽省红十字会医院", "type": "综合医院", "address": "潜山北路259号(西七里塘地铁站C口旁)", "tel": "0551-65561333;0551-65584544", "lng": 117.227648, "lat": 31.852395}, "geometry": {"type": "Point", "coordinates": [117.227648, 31.852395]}}, {"type": "Feature", "properties": {"name": "中国科学技术大学东校区校医院", "type": "综合医院", "address": "金寨路96号中国科学技术大学(本部东校区)", "tel": "0551-63600120;0551-63602739", "lng": 117.266039, "lat": 31.833407}, "geometry": {"type": "Point", "coordinates": [117.266039, 31.833407]}}, {"type": "Feature", "properties": {"name": "嘉和苑社区卫生服务站", "type": "综合医院", "address": "嘉和苑社区", "tel": "0551-63510478", "lng": 117.238649, "lat": 31.803747}, "geometry": {"type": "Point", "coordinates": [117.238649, 31.803747]}}, {"type": "Feature", "properties": {"name": "莲花社区卫生服务中心", "type": "综合医院", "address": "经开区莲花社区芙蓉路512号汇林园小区芙蓉路段门面房", "tel": "0551-63816311", "lng": 117.236794, "lat": 31.782143}, "geometry": {"type": "Point", "coordinates": [117.236794, 31.782143]}}, {"type": "Feature", "properties": {"name": "上海中医药大学附属曙光医院安徽医院", "type": "综合医院", "address": "史河路45号", "tel": "0551-62736702;0551-62736750", "lng": 117.24365, "lat": 31.862681}, "geometry": {"type": "Point", "coordinates": [117.24365, 31.862681]}}, {"type": "Feature", "properties": {"name": "蜀山区荷叶地社区医院", "type": "综合医院", "address": "绿怡中路76号", "tel": "", "lng": 117.240884, "lat": 31.821546}, "geometry": {"type": "Point", "coordinates": [117.240884, 31.821546]}}, {"type": "Feature", "properties": {"name": "国药中铁中心医院", "type": "综合医院", "address": "南七里望江东路96号", "tel": "0551-82574120;0551-82574457", "lng": 117.274193, "lat": 31.828842}, "geometry": {"type": "Point", "coordinates": [117.274193, 31.828842]}}, {"type": "Feature", "properties": {"name": "合肥经济技术开发区芙蓉社区卫生服务中心", "type": "综合医院", "address": "芙蓉路与松林路交口芙蓉社区党群服务中心北侧楼", "tel": "0551-63693109", "lng": 117.199787, "lat": 31.788235}, "geometry": {"type": "Point", "coordinates": [117.199787, 31.788235]}}, {"type": "Feature", "properties": {"name": "蜀山区笔架山街道翠庭园社区卫生服务站", "type": "综合医院", "address": "翠庭园习友路088号", "tel": "0551-63530227", "lng": 117.208694, "lat": 31.805993}, "geometry": {"type": "Point", "coordinates": [117.208694, 31.805993]}}, {"type": "Feature", "properties": {"name": "合肥皓康医院", "type": "综合医院", "address": "怀宁路平安大厦裙楼4楼(东门)", "tel": "0551-65667377;17333075877", "lng": 117.221725, "lat": 31.822975}, "geometry": {"type": "Point", "coordinates": [117.221725, 31.822975]}}, {"type": "Feature", "properties": {"name": "蜀山区南七街道洪岗社区卫生服务站", "type": "综合医院", "address": "南七街道潜山路和皖河路交口向东20米皖河东段红鑫小区门口旁边", "tel": "0551-65580079", "lng": 117.233484, "lat": 31.835522}, "geometry": {"type": "Point", "coordinates": [117.233484, 31.835522]}}, {"type": "Feature", "properties": {"name": "莲花朝霞社区卫生服务站", "type": "综合医院", "address": "芙蓉路与宝塔路交叉口朝霞菜市场综合楼东南角1层", "tel": "0551-63823460", "lng": 117.21919, "lat": 31.788398}, "geometry": {"type": "Point", "coordinates": [117.21919, 31.788398]}}, {"type": "Feature", "properties": {"name": "江淮汽车集团医院", "type": "综合医院", "address": "东流路176号", "tel": "0551-62296915", "lng": 117.279895, "lat": 31.81479}, "geometry": {"type": "Point", "coordinates": [117.279895, 31.81479]}}, {"type": "Feature", "properties": {"name": "三里庵街道社区卫生服务中心", "type": "综合医院", "address": "肥西路", "tel": "0551-65118238;0551-65142626;0551-65168643", "lng": 117.260141, "lat": 31.843513}, "geometry": {"type": "Point", "coordinates": [117.260141, 31.843513]}}, {"type": "Feature", "properties": {"name": "包河区常青街道社区卫生服务中心", "type": "综合医院", "address": "常青街道桐城支路", "tel": "0551-63526925", "lng": 117.278923, "lat": 31.814771}, "geometry": {"type": "Point", "coordinates": [117.278923, 31.814771]}}, {"type": "Feature", "properties": {"name": "井岗镇十里庙社区卫生服务站", "type": "综合医院", "address": "怀宁路大溪地宁溪学校对面", "tel": "0551-65318026", "lng": 117.221214, "lat": 31.848242}, "geometry": {"type": "Point", "coordinates": [117.221214, 31.848242]}}, {"type": "Feature", "properties": {"name": "西园街道汉嘉社区卫生服务站", "type": "综合医院", "address": "潜山路375号", "tel": "0551-65582340", "lng": 117.230851, "lat": 31.846052}, "geometry": {"type": "Point", "coordinates": [117.230851, 31.846052]}}, {"type": "Feature", "properties": {"name": "安徽叉车集团有限责任公司职工医院", "type": "综合医院", "address": "稻香村街道望江西路116号安徽叉车集团有限责任公司职工医院一楼药房", "tel": "0551-63719211", "lng": 117.253172, "lat": 31.830408}, "geometry": {"type": "Point", "coordinates": [117.253172, 31.830408]}}, {"type": "Feature", "properties": {"name": "合肥市包河区常青街道薛河湾社区卫生服务站", "type": "综合医院", "address": "龙图路与关麓路交口东南角邻里坊商业街区3号楼", "tel": "0551-65536202", "lng": 117.262081, "lat": 31.80486}, "geometry": {"type": "Point", "coordinates": [117.262081, 31.80486]}}, {"type": "Feature", "properties": {"name": "高新区蜀南庭苑社区卫生服务中心", "type": "综合医院", "address": "高新区望江西路4289号蜀南庭苑商业街蜀山新天地C2栋1", "tel": "0551-65736029", "lng": 117.166118, "lat": 31.827561}, "geometry": {"type": "Point", "coordinates": [117.166118, 31.827561]}}, {"type": "Feature", "properties": {"name": "武警医院安徽省总队医院北区", "type": "综合医院", "address": "长丰路78号", "tel": "0551-64637888;0551-65681855", "lng": 117.258736, "lat": 31.874406}, "geometry": {"type": "Point", "coordinates": [117.258736, 31.874406]}}, {"type": "Feature", "properties": {"name": "蜀山区五里墩街道社区卫生服务中心", "type": "综合医院", "address": "潜山北路与高刘路交口三实大厦4-6层(望龙学校对面)", "tel": "0551-65503986", "lng": 117.234112, "lat": 31.869193}, "geometry": {"type": "Point", "coordinates": [117.234112, 31.869193]}}, {"type": "Feature", "properties": {"name": "中国科学技术大学附属第一医院(安徽省立医院)", "type": "综合医院", "address": "庐江路17号(四牌楼地铁站B口步行430米)", "tel": "0551-62283583;0551-62283691;96512", "lng": 117.290493, "lat": 31.857692}, "geometry": {"type": "Point", "coordinates": [117.290493, 31.857692]}}, {"type": "Feature", "properties": {"name": "安徽中医药大学第一附属医院(省中医院)西区", "type": "综合医院", "address": "史河路45号上海中医药大学附属曙光医院安徽医院", "tel": "0551-62736750", "lng": 117.244081, "lat": 31.862812}, "geometry": {"type": "Point", "coordinates": [117.244081, 31.862812]}}, {"type": "Feature", "properties": {"name": "合肥仁爱中医医院", "type": "综合医院", "address": "桐城路22号", "tel": "18556519798", "lng": 117.282449, "lat": 31.850118}, "geometry": {"type": "Point", "coordinates": [117.282449, 31.850118]}}, {"type": "Feature", "properties": {"name": "常青街道金寨南路社区卫生服务站", "type": "综合医院", "address": "名都花园2幢", "tel": "0551-63655797", "lng": 117.264167, "lat": 31.825055}, "geometry": {"type": "Point", "coordinates": [117.264167, 31.825055]}}, {"type": "Feature", "properties": {"name": "合肥市第一人民医院本部", "type": "综合医院", "address": "淮河路390号(杏花公园地铁站B口步行310米)", "tel": "0551-62186777", "lng": 117.280261, "lat": 31.867684}, "geometry": {"type": "Point", "coordinates": [117.280261, 31.867684]}}, {"type": "Feature", "properties": {"name": "安徽医科大学第一附属医院北区(屯溪路院区)(老院区)", "type": "综合医院", "address": "屯溪路372号", "tel": "0551-62873182;0551-62873490", "lng": 117.282749, "lat": 31.848373}, "geometry": {"type": "Point", "coordinates": [117.282749, 31.848373]}}, {"type": "Feature", "properties": {"name": "蜀山区琥珀街道社区卫生服务中心(新址)", "type": "综合医院", "address": "合作化北路158号", "tel": "0551-62307308", "lng": 117.251019, "lat": 31.860277}, "geometry": {"type": "Point", "coordinates": [117.251019, 31.860277]}}, {"type": "Feature", "properties": {"name": "省人大医院", "type": "综合医院", "address": "屯溪路429号", "tel": "0551-63608991;0551-63609615", "lng": 117.275864, "lat": 31.846663}, "geometry": {"type": "Point", "coordinates": [117.275864, 31.846663]}}, {"type": "Feature", "properties": {"name": "蜀山区南七街道新华社区卫生服务站", "type": "综合医院", "address": "望江西路160号", "tel": "0551-65144128", "lng": 117.248424, "lat": 31.830648}, "geometry": {"type": "Point", "coordinates": [117.248424, 31.830648]}}, {"type": "Feature", "properties": {"name": "西园街道安居苑社区卫生服务站", "type": "综合医院", "address": "安居苑82幢101号", "tel": "0551-65581263", "lng": 117.236698, "lat": 31.848366}, "geometry": {"type": "Point", "coordinates": [117.236698, 31.848366]}}, {"type": "Feature", "properties": {"name": "蜀山区社区卫生服务中心", "type": "综合医院", "address": "井岗路218号", "tel": "0551-65357678;0551-65357689", "lng": 117.171113, "lat": 31.857503}, "geometry": {"type": "Point", "coordinates": [117.171113, 31.857503]}}, {"type": "Feature", "properties": {"name": "包河区芜湖路街道社区卫生服务中心", "type": "综合医院", "address": "屯溪路372号", "tel": "0551-62861457", "lng": 117.282322, "lat": 31.848175}, "geometry": {"type": "Point", "coordinates": [117.282322, 31.848175]}}, {"type": "Feature", "properties": {"name": "广瑞医疗·新园中医综合医院", "type": "综合医院", "address": "桃花镇禹洲天玺北门东侧43号", "tel": "15395120747;19154036030;19315316271", "lng": 117.169997, "lat": 31.78183}, "geometry": {"type": "Point", "coordinates": [117.169997, 31.78183]}}, {"type": "Feature", "properties": {"name": "稻香村街道合作化南路社区卫生服务站", "type": "综合医院", "address": "西苑小区西门旁", "tel": "13856069178", "lng": 117.251906, "lat": 31.831016}, "geometry": {"type": "Point", "coordinates": [117.251906, 31.831016]}}, {"type": "Feature", "properties": {"name": "芜湖路街道友谊社区卫生服务站", "type": "综合医院", "address": "美菱大道与太湖路交口恒生阳光城3栋102-202号", "tel": "0551-62875233;18155124915", "lng": 117.284746, "lat": 31.833752}, "geometry": {"type": "Point", "coordinates": [117.284746, 31.833752]}}, {"type": "Feature", "properties": {"name": "包河区常青街道仰光社区卫生服务站", "type": "综合医院", "address": "宿松路275号", "tel": "0551-63659892", "lng": 117.27077, "lat": 31.821638}, "geometry": {"type": "Point", "coordinates": [117.27077, 31.821638]}}, {"type": "Feature", "properties": {"name": "肥西县桃花镇染坊社区卫生服务站", "type": "综合医院", "address": "桃花镇染坊社区北苑东北门西北120米", "tel": "15156986665", "lng": 117.198999, "lat": 31.791565}, "geometry": {"type": "Point", "coordinates": [117.198999, 31.791565]}}, {"type": "Feature", "properties": {"name": "天乐社区卫生服务中心狂犬病暴露预防处置门诊", "type": "综合医院", "address": "蜀山区高新区天达路71号华亿科学园A1栋1-4层", "tel": "0551-62066524", "lng": 117.201535, "lat": 31.844535}, "geometry": {"type": "Point", "coordinates": [117.201535, 31.844535]}}, {"type": "Feature", "properties": {"name": "合肥高新区江河社区卫生服务中心", "type": "综合医院", "address": "柏堰商业街C1-21", "tel": "0551-65842721", "lng": 117.161362, "lat": 31.807834}, "geometry": {"type": "Point", "coordinates": [117.161362, 31.807834]}}, {"type": "Feature", "properties": {"name": "井岗镇蜀山经济开发区阳光社区卫生服务站", "type": "综合医院", "address": "美丽华花园东南门西110米", "tel": "0551-65325199", "lng": 117.207918, "lat": 31.858188}, "geometry": {"type": "Point", "coordinates": [117.207918, 31.858188]}}, {"type": "Feature", "properties": {"name": "同安街道社区卫生服务中心", "type": "综合医院", "address": "青年路58号安徽置地瑞玺南区南门", "tel": "0551-63457923", "lng": 117.297814, "lat": 31.822063}, "geometry": {"type": "Point", "coordinates": [117.297814, 31.822063]}}, {"type": "Feature", "properties": {"name": "海恒社区卫生服务中心", "type": "综合医院", "address": "", "tel": "0551-62820292;0551-63811769", "lng": 117.269428, "lat": 31.766574}, "geometry": {"type": "Point", "coordinates": [117.269428, 31.766574]}}, {"type": "Feature", "properties": {"name": "合肥瞬至医院", "type": "综合医院", "address": "西园街道西七里塘十里庙路3号A幢", "tel": "0551-62889200", "lng": 117.227592, "lat": 31.852795}, "geometry": {"type": "Point", "coordinates": [117.227592, 31.852795]}}, {"type": "Feature", "properties": {"name": "常青街道社区医院", "type": "综合医院", "address": "桐城支路与南二环路辅路交叉口北40米", "tel": "0551-66161530", "lng": 117.27895, "lat": 31.814739}, "geometry": {"type": "Point", "coordinates": [117.27895, 31.814739]}}, {"type": "Feature", "properties": {"name": "望湖社区卫生服务中心", "type": "综合医院", "address": "望湖中路与望湖东路交口望湖公园内(西侧)", "tel": "", "lng": 117.296779, "lat": 31.806074}, "geometry": {"type": "Point", "coordinates": [117.296779, 31.806074]}}, {"type": "Feature", "properties": {"name": "安徽省创面与显微外科技术研究院附属医院", "type": "综合医院", "address": "合巢路97号", "tel": "0551-63363696", "lng": 117.289956, "lat": 31.826096}, "geometry": {"type": "Point", "coordinates": [117.289956, 31.826096]}}, {"type": "Feature", "properties": {"name": "三里庵街道二里街社区卫生服务站", "type": "综合医院", "address": "长江西路43号(安农大地铁站D口步行240米)", "tel": "0551-62841179", "lng": 117.264024, "lat": 31.857349}, "geometry": {"type": "Point", "coordinates": [117.264024, 31.857349]}}, {"type": "Feature", "properties": {"name": "蜀山区南七街道社区卫生服务中心口腔诊疗中心", "type": "综合医院", "address": "丁香家园1期西南门旁", "tel": "", "lng": 117.24099, "lat": 31.827219}, "geometry": {"type": "Point", "coordinates": [117.24099, 31.827219]}}, {"type": "Feature", "properties": {"name": "翡翠医院", "type": "综合医院", "address": "翡翠路与环翠路交汇处向南100米", "tel": "0551-62628120", "lng": 117.200926, "lat": 31.761933}, "geometry": {"type": "Point", "coordinates": [117.200926, 31.761933]}}, {"type": "Feature", "properties": {"name": "荷叶地街道金荷社区卫生服务站", "type": "综合医院", "address": "皖西新村东南1门旁", "tel": "", "lng": 117.245456, "lat": 31.806014}, "geometry": {"type": "Point", "coordinates": [117.245456, 31.806014]}}, {"type": "Feature", "properties": {"name": "庐阳区三孝口街道社区卫生服务中心", "type": "综合医院", "address": "长江中路300号(三孝口地铁站B口步行230米)", "tel": "0551-62842431", "lng": 117.279027, "lat": 31.861952}, "geometry": {"type": "Point", "coordinates": [117.279027, 31.861952]}}, {"type": "Feature", "properties": {"name": "安徽医科大学医院", "type": "综合医院", "address": "梅山路", "tel": "", "lng": 117.263949, "lat": 31.850467}, "geometry": {"type": "Point", "coordinates": [117.263949, 31.850467]}}, {"type": "Feature", "properties": {"name": "蜀山区琥珀街道奥林花园社区卫生服务站", "type": "综合医院", "address": "肥西路与清溪路交叉口国轩苑东区1栋105-106室", "tel": "0551-65157120", "lng": 117.255926, "lat": 31.871139}, "geometry": {"type": "Point", "coordinates": [117.255926, 31.871139]}}, {"type": "Feature", "properties": {"name": "合肥市高新区锦绣怡园社区卫生服务站", "type": "综合医院", "address": "习友路与香樟大道交叉口东南300米", "tel": "", "lng": 117.194851, "lat": 31.812609}, "geometry": {"type": "Point", "coordinates": [117.194851, 31.812609]}}, {"type": "Feature", "properties": {"name": "包河区望湖街道银杏苑社区卫生服务站", "type": "综合医院", "address": "徽州大道1158号", "tel": "0551-63427811", "lng": 117.287872, "lat": 31.821637}, "geometry": {"type": "Point", "coordinates": [117.287872, 31.821637]}}, {"type": "Feature", "properties": {"name": "安徽省中医院名医堂", "type": "综合医院", "address": "梅山路117号安徽省中医院", "tel": "", "lng": 117.261131, "lat": 31.85378}, "geometry": {"type": "Point", "coordinates": [117.261131, 31.85378]}}, {"type": "Feature", "properties": {"name": "桃花镇卫生院", "type": "综合医院", "address": "长古路与延乔路交叉口西南60米", "tel": "", "lng": 117.170878, "lat": 31.778042}, "geometry": {"type": "Point", "coordinates": [117.170878, 31.778042]}}, {"type": "Feature", "properties": {"name": "延乔路医院", "type": "综合医院", "address": "延乔路与长古路交口西南角", "tel": "0551-62565527", "lng": 117.170931, "lat": 31.777788}, "geometry": {"type": "Point", "coordinates": [117.170931, 31.777788]}}, {"type": "Feature", "properties": {"name": "琥珀街道飞虹社区卫生服务站", "type": "综合医院", "address": "飞虹商城B-33号(三里庵地铁站F口步行190米)", "tel": "0551-65111105", "lng": 117.253325, "lat": 31.855375}, "geometry": {"type": "Point", "coordinates": [117.253325, 31.855375]}}, {"type": "Feature", "properties": {"name": "经开区海恒社区习友卫生服务站", "type": "综合医院", "address": "经开区海恒社区管理委员会街道芙蓉路福禄园", "tel": "0551-63815190", "lng": 117.257304, "lat": 31.782953}, "geometry": {"type": "Point", "coordinates": [117.257304, 31.782953]}}, {"type": "Feature", "properties": {"name": "亳州路街道社区卫生服务中心", "type": "综合医院", "address": "亳州路菜市场3楼", "tel": "0551-63870727", "lng": 117.266631, "lat": 31.877035}, "geometry": {"type": "Point", "coordinates": [117.266631, 31.877035]}}, {"type": "Feature", "properties": {"name": "荷叶地街道社区卫生服务中心急诊", "type": "综合医院", "address": "绿怡居西区东1门南170米", "tel": "", "lng": 117.240781, "lat": 31.821567}, "geometry": {"type": "Point", "coordinates": [117.240781, 31.821567]}}, {"type": "Feature", "properties": {"name": "五里墩街道青阳路社区卫生服务站", "type": "综合医院", "address": "淠河路", "tel": "0551-65133575", "lng": 117.249959, "lat": 31.857104}, "geometry": {"type": "Point", "coordinates": [117.249959, 31.857104]}}, {"type": "Feature", "properties": {"name": "金谷医院", "type": "综合医院", "address": "亳州路372号", "tel": "0551-65605715", "lng": 117.2564, "lat": 31.882367}, "geometry": {"type": "Point", "coordinates": [117.2564, 31.882367]}}, {"type": "Feature", "properties": {"name": "合肥市包河区望江中路社区卫生服务中心科大花园社区卫生服务站", "type": "综合医院", "address": "科大花园东苑西北门旁", "tel": "", "lng": 117.278077, "lat": 31.819648}, "geometry": {"type": "Point", "coordinates": [117.278077, 31.819648]}}, {"type": "Feature", "properties": {"name": "安徽省人民政府机关医院", "type": "综合医院", "address": "红星路90号", "tel": "0551-62603011", "lng": 117.284367, "lat": 31.859765}, "geometry": {"type": "Point", "coordinates": [117.284367, 31.859765]}}, {"type": "Feature", "properties": {"name": "蜀山区琥珀街道社区卫生服务中心(老址)", "type": "综合医院", "address": "琥珀街道", "tel": "0551-62835199", "lng": 117.264082, "lat": 31.866784}, "geometry": {"type": "Point", "coordinates": [117.264082, 31.866784]}}, {"type": "Feature", "properties": {"name": "海恒福禄园社区卫生服务站", "type": "综合医院", "address": "海恒社区管理委员会合经区海恒步行街", "tel": "", "lng": 117.259663, "lat": 31.777427}, "geometry": {"type": "Point", "coordinates": [117.259663, 31.777427]}}, {"type": "Feature", "properties": {"name": "四里河街道社区卫生服务中心", "type": "综合医院", "address": "固镇路113号", "tel": "0551-63816021;0551-63816120", "lng": 117.232596, "lat": 31.890728}, "geometry": {"type": "Point", "coordinates": [117.232596, 31.890728]}}, {"type": "Feature", "properties": {"name": "包公街道社区卫生服务中心", "type": "综合医院", "address": "马鞍山路与南一环路辅路交叉口南140米", "tel": "0551-64659896", "lng": 117.300332, "lat": 31.846789}, "geometry": {"type": "Point", "coordinates": [117.300332, 31.846789]}}, {"type": "Feature", "properties": {"name": "包公街道青年西区社区卫生服务站", "type": "综合医院", "address": "宁国南路768号", "tel": "0551-64662930", "lng": 117.291551, "lat": 31.836457}, "geometry": {"type": "Point", "coordinates": [117.291551, 31.836457]}}, {"type": "Feature", "properties": {"name": "庐阳区海棠街道社区卫生服务中心", "type": "综合医院", "address": "都市清华C1号(郑河地铁站2号口步行440米)", "tel": "0551-65557768", "lng": 117.272481, "lat": 31.887195}, "geometry": {"type": "Point", "coordinates": [117.272481, 31.887195]}}, {"type": "Feature", "properties": {"name": "合肥市第一人民医院临床教学中心", "type": "综合医院", "address": "三孝口永红路32号(三孝口地铁站5号口步行340米)", "tel": "0551-62307305;0551-62307308", "lng": 117.273607, "lat": 31.859436}, "geometry": {"type": "Point", "coordinates": [117.273607, 31.859436]}}, {"type": "Feature", "properties": {"name": "肥西县桃花工业园社区卫生服务中心", "type": "综合医院", "address": "青龙潭路与金凤路交汇处", "tel": "", "lng": 117.218386, "lat": 31.764912}, "geometry": {"type": "Point", "coordinates": [117.218386, 31.764912]}}, {"type": "Feature", "properties": {"name": "合肥高新区长宁社区卫生服务中心", "type": "综合医院", "address": "文曲路复兴家园商业楼北楼", "tel": "0551-69127346", "lng": 117.13925, "lat": 31.819461}, "geometry": {"type": "Point", "coordinates": [117.13925, 31.819461]}}, {"type": "Feature", "properties": {"name": "南七街道丁香汽修社区卫生服务站", "type": "综合医院", "address": "望江西路159号华阳楼F1层", "tel": "", "lng": 117.247275, "lat": 31.830275}, "geometry": {"type": "Point", "coordinates": [117.247275, 31.830275]}}, {"type": "Feature", "properties": {"name": "合肥光明老年护理医院", "type": "综合医院", "address": "青阳路(五里墩地铁站A口步行470米)", "tel": "", "lng": 117.241838, "lat": 31.855828}, "geometry": {"type": "Point", "coordinates": [117.241838, 31.855828]}}, {"type": "Feature", "properties": {"name": "安徽医科大学第一附属医院柏堰院区", "type": "综合医院", "address": "玉兰大道40号东区综合楼二号楼", "tel": "", "lng": 117.156114, "lat": 31.801026}, "geometry": {"type": "Point", "coordinates": [117.156114, 31.801026]}}, {"type": "Feature", "properties": {"name": "中国科学院临床研究医院(合肥)(装修中)", "type": "综合医院", "address": "花亭湖路与茗香路交口东南50米", "tel": "0551-66223177", "lng": 117.2509, "lat": 31.813746}, "geometry": {"type": "Point", "coordinates": [117.2509, 31.813746]}}, {"type": "Feature", "properties": {"name": "合肥市第一人民医院西区(暂停营业)", "type": "综合医院", "address": "环湖东路111号(西二环植物园路口)", "tel": "0551-62182803", "lng": 117.211629, "lat": 31.871939}, "geometry": {"type": "Point", "coordinates": [117.211629, 31.871939]}}, {"type": "Feature", "properties": {"name": "武警医院(南区)(暂停营业)", "type": "综合医院", "address": "金寨路276号(稻香楼地铁站A口步行310米)", "tel": "0551-62813355;0551-64637879", "lng": 117.277092, "lat": 31.851878}, "geometry": {"type": "Point", "coordinates": [117.277092, 31.851878]}}, {"type": "Feature", "properties": {"name": "合肥市淝河镇社区卫生服务中心", "type": "综合医院", "address": "文德路与龙川路辅路交叉口西北60米", "tel": "0551-64843376", "lng": 117.315845, "lat": 31.810242}, "geometry": {"type": "Point", "coordinates": [117.315845, 31.810242]}}, {"type": "Feature", "properties": {"name": "安徽医科大学第一附属医院高新院区", "type": "综合医院", "address": "皖水路120号(汽车西站地铁站C口)", "tel": "0551-65908534;4001011130", "lng": 117.137131, "lat": 31.846555}, "geometry": {"type": "Point", "coordinates": [117.137131, 31.846555]}}, {"type": "Feature", "properties": {"name": "合肥建安中医院", "type": "综合医院", "address": "北京路3508号(北京路与祁门路交口东北角)", "tel": "13696772961", "lng": 117.318638, "lat": 31.814696}, "geometry": {"type": "Point", "coordinates": [117.318638, 31.814696]}}, {"type": "Feature", "properties": {"name": "逍遥津街道社区卫生服务中心", "type": "综合医院", "address": "合肥中医推拿医院东南门旁", "tel": "0551-62115003;0551-62115011", "lng": 117.287548, "lat": 31.86672}, "geometry": {"type": "Point", "coordinates": [117.287548, 31.86672]}}, {"type": "Feature", "properties": {"name": "安徽建筑大学北校区校医院", "type": "综合医院", "address": "金寨路856号安徽建筑工业学院", "tel": "", "lng": 117.252782, "lat": 31.813804}, "geometry": {"type": "Point", "coordinates": [117.252782, 31.813804]}}, {"type": "Feature", "properties": {"name": "合肥包河区包公街道炳辉社区卫生服务站", "type": "综合医院", "address": "徽州大道708号", "tel": "15395059626", "lng": 117.287153, "lat": 31.837544}, "geometry": {"type": "Point", "coordinates": [117.287153, 31.837544]}}, {"type": "Feature", "properties": {"name": "合肥经济技术开发区锦绣方兴社区卫生服务站", "type": "综合医院", "address": "青龙潭路171号", "tel": "0551-63682198", "lng": 117.208162, "lat": 31.751995}, "geometry": {"type": "Point", "coordinates": [117.208162, 31.751995]}}, {"type": "Feature", "properties": {"name": "亳州路街道古城社区卫生服务站", "type": "综合医院", "address": "云滨花园东1门东南80米", "tel": "0551-5547953;0551-65547953", "lng": 117.255653, "lat": 31.876797}, "geometry": {"type": "Point", "coordinates": [117.255653, 31.876797]}}, {"type": "Feature", "properties": {"name": "岳西路医疗卫生服务站", "type": "综合医院", "address": "岳西路与十里庙路交叉口南160米", "tel": "", "lng": 117.224853, "lat": 31.851485}, "geometry": {"type": "Point", "coordinates": [117.224853, 31.851485]}}, {"type": "Feature", "properties": {"name": "三孝口街道大夫第社区卫生服务站", "type": "综合医院", "address": "淮河路452号(杏花公园地铁站B口步行470米)", "tel": "0551-62839337", "lng": 117.276725, "lat": 31.867275}, "geometry": {"type": "Point", "coordinates": [117.276725, 31.867275]}}, {"type": "Feature", "properties": {"name": "包河区同安街道朱岗社区卫生服务站", "type": "综合医院", "address": "力高·柏林春天北2门旁", "tel": "15255463700", "lng": 117.300741, "lat": 31.827256}, "geometry": {"type": "Point", "coordinates": [117.300741, 31.827256]}}, {"type": "Feature", "properties": {"name": "安徽中医药大学第一附属医院内科大楼", "type": "综合医院", "address": "三里庵街道梅山路117号安徽中医药大学第一附属医院内科大楼四楼重症监护室", "tel": "", "lng": 117.259337, "lat": 31.852742}, "geometry": {"type": "Point", "coordinates": [117.259337, 31.852742]}}, {"type": "Feature", "properties": {"name": "首都医科大学附属北京安贞医院安徽医院", "type": "综合医院", "address": "皖水路与文曲路交口", "tel": "", "lng": 117.139113, "lat": 31.846311}, "geometry": {"type": "Point", "coordinates": [117.139113, 31.846311]}}, {"type": "Feature", "properties": {"name": "五里墩街道家家景园社区卫生服务站", "type": "综合医院", "address": "淠河路111号", "tel": "", "lng": 117.233811, "lat": 31.857179}, "geometry": {"type": "Point", "coordinates": [117.233811, 31.857179]}}, {"type": "Feature", "properties": {"name": "锦绣社区卫生服务中心", "type": "综合医院", "address": "紫云路194-212、216", "tel": "0551-63858779", "lng": 117.232196, "lat": 31.741521}, "geometry": {"type": "Point", "coordinates": [117.232196, 31.741521]}}, {"type": "Feature", "properties": {"name": "安徽中医药大学第一附属医院安徽省中医院双向转诊接诊处", "type": "综合医院", "address": "梅山路与长江西路交叉口南280米", "tel": "", "lng": 117.261232, "lat": 31.853802}, "geometry": {"type": "Point", "coordinates": [117.261232, 31.853802]}}, {"type": "Feature", "properties": {"name": "安徽医科大学第二附属医院爱婴医院", "type": "综合医院", "address": "莲花社区芙蓉路678号安徽医科大学第二附属医院北四楼十四楼", "tel": "", "lng": 117.211599, "lat": 31.790076}, "geometry": {"type": "Point", "coordinates": [117.211599, 31.790076]}}, {"type": "Feature", "properties": {"name": "小通社区医院", "type": "综合医院", "address": "光明路与新庄路交叉口北220米", "tel": "", "lng": 117.247799, "lat": 31.846263}, "geometry": {"type": "Point", "coordinates": [117.247799, 31.846263]}}, {"type": "Feature", "properties": {"name": "仁医星中医连锁(合肥总店)", "type": "综合医院", "address": "望江东路9号星隆广场3层(大润发超市旁)", "tel": "4009906792", "lng": 117.312225, "lat": 31.826175}, "geometry": {"type": "Point", "coordinates": [117.312225, 31.826175]}}, {"type": "Feature", "properties": {"name": "双岗街道高河埂社区卫生服务站", "type": "综合医院", "address": "蒙城北路高河埂新村15栋", "tel": "0551-65523283", "lng": 117.276935, "lat": 31.874988}, "geometry": {"type": "Point", "coordinates": [117.276935, 31.874988]}}, {"type": "Feature", "properties": {"name": "安徽中医药大学第一附属医院介入中心", "type": "综合医院", "address": "三里庵街道梅山路117号安徽中医药大学第一附属医院综合楼介入中心", "tel": "0551-62838580", "lng": 117.260255, "lat": 31.853405}, "geometry": {"type": "Point", "coordinates": [117.260255, 31.853405]}}, {"type": "Feature", "properties": {"name": "双岗街道小桥湾社区卫生服务站", "type": "综合医院", "address": "双岗街道合瓦路61号", "tel": "", "lng": 117.28395, "lat": 31.882869}, "geometry": {"type": "Point", "coordinates": [117.28395, 31.882869]}}, {"type": "Feature", "properties": {"name": "安徽省中医院行管楼", "type": "综合医院", "address": "三里庵街道梅山路117号中医院门诊楼3楼", "tel": "", "lng": 117.260012, "lat": 31.852455}, "geometry": {"type": "Point", "coordinates": [117.260012, 31.852455]}}, {"type": "Feature", "properties": {"name": "安徽医科大学第一附属医院临床研究医院", "type": "综合医院", "address": "合肥市蜀山区皖水路 121 号", "tel": "", "lng": 117.137911, "lat": 31.84435}, "geometry": {"type": "Point", "coordinates": [117.137911, 31.84435]}}, {"type": "Feature", "properties": {"name": "合肥东南中医院", "type": "综合医院", "address": "紫蓬路与清潭路交叉口向西100米", "tel": "0551-62103766;0551-63828966;13339195719;13966763188", "lng": 117.265399, "lat": 31.747457}, "geometry": {"type": "Point", "coordinates": [117.265399, 31.747457]}}, {"type": "Feature", "properties": {"name": "合肥瑶海板桥医院", "type": "综合医院", "address": "新蚌埠路9号", "tel": "15056667701", "lng": 117.291411, "lat": 31.881457}, "geometry": {"type": "Point", "coordinates": [117.291411, 31.881457]}}, {"type": "Feature", "properties": {"name": "安徽中医药大学第一附属医院丹溪楼", "type": "综合医院", "address": "梅山路117号安徽中医药大学第一附属医院", "tel": "", "lng": 117.259289, "lat": 31.853147}, "geometry": {"type": "Point", "coordinates": [117.259289, 31.853147]}}, {"type": "Feature", "properties": {"name": "合肥市第二人民医院和平路院区", "type": "综合医院", "address": "和平路246号", "tel": "0551-62203666", "lng": 117.318423, "lat": 31.856642}, "geometry": {"type": "Point", "coordinates": [117.318423, 31.856642]}}, {"type": "Feature", "properties": {"name": "合肥高新区南岗社区卫生服务中心", "type": "综合医院", "address": "磨子潭路120号(汽车西站地铁站1号口步行400米)", "tel": "0551-65393281", "lng": 117.136538, "lat": 31.854793}, "geometry": {"type": "Point", "coordinates": [117.136538, 31.854793]}}, {"type": "Feature", "properties": {"name": "合肥中医推拿医院", "type": "综合医院", "address": "逍遥津街道寿春路寿春五巷", "tel": "0551-62640401", "lng": 117.287421, "lat": 31.866674}, "geometry": {"type": "Point", "coordinates": [117.287421, 31.866674]}}, {"type": "Feature", "properties": {"name": "锦绣天都社区卫生服务站", "type": "综合医院", "address": "蜀山经济技术开发区莲花路1851号", "tel": "0551-63810828", "lng": 117.23163, "lat": 31.745326}, "geometry": {"type": "Point", "coordinates": [117.23163, 31.745326]}}, {"type": "Feature", "properties": {"name": "安徽中医药大学第一附属医院检验中心", "type": "综合医院", "address": "梅山路117号安徽中医药大学第一附属医院", "tel": "", "lng": 117.260825, "lat": 31.854125}, "geometry": {"type": "Point", "coordinates": [117.260825, 31.854125]}}, {"type": "Feature", "properties": {"name": "合肥龙华医院", "type": "综合医院", "address": "蒙城北路(海棠地铁站C2口步行370米)", "tel": "0551-65627608", "lng": 117.278953, "lat": 31.883345}, "geometry": {"type": "Point", "coordinates": [117.278953, 31.883345]}}, {"type": "Feature", "properties": {"name": "安徽三联学院南区校医院", "type": "综合医院", "address": "安徽三联学院南区", "tel": "0551-63830776", "lng": 117.196751, "lat": 31.751937}, "geometry": {"type": "Point", "coordinates": [117.196751, 31.751937]}}, {"type": "Feature", "properties": {"name": "合肥高新区杨林社区卫生服务站", "type": "综合医院", "address": "百草街C号1-2号!", "tel": "0551-66116526", "lng": 117.142235, "lat": 31.848136}, "geometry": {"type": "Point", "coordinates": [117.142235, 31.848136]}}, {"type": "Feature", "properties": {"name": "安徽庐州医院四季青分院", "type": "综合医院", "address": "西二环路108号", "tel": "", "lng": 117.212963, "lat": 31.894706}, "geometry": {"type": "Point", "coordinates": [117.212963, 31.894706]}}, {"type": "Feature", "properties": {"name": "同安街道分路口社区卫生服务站", "type": "综合医院", "address": "文昌新村B区西北门旁", "tel": "0551-64679969", "lng": 117.310397, "lat": 31.8411}, "geometry": {"type": "Point", "coordinates": [117.310397, 31.8411]}}, {"type": "Feature", "properties": {"name": "胜利明光街道社区卫生服务中心", "type": "综合医院", "address": "滁州路288号(明光路地铁站B口步行280米)", "tel": "0551-64291665;0551-64295747", "lng": 117.303196, "lat": 31.866988}, "geometry": {"type": "Point", "coordinates": [117.303196, 31.866988]}}, {"type": "Feature", "properties": {"name": "包公街道河滨社区卫生服务站", "type": "综合医院", "address": "巢湖路与芜湖路交叉口西50米", "tel": "0551-62873517", "lng": 117.30435, "lat": 31.859353}, "geometry": {"type": "Point", "coordinates": [117.30435, 31.859353]}}, {"type": "Feature", "properties": {"name": "庐阳区大杨镇社区卫生服务中心", "type": "综合医院", "address": "四里河路中铁国际城品园西北角", "tel": "0551-65713126", "lng": 117.227547, "lat": 31.904916}, "geometry": {"type": "Point", "coordinates": [117.227547, 31.904916]}}, {"type": "Feature", "properties": {"name": "安徽医科大学第一附属医院高新院区医技楼", "type": "综合医院", "address": "皖水路120号安徽医科大学第一附属医院高新院区", "tel": "", "lng": 117.137243, "lat": 31.846522}, "geometry": {"type": "Point", "coordinates": [117.137243, 31.846522]}}, {"type": "Feature", "properties": {"name": "合肥东南中医院", "type": "综合医院", "address": "莲花路37栋", "tel": "18355719578", "lng": 117.231675, "lat": 31.743175}, "geometry": {"type": "Point", "coordinates": [117.231675, 31.743175]}}, {"type": "Feature", "properties": {"name": "瑶海区城东街道社区卫生服务中心", "type": "综合医院", "address": "瑶海区裕溪路与铜陵路交叉口政裕大厦", "tel": "0551-64471868;0551-64483504", "lng": 117.318159, "lat": 31.850979}, "geometry": {"type": "Point", "coordinates": [117.318159, 31.850979]}}, {"type": "Feature", "properties": {"name": "庐阳区杏林街道社区卫生服务中心", "type": "综合医院", "address": "杏林街道阜阳北路与临泉路交口向北100米", "tel": "0551-65601571", "lng": 117.287569, "lat": 31.88841}, "geometry": {"type": "Point", "coordinates": [117.287569, 31.88841]}}, {"type": "Feature", "properties": {"name": "琥珀社区医疗服务中心", "type": "综合医院", "address": "琥珀南村42幢", "tel": "", "lng": 117.264875, "lat": 31.863432}, "geometry": {"type": "Point", "coordinates": [117.264875, 31.863432]}}, {"type": "Feature", "properties": {"name": "同安街道王大郢社区卫生服务站", "type": "综合医院", "address": "王大郢家园沁苑S4-110", "tel": "0551-64668858;13966691725", "lng": 117.314744, "lat": 31.835884}, "geometry": {"type": "Point", "coordinates": [117.314744, 31.835884]}}, {"type": "Feature", "properties": {"name": "合肥博极医院", "type": "综合医院", "address": "大杨镇清源路海亮兰郡商业街S1栋整栋", "tel": "15395087098", "lng": 117.215614, "lat": 31.899856}, "geometry": {"type": "Point", "coordinates": [117.215614, 31.899856]}}, {"type": "Feature", "properties": {"name": "大杨镇夹塘社区卫生服务站", "type": "综合医院", "address": "紫桐新村AB区南门西60米", "tel": "", "lng": 117.242599, "lat": 31.893008}, "geometry": {"type": "Point", "coordinates": [117.242599, 31.893008]}}, {"type": "Feature", "properties": {"name": "同安街道周谷堆社区卫生服务站", "type": "综合医院", "address": "海达小区东北门东南250米", "tel": "", "lng": 117.30513, "lat": 31.844377}, "geometry": {"type": "Point", "coordinates": [117.30513, 31.844377]}}, {"type": "Feature", "properties": {"name": "瑶海区胜利明光街道社区卫生服务", "type": "综合医院", "address": "滁州路288号(明光路地铁站2号口步行280米)", "tel": "0551-64292023", "lng": 117.303482, "lat": 31.867083}, "geometry": {"type": "Point", "coordinates": [117.303482, 31.867083]}}, {"type": "Feature", "properties": {"name": "瑶海区胜利路街道社区卫生服务中心", "type": "综合医院", "address": "合铁家园1号楼", "tel": "0551-64272257", "lng": 117.299826, "lat": 31.878312}, "geometry": {"type": "Point", "coordinates": [117.299826, 31.878312]}}, {"type": "Feature", "properties": {"name": "繁华新园社区卫生服务站", "type": "综合医院", "address": "繁华新园长古路北门东70米", "tel": "", "lng": 117.169565, "lat": 31.77805}, "geometry": {"type": "Point", "coordinates": [117.169565, 31.77805]}}, {"type": "Feature", "properties": {"name": "工会驿站(清溪路与肥西路交口社区卫生服务站)", "type": "综合医院", "address": "国轩苑东区", "tel": "", "lng": 117.255575, "lat": 31.870525}, "geometry": {"type": "Point", "coordinates": [117.255575, 31.870525]}}, {"type": "Feature", "properties": {"name": "海棠街道清华社区卫生服务站", "type": "综合医院", "address": "芙蓉苑南村南门西80米(海棠地铁站6号口步行250米)", "tel": "", "lng": 117.275046, "lat": 31.887158}, "geometry": {"type": "Point", "coordinates": [117.275046, 31.887158]}}, {"type": "Feature", "properties": {"name": "安徽医科大学第一附属医院绩溪路院区新外科大楼", "type": "综合医院", "address": "绩溪路72号", "tel": "", "lng": 117.268626, "lat": 31.846101}, "geometry": {"type": "Point", "coordinates": [117.268626, 31.846101]}}, {"type": "Feature", "properties": {"name": "合肥锐迈医院(建设中)", "type": "综合医院", "address": "庐州大道与祁门路辅路交叉口南100米", "tel": "", "lng": 117.28875, "lat": 31.80765}, "geometry": {"type": "Point", "coordinates": [117.28875, 31.80765]}}, {"type": "Feature", "properties": {"name": "合肥建安中医院精神心理研究中心", "type": "综合医院", "address": "北京路3508号", "tel": "19155121101", "lng": 117.318961, "lat": 31.814318}, "geometry": {"type": "Point", "coordinates": [117.318961, 31.814318]}}, {"type": "Feature", "properties": {"name": "科学家园医疗卫生服务站", "type": "综合医院", "address": "科学家园西南1门旁", "tel": "", "lng": 117.172012, "lat": 31.864105}, "geometry": {"type": "Point", "coordinates": [117.172012, 31.864105]}}, {"type": "Feature", "properties": {"name": "安徽省中医院-急诊科儿科病区", "type": "综合医院", "address": "梅山路117号安徽省中医院", "tel": "0551-62838503", "lng": 117.261112, "lat": 31.853875}, "geometry": {"type": "Point", "coordinates": [117.261112, 31.853875]}}, {"type": "Feature", "properties": {"name": "合肥市包河区骆岗街道社区卫生服务中心", "type": "综合医院", "address": "哈尔滨路水丽坊自在城北区", "tel": "0551-63358102", "lng": 117.327223, "lat": 31.799195}, "geometry": {"type": "Point", "coordinates": [117.327223, 31.799195]}}, {"type": "Feature", "properties": {"name": "安徽医科大学第一附属医院南区", "type": "综合医院", "address": "翡翠路与云谷路交汇东北", "tel": "0551-63236166;0551-63236118", "lng": 117.170293, "lat": 31.745298}, "geometry": {"type": "Point", "coordinates": [117.170293, 31.745298]}}, {"type": "Feature", "properties": {"name": "双岗街道虹桥社区卫生服务站", "type": "综合医院", "address": "栌桥路80号", "tel": "0551-65660869", "lng": 117.291386, "lat": 31.875779}, "geometry": {"type": "Point", "coordinates": [117.291386, 31.875779]}}, {"type": "Feature", "properties": {"name": "稻香村街道合力社区卫生服务站", "type": "综合医院", "address": "洪岗支巷与太湖路交叉口西南140米", "tel": "", "lng": 117.260973, "lat": 31.832316}, "geometry": {"type": "Point", "coordinates": [117.260973, 31.832316]}}, {"type": "Feature", "properties": {"name": "杏林街道上城社区卫生服务站", "type": "综合医院", "address": "合瓦路与凤台路交口杏林街道", "tel": "13866132660", "lng": 117.279087, "lat": 31.89047}, "geometry": {"type": "Point", "coordinates": [117.279087, 31.89047]}}, {"type": "Feature", "properties": {"name": "陈村路医疗卫生服务站", "type": "综合医院", "address": "半店路与长江西路辅路交叉口东北260米", "tel": "", "lng": 117.237325, "lat": 31.853725}, "geometry": {"type": "Point", "coordinates": [117.237325, 31.853725]}}, {"type": "Feature", "properties": {"name": "安徽省第二人民医院临淮路院区", "type": "综合医院", "address": "三里街临淮路1号(三里街地铁站D口步行350米)", "tel": "0551-64237922", "lng": 117.310981, "lat": 31.869804}, "geometry": {"type": "Point", "coordinates": [117.310981, 31.869804]}}, {"type": "Feature", "properties": {"name": "合肥市中医院", "type": "综合医院", "address": "龙川路99号", "tel": "0551-63682891;0551-68998120", "lng": 117.333651, "lat": 31.814341}, "geometry": {"type": "Point", "coordinates": [117.333651, 31.814341]}}, {"type": "Feature", "properties": {"name": "合肥市第一人民医院滨湖院区", "type": "综合医院", "address": "滨湖新区长沙路3200号", "tel": "0551-82137015", "lng": 117.289054, "lat": 31.739214}, "geometry": {"type": "Point", "coordinates": [117.289054, 31.739214]}}, {"type": "Feature", "properties": {"name": "稻香村街道黄山路社区卫生服务站", "type": "综合医院", "address": "金寨路与黄山路交叉口西260米", "tel": "", "lng": 117.266182, "lat": 31.840903}, "geometry": {"type": "Point", "coordinates": [117.266182, 31.840903]}}, {"type": "Feature", "properties": {"name": "安徽省第二人民医院主院区", "type": "综合医院", "address": "北二环砀山路1868号", "tel": "0551-64272019;0551-64272108;0551-64286033", "lng": 117.306093, "lat": 31.896048}, "geometry": {"type": "Point", "coordinates": [117.306093, 31.896048]}}, {"type": "Feature", "properties": {"name": "合肥光华医院", "type": "综合医院", "address": "濉溪东路257号", "tel": "", "lng": 117.294404, "lat": 31.879824}, "geometry": {"type": "Point", "coordinates": [117.294404, 31.879824]}}, {"type": "Feature", "properties": {"name": "庐阳区杏花村街道社区卫生服务中心", "type": "综合医院", "address": "北二环路201号北二环路与淮北路交口东北角", "tel": "0551-65555508", "lng": 117.262297, "lat": 31.90025}, "geometry": {"type": "Point", "coordinates": [117.262297, 31.90025]}}, {"type": "Feature", "properties": {"name": "合肥贝叶中西医结合医院", "type": "综合医院", "address": "嘉山路与新蚌埠路交叉口北120米", "tel": "", "lng": 117.29212, "lat": 31.882243}, "geometry": {"type": "Point", "coordinates": [117.29212, 31.882243]}}, {"type": "Feature", "properties": {"name": "合肥大学校医院", "type": "综合医院", "address": "合肥经开区锦绣大道99号合肥大学", "tel": "", "lng": 117.25085, "lat": 31.753174}, "geometry": {"type": "Point", "coordinates": [117.25085, 31.753174]}}, {"type": "Feature", "properties": {"name": "安徽省妇女儿童医学中心东区", "type": "综合医院", "address": "裕溪路红旗建材市场斜对面", "tel": "0551-69118599", "lng": 117.339495, "lat": 31.849296}, "geometry": {"type": "Point", "coordinates": [117.339495, 31.849296]}}, {"type": "Feature", "properties": {"name": "安徽庐州医院分院", "type": "综合医院", "address": "董铺路辅路与瓦埠湖路交叉口北260米", "tel": "", "lng": 117.213075, "lat": 31.894725}, "geometry": {"type": "Point", "coordinates": [117.213075, 31.894725]}}, {"type": "Feature", "properties": {"name": "安徽省中医院制剂中心", "type": "综合医院", "address": "三里庵街道梅山路117号安徽省中医院", "tel": "", "lng": 117.259252, "lat": 31.853651}, "geometry": {"type": "Point", "coordinates": [117.259252, 31.853651]}}, {"type": "Feature", "properties": {"name": "合肥市第二人民医院广德路院区", "type": "综合医院", "address": "广德路与乐水路交口", "tel": "0551-62965102;0551-62965470", "lng": 117.362339, "lat": 31.853976}, "geometry": {"type": "Point", "coordinates": [117.362339, 31.853976]}}, {"type": "Feature", "properties": {"name": "望湖街道朱岗社区卫生服务站", "type": "综合医院", "address": "太湖路与太湖东路交叉口东南60米", "tel": "0551-3334151;0551-3423973", "lng": 117.293473, "lat": 31.831876}, "geometry": {"type": "Point", "coordinates": [117.293473, 31.831876]}}, {"type": "Feature", "properties": {"name": "双岗街道绿都花园社区卫生服务站", "type": "综合医院", "address": "双岗街道阜阳北路绿都花园小区3栋", "tel": "0551-65530385", "lng": 117.289024, "lat": 31.883585}, "geometry": {"type": "Point", "coordinates": [117.289024, 31.883585]}}, {"type": "Feature", "properties": {"name": "中心卫生院大柳塘社区卫生服务站", "type": "综合医院", "address": "仙女路与青龙潭路交叉口东60米", "tel": "", "lng": 117.218458, "lat": 31.764912}, "geometry": {"type": "Point", "coordinates": [117.218458, 31.764912]}}, {"type": "Feature", "properties": {"name": "骆岗街道观音庙社区卫生服务站", "type": "综合医院", "address": "包河苑B区西南门南170米", "tel": "", "lng": 117.320114, "lat": 31.795453}, "geometry": {"type": "Point", "coordinates": [117.320114, 31.795453]}}, {"type": "Feature", "properties": {"name": "合肥同行康复医院", "type": "综合医院", "address": "铜陵路街道定远路88号", "tel": "", "lng": 117.329465, "lat": 31.87369}, "geometry": {"type": "Point", "coordinates": [117.329465, 31.87369]}}, {"type": "Feature", "properties": {"name": "铜陵路街道社区卫生服务中心", "type": "综合医院", "address": "长江东路721号(东五里井地铁站C口步行140米)", "tel": "", "lng": 117.325122, "lat": 31.867305}, "geometry": {"type": "Point", "coordinates": [117.325122, 31.867305]}}, {"type": "Feature", "properties": {"name": "包河区烟墩街道社区卫生服务中心", "type": "综合医院", "address": "滨湖桂园北区东2门西南410米", "tel": "0551-63899717", "lng": 117.270937, "lat": 31.720072}, "geometry": {"type": "Point", "coordinates": [117.270937, 31.720072]}}, {"type": "Feature", "properties": {"name": "合肥新港医院", "type": "综合医院", "address": "经济技术开发区新港工业园紫石路与肥光路交口滨河小区一期商业楼二楼西侧", "tel": "18556556011", "lng": 117.184937, "lat": 31.734939}, "geometry": {"type": "Point", "coordinates": [117.184937, 31.734939]}}, {"type": "Feature", "properties": {"name": "红光街道卫生服务中心", "type": "综合医院", "address": "裕溪路559号", "tel": "0551-64528535;13485690493", "lng": 117.34871, "lat": 31.84376}, "geometry": {"type": "Point", "coordinates": [117.34871, 31.84376]}}, {"type": "Feature", "properties": {"name": "城东街道大王庙社区卫生服务站", "type": "综合医院", "address": "裕溪路1477号(裕溪路隆庭佳苑北大门西侧17幢103号)", "tel": "0551-64421293", "lng": 117.319651, "lat": 31.850423}, "geometry": {"type": "Point", "coordinates": [117.319651, 31.850423]}}, {"type": "Feature", "properties": {"name": "临湖社区卫生服务中心", "type": "综合医院", "address": "玉屏南路", "tel": "", "lng": 117.245114, "lat": 31.709555}, "geometry": {"type": "Point", "coordinates": [117.245114, 31.709555]}}, {"type": "Feature", "properties": {"name": "肥西华阳医院", "type": "综合医院", "address": "上派镇三河路与翡翠路交口汽车配件市场2-1号楼(西南国际车城)", "tel": "0551-69012120", "lng": 117.156862, "lat": 31.728805}, "geometry": {"type": "Point", "coordinates": [117.156862, 31.728805]}}, {"type": "Feature", "properties": {"name": "滨湖世纪社区卫生服务中心", "type": "综合医院", "address": "长沙路与天山路交口西南角(社区卫生服务中心一楼)", "tel": "", "lng": 117.296059, "lat": 31.736753}, "geometry": {"type": "Point", "coordinates": [117.296059, 31.736753]}}, {"type": "Feature", "properties": {"name": "新站高新区七里塘社区卫生服务中心", "type": "综合医院", "address": "新海大道与符离路交口向南80米", "tel": "0551-64281850", "lng": 117.316234, "lat": 31.901801}, "geometry": {"type": "Point", "coordinates": [117.316234, 31.901801]}}, {"type": "Feature", "properties": {"name": "瑶海区方庙街道社区卫生服务中心", "type": "综合医院", "address": "荷塘家园二期菜市场北50米", "tel": "0551-64288064", "lng": 117.347248, "lat": 31.879078}, "geometry": {"type": "Point", "coordinates": [117.347248, 31.879078]}}, {"type": "Feature", "properties": {"name": "三里街街道社区卫生服务中心", "type": "综合医院", "address": "长江东路855号(三里街地铁站B口步行370米)", "tel": "0551-64253981", "lng": 117.317946, "lat": 31.867179}, "geometry": {"type": "Point", "coordinates": [117.317946, 31.867179]}}, {"type": "Feature", "properties": {"name": "中国科学技术大学附属第一医院安徽省立医院滨湖医疗保健中心", "type": "综合医院", "address": "徽富路与迎淮路交口", "tel": "0551-62609508;0551-62609552", "lng": 117.324272, "lat": 31.737119}, "geometry": {"type": "Point", "coordinates": [117.324272, 31.737119]}}, {"type": "Feature", "properties": {"name": "望湖街道王大郢医务室", "type": "综合医院", "address": "王大郢新村A区西南1门西北50米", "tel": "", "lng": 117.315224, "lat": 31.838791}, "geometry": {"type": "Point", "coordinates": [117.315224, 31.838791]}}, {"type": "Feature", "properties": {"name": "肥西县中医院(新区)", "type": "综合医院", "address": "站前路与青龙路交叉口东北部", "tel": "0551-68843121", "lng": 117.177494, "lat": 31.700116}, "geometry": {"type": "Point", "coordinates": [117.177494, 31.700116]}}, {"type": "Feature", "properties": {"name": "包河区方兴社区医院", "type": "综合医院", "address": "方兴社区服务中心东门旁", "tel": "0551-62921697", "lng": 117.310476, "lat": 31.742779}, "geometry": {"type": "Point", "coordinates": [117.310476, 31.742779]}}, {"type": "Feature", "properties": {"name": "和平路街道社区卫生服务中心", "type": "综合医院", "address": "和平路与肥东路交叉口西北40米", "tel": "0551-64497105", "lng": 117.326054, "lat": 31.855059}, "geometry": {"type": "Point", "coordinates": [117.326054, 31.855059]}}, {"type": "Feature", "properties": {"name": "庐阳区林店街道社区卫生服务中心", "type": "综合医院", "address": "永幸河路与丽水路交口西南角", "tel": "0551-62307072", "lng": 117.272302, "lat": 31.91229}, "geometry": {"type": "Point", "coordinates": [117.272302, 31.91229]}}, {"type": "Feature", "properties": {"name": "长淮街道社区卫生中心", "type": "综合医院", "address": "淮枫路与胜利路交口向西150米", "tel": "0551-62626519", "lng": 117.312293, "lat": 31.881395}, "geometry": {"type": "Point", "coordinates": [117.312293, 31.881395]}}, {"type": "Feature", "properties": {"name": "合肥高新区长宁社区永和卫生服务站", "type": "综合医院", "address": "合肥高新区永和家园小区西门向东200米", "tel": "", "lng": 117.118674, "lat": 31.847678}, "geometry": {"type": "Point", "coordinates": [117.118674, 31.847678]}}, {"type": "Feature", "properties": {"name": "双岗街道虹桥老街社区卫生服务站", "type": "综合医院", "address": "双岗老街五巷与双岗老街交叉口西北20米", "tel": "", "lng": 117.288428, "lat": 31.878875}, "geometry": {"type": "Point", "coordinates": [117.288428, 31.878875]}}, {"type": "Feature", "properties": {"name": "安徽静安中西医结合医院", "type": "综合医院", "address": "龙岗路101号", "tel": "0551-64328888;17764404685", "lng": 117.37718, "lat": 31.855564}, "geometry": {"type": "Point", "coordinates": [117.37718, 31.855564]}}, {"type": "Feature", "properties": {"name": "瑶海区七里站街道社区卫生服务中心", "type": "综合医院", "address": "长江东路441号(东七里地铁站C口步行300米)", "tel": "", "lng": 117.342255, "lat": 31.867386}, "geometry": {"type": "Point", "coordinates": [117.342255, 31.867386]}}, {"type": "Feature", "properties": {"name": "瑶海区嘉山路街道社区卫生服务中心", "type": "综合医院", "address": "元一名城C区北门东北70米", "tel": "0551-64220225", "lng": 117.293791, "lat": 31.892829}, "geometry": {"type": "Point", "coordinates": [117.293791, 31.892829]}}, {"type": "Feature", "properties": {"name": "合肥佰惠医院", "type": "综合医院", "address": "阜阳北路与天水路交叉口", "tel": "0551-69116938", "lng": 117.27523, "lat": 31.935931}, "geometry": {"type": "Point", "coordinates": [117.27523, 31.935931]}}, {"type": "Feature", "properties": {"name": "城西桥社区卫生服务中心", "type": "综合医院", "address": "望江西路988号", "tel": "0551-62676120", "lng": 117.081612, "lat": 31.827475}, "geometry": {"type": "Point", "coordinates": [117.081612, 31.827475]}}, {"type": "Feature", "properties": {"name": "合肥康恒中西医结合医院", "type": "综合医院", "address": "玉屏南路102号", "tel": "0551-65666068", "lng": 117.245074, "lat": 31.711054}, "geometry": {"type": "Point", "coordinates": [117.245074, 31.711054]}}, {"type": "Feature", "properties": {"name": "合肥康中医院", "type": "综合医院", "address": "当涂北路与皇藏峪路交汇处北", "tel": "17355194139", "lng": 117.342994, "lat": 31.890884}, "geometry": {"type": "Point", "coordinates": [117.342994, 31.890884]}}, {"type": "Feature", "properties": {"name": "合肥长兴康复医院", "type": "综合医院", "address": "新海大道与灵石路交汇处附近", "tel": "0551-64389499", "lng": 117.35181, "lat": 31.894199}, "geometry": {"type": "Point", "coordinates": [117.35181, 31.894199]}}, {"type": "Feature", "properties": {"name": "小通社区医院", "type": "综合医院", "address": "合肥昌河车城小区西区同乐门西南210米", "tel": "", "lng": 117.161639, "lat": 31.80797}, "geometry": {"type": "Point", "coordinates": [117.161639, 31.80797]}}, {"type": "Feature", "properties": {"name": "岗集中心卫生院", "type": "综合医院", "address": "岗集镇合淮公路第五人民医院", "tel": "0551-66773719", "lng": 117.186831, "lat": 31.946338}, "geometry": {"type": "Point", "coordinates": [117.186831, 31.946338]}}, {"type": "Feature", "properties": {"name": "合肥庐州医院", "type": "综合医院", "address": "东方大道1500号A4号", "tel": "0551-66899199", "lng": 117.262042, "lat": 31.950645}, "geometry": {"type": "Point", "coordinates": [117.262042, 31.950645]}}, {"type": "Feature", "properties": {"name": "明光路街道填海巷社区卫生服务站", "type": "综合医院", "address": "长江东路群力新村", "tel": "0551-64477279", "lng": 117.309474, "lat": 31.865192}, "geometry": {"type": "Point", "coordinates": [117.309474, 31.865192]}}, {"type": "Feature", "properties": {"name": "安徽新安中西医结合医院", "type": "综合医院", "address": "新站开发区新海大道898号", "tel": "0551-65956117", "lng": 117.335651, "lat": 31.899147}, "geometry": {"type": "Point", "coordinates": [117.335651, 31.899147]}}, {"type": "Feature", "properties": {"name": "上海交通大学医学院附属仁济医院安徽医院", "type": "综合医院", "address": "萧城路与扶疏路交叉口南100米", "tel": "", "lng": 117.306618, "lat": 31.89989}, "geometry": {"type": "Point", "coordinates": [117.306618, 31.89989]}}, {"type": "Feature", "properties": {"name": "仁德医院", "type": "综合医院", "address": "明皇路与文忠路辅路交叉口西北60米", "tel": "0551-67880886", "lng": 117.358442, "lat": 31.881315}, "geometry": {"type": "Point", "coordinates": [117.358442, 31.881315]}}, {"type": "Feature", "properties": {"name": "顺和社区卫生服务站", "type": "综合医院", "address": "迎江寺路与方兴大道交叉口北120米", "tel": "", "lng": 117.143874, "lat": 31.768427}, "geometry": {"type": "Point", "coordinates": [117.143874, 31.768427]}}, {"type": "Feature", "properties": {"name": "合肥市第四人民医院", "type": "专科医院", "address": "黄山路316号", "tel": "0551-63616310;0551-63666903", "lng": 117.263342, "lat": 31.843824}, "geometry": {"type": "Point", "coordinates": [117.263342, 31.843824]}}, {"type": "Feature", "properties": {"name": "安徽省胸科医院", "type": "专科医院", "address": "绩溪路397号", "tel": "0551-63633507", "lng": 117.260949, "lat": 31.844251}, "geometry": {"type": "Point", "coordinates": [117.260949, 31.844251]}}, {"type": "Feature", "properties": {"name": "安徽省儿童医院本院", "type": "专科医院", "address": "芜湖路街道望江东路39号", "tel": "0551-62237114;0551-62237178;0551.62237174", "lng": 117.280216, "lat": 31.82701}, "geometry": {"type": "Point", "coordinates": [117.280216, 31.82701]}}, {"type": "Feature", "properties": {"name": "合肥民众医院", "type": "专科医院", "address": "环湖东路第47号(鑫达综合楼旁)", "tel": "0551-68112780", "lng": 117.214558, "lat": 31.861758}, "geometry": {"type": "Point", "coordinates": [117.214558, 31.861758]}}, {"type": "Feature", "properties": {"name": "安徽省眼科医院", "type": "专科医院", "address": "黄山路199号(宿松路交叉口)", "tel": "0551-63672548", "lng": 117.27386, "lat": 31.840706}, "geometry": {"type": "Point", "coordinates": [117.27386, 31.840706]}}, {"type": "Feature", "properties": {"name": "中国科学技术大学附属第一医院(西区)", "type": "专科医院", "address": "环湖东路107号", "tel": "0551-65327751;0551-65327766;0551-65327777", "lng": 117.211754, "lat": 31.870949}, "geometry": {"type": "Point", "coordinates": [117.211754, 31.870949]}}, {"type": "Feature", "properties": {"name": "合肥阳光消化病医院(包河院区)", "type": "专科医院", "address": "东流路34-1号", "tel": "18949890124", "lng": 117.286755, "lat": 31.814734}, "geometry": {"type": "Point", "coordinates": [117.286755, 31.814734]}}, {"type": "Feature", "properties": {"name": "合肥友好医院", "type": "专科医院", "address": "徽州大道693号", "tel": "15385885832", "lng": 117.285017, "lat": 31.836805}, "geometry": {"type": "Point", "coordinates": [117.285017, 31.836805]}}, {"type": "Feature", "properties": {"name": "安徽省妇女儿童医学中心", "type": "专科医院", "address": "益民街15号", "tel": "0551-69118122", "lng": 117.281171, "lat": 31.860075}, "geometry": {"type": "Point", "coordinates": [117.281171, 31.860075]}}, {"type": "Feature", "properties": {"name": "合肥天佑白癜风中医院", "type": "专科医院", "address": "香榭里花园西门北60米", "tel": "0551-65653120", "lng": 117.301232, "lat": 31.845037}, "geometry": {"type": "Point", "coordinates": [117.301232, 31.845037]}}, {"type": "Feature", "properties": {"name": "肥西县第二人民医院", "type": "专科医院", "address": "上派镇天海西路", "tel": "", "lng": 117.169991, "lat": 31.747599}, "geometry": {"type": "Point", "coordinates": [117.169991, 31.747599]}}, {"type": "Feature", "properties": {"name": "合肥中山医院", "type": "专科医院", "address": "三里街街道凤阳路8号1楼", "tel": "15656936591", "lng": 117.314407, "lat": 31.873593}, "geometry": {"type": "Point", "coordinates": [117.314407, 31.873593]}}, {"type": "Feature", "properties": {"name": "合肥康安中医医院", "type": "专科医院", "address": "濉溪东路6号", "tel": "0551-65896120", "lng": 117.302234, "lat": 31.880757}, "geometry": {"type": "Point", "coordinates": [117.302234, 31.880757]}}, {"type": "Feature", "properties": {"name": "庐江县鲍井社区卫生服务站", "type": "专科医院", "address": "庐城镇鲍井社区西门庐白路南段57号", "tel": "13865217560;13865222901", "lng": 117.29729, "lat": 31.251831}, "geometry": {"type": "Point", "coordinates": [117.29729, 31.251831]}}, {"type": "Feature", "properties": {"name": "笔架山街道社区卫生服务中心口腔中心", "type": "诊所", "address": "长河西路与聚云峰路西北角", "tel": "", "lng": 117.219356, "lat": 31.823706}, "geometry": {"type": "Point", "coordinates": [117.219356, 31.823706]}}, {"type": "Feature", "properties": {"name": "凯旋门医疗卫生服务站", "type": "诊所", "address": "潜山路华润凯旋门9栋商铺三楼", "tel": "", "lng": 117.232108, "lat": 31.80121}, "geometry": {"type": "Point", "coordinates": [117.232108, 31.80121]}}, {"type": "Feature", "properties": {"name": "蜀山区南七街道社区卫生服务中心庙岗路医疗卫生服务站", "type": "诊所", "address": "华邦·光明世家北1门旁", "tel": "", "lng": 117.226908, "lat": 31.829714}, "geometry": {"type": "Point", "coordinates": [117.226908, 31.829714]}}, {"type": "Feature", "properties": {"name": "合肥长淮中医医院-中医门诊·痛症·针灸推拿", "type": "诊所", "address": "金寨路与黄山路交叉口西南60米", "tel": "", "lng": 117.268278, "lat": 31.84138}, "geometry": {"type": "Point", "coordinates": [117.268278, 31.84138]}}, {"type": "Feature", "properties": {"name": "中航工业江航公司航鑫家苑卫生所", "type": "诊所", "address": "望江西路205号", "tel": "0551-65637225", "lng": 117.240048, "lat": 31.829573}, "geometry": {"type": "Point", "coordinates": [117.240048, 31.829573]}}, {"type": "Feature", "properties": {"name": "合肥白领安琪儿综合医院", "type": "诊所", "address": "濉溪路118号1幢", "tel": "18119672505", "lng": 117.282019, "lat": 31.879901}, "geometry": {"type": "Point", "coordinates": [117.282019, 31.879901]}}, {"type": "Feature", "properties": {"name": "合肥工业大学翡翠湖校区医院", "type": "诊所", "address": "芙蓉社区管理委员会翡翠路420号", "tel": "0551-63831030;0551-63831120", "lng": 117.204041, "lat": 31.773117}, "geometry": {"type": "Point", "coordinates": [117.204041, 31.773117]}}, {"type": "Feature", "properties": {"name": "合肥工业大学屯溪路校区校医院", "type": "诊所", "address": "合肥工业大学综合服务楼西门东140米", "tel": "0551-62901316", "lng": 117.298687, "lat": 31.843383}, "geometry": {"type": "Point", "coordinates": [117.298687, 31.843383]}}, {"type": "Feature", "properties": {"name": "望湖城社区卫生服务中心-预防接种门诊", "type": "诊所", "address": "望湖中路和望湖西路交叉口东南角", "tel": "0551-62283437", "lng": 117.296813, "lat": 31.806279}, "geometry": {"type": "Point", "coordinates": [117.296813, 31.806279]}}, {"type": "Feature", "properties": {"name": "丹霞社区卫生服务站", "type": "诊所", "address": "石门路小区西门东50米", "tel": "", "lng": 117.218194, "lat": 31.775507}, "geometry": {"type": "Point", "coordinates": [117.218194, 31.775507]}}, {"type": "Feature", "properties": {"name": "新年社区卫生服务站-狂犬病暴露处置门诊", "type": "诊所", "address": "经济技术开发区紫蓬路与清潭路交叉口西北角圣科置业大院内", "tel": "0551-63889120", "lng": 117.267097, "lat": 31.746539}, "geometry": {"type": "Point", "coordinates": [117.267097, 31.746539]}}, {"type": "Feature", "properties": {"name": "合经区临湖新年社区卫生服务站", "type": "诊所", "address": "紫蓬路与清潭路交口圣科置业院内", "tel": "0551-63889120", "lng": 117.26695, "lat": 31.74633}, "geometry": {"type": "Point", "coordinates": [117.26695, 31.74633]}}, {"type": "Feature", "properties": {"name": "合肥经济技术开发区柳芝秀卫生所", "type": "诊所", "address": "天门湖花园12栋106号", "tel": "13855123239", "lng": 117.23043, "lat": 31.743768}, "geometry": {"type": "Point", "coordinates": [117.23043, 31.743768]}}, {"type": "Feature", "properties": {"name": "山湖苑卫生站", "type": "诊所", "address": "甘泉新村西区南门旁", "tel": "", "lng": 117.170226, "lat": 31.857357}, "geometry": {"type": "Point", "coordinates": [117.170226, 31.857357]}}, {"type": "Feature", "properties": {"name": "建平实验小学南艳校区本部卫生室", "type": "诊所", "address": "海恒街与慈光路交叉口西北60米", "tel": "", "lng": 117.270875, "lat": 31.765525}, "geometry": {"type": "Point", "coordinates": [117.270875, 31.765525]}}, {"type": "Feature", "properties": {"name": "省工业设备安装公司卫生所", "type": "诊所", "address": "鱼水路与军民路交叉口西北160米", "tel": "", "lng": 117.287125, "lat": 31.837625}, "geometry": {"type": "Point", "coordinates": [117.287125, 31.837625]}}, {"type": "Feature", "properties": {"name": "卓然社区卫生站", "type": "诊所", "address": "悠然居东4门旁", "tel": "", "lng": 117.153394, "lat": 31.872799}, "geometry": {"type": "Point", "coordinates": [117.153394, 31.872799]}}, {"type": "Feature", "properties": {"name": "桃花卫生站", "type": "诊所", "address": "四里河街道北二环桃花社区大三景西区八栋", "tel": "13966790650", "lng": 117.258292, "lat": 31.901336}, "geometry": {"type": "Point", "coordinates": [117.258292, 31.901336]}}, {"type": "Feature", "properties": {"name": "丁家巷卫生厅", "type": "诊所", "address": "益民街与新华巷交叉口南60米", "tel": "", "lng": 117.281925, "lat": 31.860125}, "geometry": {"type": "Point", "coordinates": [117.281925, 31.860125]}}, {"type": "Feature", "properties": {"name": "合肥永康综合门诊", "type": "诊所", "address": "天山路与万泉河路交口东南角", "tel": "18949815683", "lng": 117.297389, "lat": 31.746773}, "geometry": {"type": "Point", "coordinates": [117.297389, 31.746773]}}, {"type": "Feature", "properties": {"name": "庐阳区三十岗乡三岗村卫生室", "type": "诊所", "address": "三十岗乡合三国城路198号庐阳区三十岗生态农业旅游区内(南侧)", "tel": "0551-65711469", "lng": 117.126064, "lat": 31.926308}, "geometry": {"type": "Point", "coordinates": [117.126064, 31.926308]}}, {"type": "Feature", "properties": {"name": "紫蓬镇卫生院泗洲卫生室", "type": "诊所", "address": "凌云路东100米", "tel": "13053088038", "lng": 117.113722, "lat": 31.779618}, "geometry": {"type": "Point", "coordinates": [117.113722, 31.779618]}}, {"type": "Feature", "properties": {"name": "庐阳区大杨镇十张村卫生室", "type": "诊所", "address": "庐阳区大杨镇十张村村委会一楼1", "tel": "13866792215", "lng": 117.205908, "lat": 31.926981}, "geometry": {"type": "Point", "coordinates": [117.205908, 31.926981]}}, {"type": "Feature", "properties": {"name": "淝河镇卫乡村卫生站", "type": "诊所", "address": "李城路与巢湖南路交叉口南40米", "tel": "", "lng": 117.342911, "lat": 31.828351}, "geometry": {"type": "Point", "coordinates": [117.342911, 31.828351]}}, {"type": "Feature", "properties": {"name": "菱店诊所", "type": "诊所", "address": "太和路西20米(菱湖公园地铁站B口步行390米)", "tel": "0551-65186028", "lng": 117.276366, "lat": 31.913378}, "geometry": {"type": "Point", "coordinates": [117.276366, 31.913378]}}, {"type": "Feature", "properties": {"name": "淝河镇黄镇村卫生站", "type": "诊所", "address": "长春街附近", "tel": "13856029283", "lng": 117.360258, "lat": 31.798912}, "geometry": {"type": "Point", "coordinates": [117.360258, 31.798912]}}, {"type": "Feature", "properties": {"name": "肥西县上派镇古埂社区卫生服务站", "type": "诊所", "address": "上派镇三河路烟草巷", "tel": "0551-68854208", "lng": 117.166701, "lat": 31.709471}, "geometry": {"type": "Point", "coordinates": [117.166701, 31.709471]}}, {"type": "Feature", "properties": {"name": "合肥瑶海漕冲卫生室", "type": "诊所", "address": "长江东路279号附近", "tel": "0551-64315120", "lng": 117.355732, "lat": 31.865896}, "geometry": {"type": "Point", "coordinates": [117.355732, 31.865896]}}, {"type": "Feature", "properties": {"name": "庐阳区三十岗乡东瞿村卫生室", "type": "诊所", "address": "东翟村卫生室东门旁", "tel": "", "lng": 117.140962, "lat": 31.92345}, "geometry": {"type": "Point", "coordinates": [117.140962, 31.92345]}}, {"type": "Feature", "properties": {"name": "方桥村卫生室", "type": "诊所", "address": "瑶海区工业园瑶海工业园区瑶海家园39", "tel": "", "lng": 117.339418, "lat": 31.894221}, "geometry": {"type": "Point", "coordinates": [117.339418, 31.894221]}}, {"type": "Feature", "properties": {"name": "新站站北社区新店村卫生所", "type": "诊所", "address": "三十头镇怀远路百润发购物广场南", "tel": "", "lng": 117.32677, "lat": 31.945066}, "geometry": {"type": "Point", "coordinates": [117.32677, 31.945066]}}, {"type": "Feature", "properties": {"name": "合肥瑶海罗岗第四卫生室", "type": "诊所", "address": "龙岗开发区瑞泰城市家园商住楼2幢119号", "tel": "13515656448", "lng": 117.369354, "lat": 31.871153}, "geometry": {"type": "Point", "coordinates": [117.369354, 31.871153]}}, {"type": "Feature", "properties": {"name": "紫蓬镇卫生院栗树卫生室", "type": "诊所", "address": "华二路3号", "tel": "18955125479", "lng": 117.098018, "lat": 31.763968}, "geometry": {"type": "Point", "coordinates": [117.098018, 31.763968]}}, {"type": "Feature", "properties": {"name": "长丰县岗集镇龙岗村卫生室", "type": "诊所", "address": "岗集镇", "tel": "0551-66773719", "lng": 117.236534, "lat": 31.957291}, "geometry": {"type": "Point", "coordinates": [117.236534, 31.957291]}}, {"type": "Feature", "properties": {"name": "合肥瑶海龙岗史城第二卫生室", "type": "诊所", "address": "包公大道与经二路交叉口东150米金水湾花园二期B-1幢商102/103", "tel": "13955159489", "lng": 117.350417, "lat": 31.884468}, "geometry": {"type": "Point", "coordinates": [117.350417, 31.884468]}}, {"type": "Feature", "properties": {"name": "瑶海区龙岗罗岗卫生室(临泉东路)", "type": "诊所", "address": "罗岗路与临泉东路辅路交叉口西300米", "tel": "13855129812", "lng": 117.373424, "lat": 31.875809}, "geometry": {"type": "Point", "coordinates": [117.373424, 31.875809]}}, {"type": "Feature", "properties": {"name": "汲桥卫生站", "type": "诊所", "address": "北二环路与淮北路交叉口南160米", "tel": "", "lng": 117.261225, "lat": 31.897775}, "geometry": {"type": "Point", "coordinates": [117.261225, 31.897775]}}, {"type": "Feature", "properties": {"name": "王岗第一卫生室", "type": "诊所", "address": "戚继光路与临泉东路交叉口南260米", "tel": "13805608926", "lng": 117.383775, "lat": 31.872851}, "geometry": {"type": "Point", "coordinates": [117.383775, 31.872851]}}, {"type": "Feature", "properties": {"name": "新城卫生站", "type": "诊所", "address": "天龙路138号", "tel": "", "lng": 117.128761, "lat": 31.854149}, "geometry": {"type": "Point", "coordinates": [117.128761, 31.854149]}}, {"type": "Feature", "properties": {"name": "望城店卫生站", "type": "诊所", "address": "绿都新村小区南门旁", "tel": "", "lng": 117.2864, "lat": 31.895574}, "geometry": {"type": "Point", "coordinates": [117.2864, 31.895574]}}, {"type": "Feature", "properties": {"name": "罗岗第二卫生室(临泉东路店)", "type": "诊所", "address": "临泉东路与龙岗路交口向东100米丽水天锦苑小区B栋", "tel": "13855129812", "lng": 117.37771, "lat": 31.875942}, "geometry": {"type": "Point", "coordinates": [117.37771, 31.875942]}}, {"type": "Feature", "properties": {"name": "三十头村卫生室", "type": "诊所", "address": "梅冲湖路与怀远路交口向北100米", "tel": "0551-66335514", "lng": 117.33358, "lat": 31.988517}, "geometry": {"type": "Point", "coordinates": [117.33358, 31.988517]}}, {"type": "Feature", "properties": {"name": "陈明升马岗卫生室", "type": "诊所", "address": "静安新城北大门对面", "tel": "13085512996;13635692046", "lng": 117.371322, "lat": 31.864059}, "geometry": {"type": "Point", "coordinates": [117.371322, 31.864059]}}, {"type": "Feature", "properties": {"name": "合肥瑶海龙岗新站卫生室", "type": "诊所", "address": "金光苑小区东南门旁", "tel": "", "lng": 117.361443, "lat": 31.869921}, "geometry": {"type": "Point", "coordinates": [117.361443, 31.869921]}}, {"type": "Feature", "properties": {"name": "潘红霞马岗卫生室", "type": "诊所", "address": "襄河路与马岗大道交叉口东北50米", "tel": "13695695940", "lng": 117.375352, "lat": 31.864034}, "geometry": {"type": "Point", "coordinates": [117.375352, 31.864034]}}, {"type": "Feature", "properties": {"name": "合肥济仁中医医院", "type": "诊所", "address": "合肥蒙城北路北城世纪城A1区和徽苑S8幢商", "tel": "15855100684", "lng": 117.24131, "lat": 32.014459}, "geometry": {"type": "Point", "coordinates": [117.24131, 32.014459]}}, {"type": "Feature", "properties": {"name": "长丰县岗集镇新庄村卫生室", "type": "诊所", "address": "024乡道西200米新庄社区居委会附近", "tel": "", "lng": 117.21561, "lat": 31.980516}, "geometry": {"type": "Point", "coordinates": [117.21561, 31.980516]}}, {"type": "Feature", "properties": {"name": "肥东县店埠镇光大社区卫生室", "type": "诊所", "address": "安乐路光大新村105-108门面", "tel": "0551-67713901;13637077700;13855189506", "lng": 117.452473, "lat": 31.890349}, "geometry": {"type": "Point", "coordinates": [117.452473, 31.890349]}}, {"type": "Feature", "properties": {"name": "撮镇镇建华社区卫生室", "type": "诊所", "address": "建华新村南区北2门东北50米", "tel": "", "lng": 117.384922, "lat": 31.822501}, "geometry": {"type": "Point", "coordinates": [117.384922, 31.822501]}}, {"type": "Feature", "properties": {"name": "新站综合开发试验区张店村卫生室", "type": "诊所", "address": "合肥市新站区磨店乡光明之家10栋104", "tel": "15056000962", "lng": 117.383173, "lat": 31.936969}, "geometry": {"type": "Point", "coordinates": [117.383173, 31.936969]}}, {"type": "Feature", "properties": {"name": "金湖花园社区卫生服务站", "type": "诊所", "address": "安居路与瑞风路交叉口东北100米", "tel": "", "lng": 117.194876, "lat": 31.957902}, "geometry": {"type": "Point", "coordinates": [117.194876, 31.957902]}}, {"type": "Feature", "properties": {"name": "罗岗第三卫生室", "type": "诊所", "address": "龙岗路西明皇路北保利海上明悦C2-106", "tel": "", "lng": 117.369908, "lat": 31.882161}, "geometry": {"type": "Point", "coordinates": [117.369908, 31.882161]}}, {"type": "Feature", "properties": {"name": "东站卫生室", "type": "诊所", "address": "岱河路599号", "tel": "", "lng": 117.375625, "lat": 31.903438}, "geometry": {"type": "Point", "coordinates": [117.375625, 31.903438]}}, {"type": "Feature", "properties": {"name": "撮镇镇新安社区卫生室", "type": "诊所", "address": "燎原大道新安小区", "tel": "0551-67317115", "lng": 117.434074, "lat": 31.821983}, "geometry": {"type": "Point", "coordinates": [117.434074, 31.821983]}}, {"type": "Feature", "properties": {"name": "撮镇唐安社区卫生室", "type": "诊所", "address": "唐安路4号", "tel": "", "lng": 117.399971, "lat": 31.830057}, "geometry": {"type": "Point", "coordinates": [117.399971, 31.830057]}}, {"type": "Feature", "properties": {"name": "撮镇镇大费社区卫生室", "type": "诊所", "address": "大费公祖房南门旁", "tel": "", "lng": 117.406697, "lat": 31.850779}, "geometry": {"type": "Point", "coordinates": [117.406697, 31.850779]}}, {"type": "Feature", "properties": {"name": "小庙镇中心卫生院卫星卫生室", "type": "诊所", "address": "小庙镇建设路236号", "tel": "", "lng": 117.017237, "lat": 31.846597}, "geometry": {"type": "Point", "coordinates": [117.017237, 31.846597]}}, {"type": "Feature", "properties": {"name": "安冲村卫生室", "type": "诊所", "address": "瑞风路与安居路交叉口东北80米", "tel": "", "lng": 117.194802, "lat": 31.957889}, "geometry": {"type": "Point", "coordinates": [117.194802, 31.957889]}}, {"type": "Feature", "properties": {"name": "牛寨村卫生室", "type": "诊所", "address": "瑞风路与安居路交叉口东北80米", "tel": "", "lng": 117.194803, "lat": 31.957889}, "geometry": {"type": "Point", "coordinates": [117.194803, 31.957889]}}, {"type": "Feature", "properties": {"name": "大店卫生室", "type": "诊所", "address": "圣地雅阁18号106号", "tel": "", "lng": 117.389936, "lat": 31.87385}, "geometry": {"type": "Point", "coordinates": [117.389936, 31.87385]}}, {"type": "Feature", "properties": {"name": "新站高新技术产业开发区八联卫生室", "type": "诊所", "address": "圣联梦溪小镇西1门南80米", "tel": "15155136896", "lng": 117.390597, "lat": 31.922335}, "geometry": {"type": "Point", "coordinates": [117.390597, 31.922335]}}, {"type": "Feature", "properties": {"name": "瑶海区龙岗王岗卫生室(华凌锦苑东)", "type": "诊所", "address": "龙岗经济开发区华凌锦苑", "tel": "", "lng": 117.390266, "lat": 31.878677}, "geometry": {"type": "Point", "coordinates": [117.390266, 31.878677]}}, {"type": "Feature", "properties": {"name": "三十埠卫生室", "type": "诊所", "address": "模具大道安徽兽药产业园", "tel": "", "lng": 117.1741, "lat": 31.971227}, "geometry": {"type": "Point", "coordinates": [117.1741, 31.971227]}}, {"type": "Feature", "properties": {"name": "泗州新村卫生室", "type": "诊所", "address": "繁华大道辅路与小龙山路交叉口东北100米", "tel": "", "lng": 117.110975, "lat": 31.779125}, "geometry": {"type": "Point", "coordinates": [117.110975, 31.779125]}}, {"type": "Feature", "properties": {"name": "店埠镇双桥社区卫生室", "type": "诊所", "address": "酿泉路与山水路交汇处", "tel": "0551-67757828;13399512781", "lng": 117.501322, "lat": 31.860226}, "geometry": {"type": "Point", "coordinates": [117.501322, 31.860226]}}, {"type": "Feature", "properties": {"name": "高刘镇中心卫生院街道卫生室", "type": "诊所", "address": "万家桥路与高洪街交叉口西北100米", "tel": "", "lng": 116.932934, "lat": 31.934809}, "geometry": {"type": "Point", "coordinates": [116.932934, 31.934809]}}, {"type": "Feature", "properties": {"name": "肥西县中医院紫蓬分院农兴卫生室", "type": "诊所", "address": "紫蓬镇人民政府东侧120米", "tel": "", "lng": 117.032797, "lat": 31.754949}, "geometry": {"type": "Point", "coordinates": [117.032797, 31.754949]}}, {"type": "Feature", "properties": {"name": "撮镇镇华光村卫生室", "type": "诊所", "address": "撮镇镇华光村树堂小学附近", "tel": "", "lng": 117.436471, "lat": 31.806169}, "geometry": {"type": "Point", "coordinates": [117.436471, 31.806169]}}, {"type": "Feature", "properties": {"name": "墩塘社区卫生院", "type": "诊所", "address": "晨光花园北区南1门东170米", "tel": "", "lng": 117.428712, "lat": 31.88705}, "geometry": {"type": "Point", "coordinates": [117.428712, 31.88705]}}, {"type": "Feature", "properties": {"name": "烟墩新街卫生站", "type": "诊所", "address": "新街小学西南侧120米", "tel": "", "lng": 117.27567, "lat": 31.672519}, "geometry": {"type": "Point", "coordinates": [117.27567, 31.672519]}}, {"type": "Feature", "properties": {"name": "蜀山区小庙镇大柏卫生室", "type": "诊所", "address": "小庙镇大柏街道", "tel": "", "lng": 116.948893, "lat": 31.826695}, "geometry": {"type": "Point", "coordinates": [116.948893, 31.826695]}}, {"type": "Feature", "properties": {"name": "雷麻卫生站", "type": "诊所", "address": "合肥高新区小庙托管区雷麻社区退役军人服务站西侧170米", "tel": "", "lng": 117.005683, "lat": 31.789447}, "geometry": {"type": "Point", "coordinates": [117.005683, 31.789447]}}, {"type": "Feature", "properties": {"name": "严店乡卫生院苏小卫生室", "type": "诊所", "address": "严店乡苏小村", "tel": "", "lng": 117.22466, "lat": 31.592731}, "geometry": {"type": "Point", "coordinates": [117.22466, 31.592731]}}, {"type": "Feature", "properties": {"name": "店埠镇城南社区卫生室", "type": "诊所", "address": "吾悦华府B区南1门东60米", "tel": "", "lng": 117.458147, "lat": 31.869971}, "geometry": {"type": "Point", "coordinates": [117.458147, 31.869971]}}, {"type": "Feature", "properties": {"name": "岳大郢卫生所", "type": "诊所", "address": "城东湖路与济淮路交叉口北160米", "tel": "", "lng": 117.114575, "lat": 31.779275}, "geometry": {"type": "Point", "coordinates": [117.114575, 31.779275]}}, {"type": "Feature", "properties": {"name": "枞阳路卫生站", "type": "诊所", "address": "团结路与枞阳路交叉口东160米", "tel": "", "lng": 117.348125, "lat": 31.847125}, "geometry": {"type": "Point", "coordinates": [117.348125, 31.847125]}}, {"type": "Feature", "properties": {"name": "彭圩卫生室", "type": "诊所", "address": "文珍超市东北侧130米", "tel": "", "lng": 117.159737, "lat": 31.663116}, "geometry": {"type": "Point", "coordinates": [117.159737, 31.663116]}}, {"type": "Feature", "properties": {"name": "瑶海红光钢北卫生站", "type": "诊所", "address": "乐水路与采石路交叉口东120米", "tel": "", "lng": 117.347878, "lat": 31.857498}, "geometry": {"type": "Point", "coordinates": [117.347878, 31.857498]}}, {"type": "Feature", "properties": {"name": "安徽职业技术大学卫生所", "type": "诊所", "address": "炎培路与创业大道交叉口东120米", "tel": "", "lng": 117.378608, "lat": 31.931041}, "geometry": {"type": "Point", "coordinates": [117.378608, 31.931041]}}, {"type": "Feature", "properties": {"name": "合肥市长丰县双凤开发区万里社区卫生服务站", "type": "诊所", "address": "双凤开发区万里社区", "tel": "", "lng": 117.268471, "lat": 31.990458}, "geometry": {"type": "Point", "coordinates": [117.268471, 31.990458]}}, {"type": "Feature", "properties": {"name": "肥西县上派镇中心卫生院爱和社区卫生室", "type": "诊所", "address": "瑜城路与珍珠路交叉口东南180米", "tel": "", "lng": 117.153475, "lat": 31.720775}, "geometry": {"type": "Point", "coordinates": [117.153475, 31.720775]}}, {"type": "Feature", "properties": {"name": "中心卫生院谢塘卫生室", "type": "诊所", "address": "068乡道与杭埠河大道交叉口西200米", "tel": "", "lng": 117.104856, "lat": 31.730382}, "geometry": {"type": "Point", "coordinates": [117.104856, 31.730382]}}, {"type": "Feature", "properties": {"name": "张店村卫生室三", "type": "诊所", "address": "大众路1819号磨店家园同德苑19栋101室", "tel": "13865915149", "lng": 117.401507, "lat": 31.932493}, "geometry": {"type": "Point", "coordinates": [117.401507, 31.932493]}}, {"type": "Feature", "properties": {"name": "瓦岗村卫生室", "type": "诊所", "address": "三十头社区魏武路与合白路交口向北三百米", "tel": "", "lng": 117.329554, "lat": 31.981695}, "geometry": {"type": "Point", "coordinates": [117.329554, 31.981695]}}, {"type": "Feature", "properties": {"name": "李湾村卫生室", "type": "诊所", "address": "怀远路恒丰旅馆(三十头镇卫生院东北)", "tel": "15357927585;15955111568", "lng": 117.334855, "lat": 31.990372}, "geometry": {"type": "Point", "coordinates": [117.334855, 31.990372]}}, {"type": "Feature", "properties": {"name": "尚店卫生站", "type": "诊所", "address": "天水路与太和路交叉口东320米", "tel": "", "lng": 117.27068, "lat": 31.934542}, "geometry": {"type": "Point", "coordinates": [117.27068, 31.934542]}}, {"type": "Feature", "properties": {"name": "三十头镇三房岗村卫生室", "type": "诊所", "address": "五十头村居委会大院内", "tel": "13965144969", "lng": 117.367835, "lat": 32.035586}, "geometry": {"type": "Point", "coordinates": [117.367835, 32.035586]}}, {"type": "Feature", "properties": {"name": "肥东县店埠镇镇北社区卫生室", "type": "诊所", "address": "浮槎山路与才华路交叉口东北120米", "tel": "15395173161", "lng": 117.476906, "lat": 31.894242}, "geometry": {"type": "Point", "coordinates": [117.476906, 31.894242]}}, {"type": "Feature", "properties": {"name": "新城社区卫生室", "type": "诊所", "address": "沙河路与桥头集路交叉口西南260米", "tel": "15375248662", "lng": 117.453109, "lat": 31.867909}, "geometry": {"type": "Point", "coordinates": [117.453109, 31.867909]}}, {"type": "Feature", "properties": {"name": "长丰县岗集镇斗镇村卫生室", "type": "诊所", "address": "206国道西侧", "tel": "0551-66737796;18956071081", "lng": 117.091223, "lat": 32.049978}, "geometry": {"type": "Point", "coordinates": [117.091223, 32.049978]}}, {"type": "Feature", "properties": {"name": "肥东县牌坊回族满族乡兴一村卫生室", "type": "诊所", "address": "牌殷路022县道", "tel": "15156071287", "lng": 117.481475, "lat": 31.967175}, "geometry": {"type": "Point", "coordinates": [117.481475, 31.967175]}}, {"type": "Feature", "properties": {"name": "富郢村卫生室", "type": "诊所", "address": "当代未来城东门南120米", "tel": "", "lng": 117.374249, "lat": 31.942706}, "geometry": {"type": "Point", "coordinates": [117.374249, 31.942706]}}, {"type": "Feature", "properties": {"name": "光明村卫生室", "type": "诊所", "address": "光明路与龙子湖路交叉口北80米", "tel": "", "lng": 117.382301, "lat": 31.935817}, "geometry": {"type": "Point", "coordinates": [117.382301, 31.935817]}}, {"type": "Feature", "properties": {"name": "肥东县店埠镇唐杨社区卫生室", "type": "诊所", "address": "北苑路北苑小学对面", "tel": "0551-67717881;15255110007", "lng": 117.469513, "lat": 31.894281}, "geometry": {"type": "Point", "coordinates": [117.469513, 31.894281]}}, {"type": "Feature", "properties": {"name": "吴山镇高岗村卫生室", "type": "诊所", "address": "053县道东北侧", "tel": "18955136539", "lng": 117.05166, "lat": 32.083677}, "geometry": {"type": "Point", "coordinates": [117.05166, 32.083677]}}, {"type": "Feature", "properties": {"name": "赵桥卫生室", "type": "诊所", "address": "肥西县人民医院丰乐分院赵桥村卫生室东侧", "tel": "18955145178", "lng": 117.058003, "lat": 31.577799}, "geometry": {"type": "Point", "coordinates": [117.058003, 31.577799]}}, {"type": "Feature", "properties": {"name": "燎原社区卫生室", "type": "诊所", "address": "新安江路新城家园", "tel": "", "lng": 117.451137, "lat": 31.866366}, "geometry": {"type": "Point", "coordinates": [117.451137, 31.866366]}}, {"type": "Feature", "properties": {"name": "长丰县岗集镇四十埠村卫生所", "type": "诊所", "address": "072乡道东北侧", "tel": "", "lng": 117.145734, "lat": 32.01306}, "geometry": {"type": "Point", "coordinates": [117.145734, 32.01306]}}, {"type": "Feature", "properties": {"name": "北分路卫生室", "type": "诊所", "address": "北分路村退役军人服务站东北侧110米", "tel": "", "lng": 116.9911, "lat": 31.879551}, "geometry": {"type": "Point", "coordinates": [116.9911, 31.879551]}}, {"type": "Feature", "properties": {"name": "丰乐镇中心卫生院方桥卫生室", "type": "诊所", "address": "047县道", "tel": "0551-68727120;13355608366", "lng": 117.142393, "lat": 31.595199}, "geometry": {"type": "Point", "coordinates": [117.142393, 31.595199]}}, {"type": "Feature", "properties": {"name": "双墩镇花园社区卫生服务站", "type": "诊所", "address": "康乐路与兴盛路交叉口西120米", "tel": "", "lng": 117.249225, "lat": 32.015125}, "geometry": {"type": "Point", "coordinates": [117.249225, 32.015125]}}, {"type": "Feature", "properties": {"name": "店埠镇镇南社区卫生室", "type": "诊所", "address": "店埠镇军民巷4号", "tel": "", "lng": 117.472063, "lat": 31.883564}, "geometry": {"type": "Point", "coordinates": [117.472063, 31.883564]}}, {"type": "Feature", "properties": {"name": "东站卫生所", "type": "诊所", "address": "天水路与桃山路交叉口西南80米", "tel": "", "lng": 117.364524, "lat": 31.894181}, "geometry": {"type": "Point", "coordinates": [117.364524, 31.894181]}}, {"type": "Feature", "properties": {"name": "肥东县元疃镇路集社区卫生室", "type": "诊所", "address": "元疃镇路集社区街西组", "tel": "13035062512", "lng": 117.393325, "lat": 32.124386}, "geometry": {"type": "Point", "coordinates": [117.393325, 32.124386]}}, {"type": "Feature", "properties": {"name": "撮镇镇撮西社区卫生室", "type": "诊所", "address": "南大街与火车站街交叉口西北120米", "tel": "", "lng": 117.466609, "lat": 31.825038}, "geometry": {"type": "Point", "coordinates": [117.466609, 31.825038]}}, {"type": "Feature", "properties": {"name": "元疃镇三合社区卫生室", "type": "诊所", "address": "S92合肥支线与S92合肥支线入口交叉口北320米", "tel": "", "lng": 117.383628, "lat": 32.064487}, "geometry": {"type": "Point", "coordinates": [117.383628, 32.064487]}}, {"type": "Feature", "properties": {"name": "肥东县第三人民医院青春社区卫生服务站", "type": "诊所", "address": "梁园路与人民路交叉口南40米", "tel": "", "lng": 117.470869, "lat": 31.886493}, "geometry": {"type": "Point", "coordinates": [117.470869, 31.886493]}}, {"type": "Feature", "properties": {"name": "古河社区卫生室", "type": "诊所", "address": "御云府北门旁", "tel": "", "lng": 117.448385, "lat": 31.889573}, "geometry": {"type": "Point", "coordinates": [117.448385, 31.889573]}}, {"type": "Feature", "properties": {"name": "肥东县店埠镇花园社区卫生室", "type": "诊所", "address": "桥头集路辅路与龙泉路交叉口东南80米", "tel": "", "lng": 117.453103, "lat": 31.87812}, "geometry": {"type": "Point", "coordinates": [117.453103, 31.87812]}}, {"type": "Feature", "properties": {"name": "店埠镇半店村卫生室", "type": "诊所", "address": "半店社区党群服务中心北侧", "tel": "0551-67661077", "lng": 117.532578, "lat": 31.855608}, "geometry": {"type": "Point", "coordinates": [117.532578, 31.855608]}}, {"type": "Feature", "properties": {"name": "定光社区卫生室", "type": "诊所", "address": "团结路与龙泉路辅路交叉口北380米", "tel": "", "lng": 117.488111, "lat": 31.878431}, "geometry": {"type": "Point", "coordinates": [117.488111, 31.878431]}}, {"type": "Feature", "properties": {"name": "肥东县撮镇镇振兴村卫生室", "type": "诊所", "address": "裕溪路与振兴路交叉口西北60米", "tel": "", "lng": 117.488563, "lat": 31.804582}, "geometry": {"type": "Point", "coordinates": [117.488563, 31.804582]}}, {"type": "Feature", "properties": {"name": "肥东店埠镇排头卫生室", "type": "诊所", "address": "龙泉路38路(排头地铁站C口旁)", "tel": "", "lng": 117.480175, "lat": 31.871275}, "geometry": {"type": "Point", "coordinates": [117.480175, 31.871275]}}, {"type": "Feature", "properties": {"name": "长丰县吴山镇桥冲村卫生室", "type": "诊所", "address": "018县道西南30米", "tel": "", "lng": 117.067654, "lat": 32.04463}, "geometry": {"type": "Point", "coordinates": [117.067654, 32.04463]}}, {"type": "Feature", "properties": {"name": "南苑村卫生室", "type": "诊所", "address": "060乡道与019县道交叉口南380米", "tel": "", "lng": 117.201389, "lat": 32.041938}, "geometry": {"type": "Point", "coordinates": [117.201389, 32.041938]}}, {"type": "Feature", "properties": {"name": "长丰县双墩镇大官塘村卫生室", "type": "诊所", "address": "060乡道", "tel": "", "lng": 117.17692, "lat": 32.041403}, "geometry": {"type": "Point", "coordinates": [117.17692, 32.041403]}}, {"type": "Feature", "properties": {"name": "瑶海社区喻岗卫生室", "type": "诊所", "address": "文忠路与泗水路交叉口东260米", "tel": "", "lng": 117.369143, "lat": 31.905946}, "geometry": {"type": "Point", "coordinates": [117.369143, 31.905946]}}, {"type": "Feature", "properties": {"name": "众兴乡范岗村卫生室", "type": "诊所", "address": "范岗村委会西南侧", "tel": "", "lng": 117.418223, "lat": 32.017283}, "geometry": {"type": "Point", "coordinates": [117.418223, 32.017283]}}, {"type": "Feature", "properties": {"name": "同大镇南闸村卫生室", "type": "诊所", "address": "004乡道", "tel": "", "lng": 117.376892, "lat": 31.504832}, "geometry": {"type": "Point", "coordinates": [117.376892, 31.504832]}}, {"type": "Feature", "properties": {"name": "长丰县双墩镇吴店村卫生室", "type": "诊所", "address": "吴店村", "tel": "", "lng": 117.294907, "lat": 32.086565}, "geometry": {"type": "Point", "coordinates": [117.294907, 32.086565]}}, {"type": "Feature", "properties": {"name": "许井社区卫生室", "type": "诊所", "address": "许井社区村委会南侧", "tel": "", "lng": 117.461767, "lat": 32.001224}, "geometry": {"type": "Point", "coordinates": [117.461767, 32.001224]}}, {"type": "Feature", "properties": {"name": "店埠镇合浦村卫生室", "type": "诊所", "address": "312国道与067乡道交叉口东南420米", "tel": "13083061999", "lng": 117.550869, "lat": 31.848238}, "geometry": {"type": "Point", "coordinates": [117.550869, 31.848238]}}, {"type": "Feature", "properties": {"name": "肥东县白龙镇同心村卫生室", "type": "诊所", "address": "同心社区北侧130米", "tel": "", "lng": 117.429556, "lat": 32.08229}, "geometry": {"type": "Point", "coordinates": [117.429556, 32.08229]}}, {"type": "Feature", "properties": {"name": "众兴乡谢岗村卫生室", "type": "诊所", "address": "众三路北50米", "tel": "", "lng": 117.400628, "lat": 32.004642}, "geometry": {"type": "Point", "coordinates": [117.400628, 32.004642]}}, {"type": "Feature", "properties": {"name": "罗店社区卫生室", "type": "诊所", "address": "店忠路", "tel": "", "lng": 117.467699, "lat": 31.710472}, "geometry": {"type": "Point", "coordinates": [117.467699, 31.710472]}}, {"type": "Feature", "properties": {"name": "花灯卫生室", "type": "诊所", "address": "大众路与花灯路交叉口西60米", "tel": "", "lng": 117.411764, "lat": 31.991257}, "geometry": {"type": "Point", "coordinates": [117.411764, 31.991257]}}, {"type": "Feature", "properties": {"name": "陶楼乡高塘卫生室", "type": "诊所", "address": "314县道与019县道交叉口东北320米", "tel": "", "lng": 117.179133, "lat": 32.08372}, "geometry": {"type": "Point", "coordinates": [117.179133, 32.08372]}}, {"type": "Feature", "properties": {"name": "长丰县杨庙镇马郢社区卫生室", "type": "诊所", "address": "乡约花园酒店东南侧200米", "tel": "13966723646", "lng": 117.08711, "lat": 32.165374}, "geometry": {"type": "Point", "coordinates": [117.08711, 32.165374]}}, {"type": "Feature", "properties": {"name": "长丰县下塘镇明华村卫生室", "type": "诊所", "address": "323省道与蒙城北路交叉口东500米", "tel": "", "lng": 117.201884, "lat": 32.189429}, "geometry": {"type": "Point", "coordinates": [117.201884, 32.189429]}}, {"type": "Feature", "properties": {"name": "肥西县高店镇长镇卫生室", "type": "诊所", "address": "高店镇长镇回族社区居民委员会", "tel": "", "lng": 116.893386, "lat": 31.850404}, "geometry": {"type": "Point", "coordinates": [116.893386, 31.850404]}}, {"type": "Feature", "properties": {"name": "新仓卫生院路桥卫生室", "type": "诊所", "address": "丰乐镇唐村", "tel": "", "lng": 117.069625, "lat": 31.571159}, "geometry": {"type": "Point", "coordinates": [117.069625, 31.571159]}}, {"type": "Feature", "properties": {"name": "肥东县桥头集镇梅山社区卫生室", "type": "诊所", "address": "社区中路东50米", "tel": "", "lng": 117.547175, "lat": 31.805475}, "geometry": {"type": "Point", "coordinates": [117.547175, 31.805475]}}, {"type": "Feature", "properties": {"name": "花岗镇中心卫生院沿河卫生室", "type": "诊所", "address": "花岗镇红堰村村民委员会西南侧60米", "tel": "", "lng": 116.977955, "lat": 31.6768}, "geometry": {"type": "Point", "coordinates": [116.977955, 31.6768]}}, {"type": "Feature", "properties": {"name": "长丰县双墩镇罗北村卫生室", "type": "诊所", "address": "合水路西100米罗北社区居委会附近", "tel": "", "lng": 117.238979, "lat": 32.13872}, "geometry": {"type": "Point", "coordinates": [117.238979, 32.13872]}}, {"type": "Feature", "properties": {"name": "童大井卫生室", "type": "诊所", "address": "童大井村安置点旁", "tel": "", "lng": 116.874575, "lat": 31.797675}, "geometry": {"type": "Point", "coordinates": [116.874575, 31.797675]}}, {"type": "Feature", "properties": {"name": "高塘社区卫生室", "type": "诊所", "address": "草庙学区舒圩小学", "tel": "", "lng": 117.471647, "lat": 32.007743}, "geometry": {"type": "Point", "coordinates": [117.471647, 32.007743]}}, {"type": "Feature", "properties": {"name": "新河村卫生室", "type": "诊所", "address": "232省道", "tel": "13023092528;13865220986", "lng": 117.330475, "lat": 31.526025}, "geometry": {"type": "Point", "coordinates": [117.330475, 31.526025]}}, {"type": "Feature", "properties": {"name": "牌坊乡新丰村卫生室", "type": "诊所", "address": "新丰社区党群服务中心西北侧", "tel": "18955106681;18956076995", "lng": 117.480315, "lat": 32.044071}, "geometry": {"type": "Point", "coordinates": [117.480315, 32.044071]}}, {"type": "Feature", "properties": {"name": "五十埠卫生室", "type": "诊所", "address": "206国道辅路与昌岭路交叉口南180米", "tel": "", "lng": 117.093467, "lat": 32.067495}, "geometry": {"type": "Point", "coordinates": [117.093467, 32.067495]}}, {"type": "Feature", "properties": {"name": "江岗卫生室", "type": "诊所", "address": "长高路东50米", "tel": "", "lng": 116.899172, "lat": 31.933109}, "geometry": {"type": "Point", "coordinates": [116.899172, 31.933109]}}, {"type": "Feature", "properties": {"name": "花岗镇中心卫生院粉坊卫生室", "type": "诊所", "address": "花岗镇", "tel": "", "lng": 117.066032, "lat": 31.601113}, "geometry": {"type": "Point", "coordinates": [117.066032, 31.601113]}}, {"type": "Feature", "properties": {"name": "长丰县陶楼镇大桥社区卫生室", "type": "诊所", "address": "陶楼镇大桥社区退役军人服务管理站东南侧", "tel": "", "lng": 117.138433, "lat": 32.109507}, "geometry": {"type": "Point", "coordinates": [117.138433, 32.109507]}}, {"type": "Feature", "properties": {"name": "高刘卫生院红塘卫生室", "type": "诊所", "address": "高刘街道090乡道附近", "tel": "", "lng": 116.949755, "lat": 32.004089}, "geometry": {"type": "Point", "coordinates": [116.949755, 32.004089]}}, {"type": "Feature", "properties": {"name": "同大镇马河村卫生室", "type": "诊所", "address": "马河村村委会南侧90米", "tel": "", "lng": 117.315586, "lat": 31.484419}, "geometry": {"type": "Point", "coordinates": [117.315586, 31.484419]}}, {"type": "Feature", "properties": {"name": "齐咀村卫生室", "type": "诊所", "address": "089县道", "tel": "18956568381", "lng": 117.424372, "lat": 31.514656}, "geometry": {"type": "Point", "coordinates": [117.424372, 31.514656]}}, {"type": "Feature", "properties": {"name": "虹光社区卫生室", "type": "诊所", "address": "057乡道与112乡道交叉口东北20米", "tel": "", "lng": 117.494708, "lat": 31.655128}, "geometry": {"type": "Point", "coordinates": [117.494708, 31.655128]}}, {"type": "Feature", "properties": {"name": "高店乡卫生院团塘卫生室", "type": "诊所", "address": "高店乡团塘新村", "tel": "", "lng": 116.892467, "lat": 31.844854}, "geometry": {"type": "Point", "coordinates": [116.892467, 31.844854]}}, {"type": "Feature", "properties": {"name": "店埠镇陂塘社区卫生室", "type": "诊所", "address": "312国道西南侧", "tel": "", "lng": 117.570808, "lat": 31.836925}, "geometry": {"type": "Point", "coordinates": [117.570808, 31.836925]}}, {"type": "Feature", "properties": {"name": "肥东县牌坊回族满族乡兴庙村卫生室", "type": "诊所", "address": "227省道与张众路交叉口北260米", "tel": "", "lng": 117.477141, "lat": 32.022522}, "geometry": {"type": "Point", "coordinates": [117.477141, 32.022522]}}, {"type": "Feature", "properties": {"name": "中庙街道旭东古塘村联合卫生室", "type": "诊所", "address": "滨湖大道024县", "tel": "18226218948", "lng": 117.49928, "lat": 31.594232}, "geometry": {"type": "Point", "coordinates": [117.49928, 31.594232]}}, {"type": "Feature", "properties": {"name": "肥东县石塘镇东明村卫生室", "type": "诊所", "address": "石塘镇东明村委会", "tel": "", "lng": 117.580045, "lat": 31.933858}, "geometry": {"type": "Point", "coordinates": [117.580045, 31.933858]}}, {"type": "Feature", "properties": {"name": "元疃镇居委会卫生室", "type": "诊所", "address": "元疃大街元疃镇政府西南350米元疃镇元疃居居务监督委员会附近", "tel": "", "lng": 117.38184, "lat": 32.080952}, "geometry": {"type": "Point", "coordinates": [117.38184, 32.080952]}}, {"type": "Feature", "properties": {"name": "肥东县石塘镇新展村卫生室", "type": "诊所", "address": "六长路", "tel": "", "lng": 117.593869, "lat": 31.890534}, "geometry": {"type": "Point", "coordinates": [117.593869, 31.890534]}}, {"type": "Feature", "properties": {"name": "三河镇中心卫生院西街卫生室", "type": "诊所", "address": "三杭路与立人路交叉口西北240米", "tel": "", "lng": 117.240977, "lat": 31.519087}, "geometry": {"type": "Point", "coordinates": [117.240977, 31.519087]}}, {"type": "Feature", "properties": {"name": "长丰县下塘镇陶新村卫生室", "type": "诊所", "address": "陶兴集附近", "tel": "13866796129", "lng": 117.293482, "lat": 32.189813}, "geometry": {"type": "Point", "coordinates": [117.293482, 32.189813]}}, {"type": "Feature", "properties": {"name": "柿树岗乡卫生院双龙卫生室", "type": "诊所", "address": "柿树岗双龙社区南侧130米", "tel": "", "lng": 116.919705, "lat": 31.674872}, "geometry": {"type": "Point", "coordinates": [116.919705, 31.674872]}}, {"type": "Feature", "properties": {"name": "肥东县长临河镇白马村卫生室", "type": "诊所", "address": "白马村党群服务中心东南侧", "tel": "", "lng": 117.515138, "lat": 31.672393}, "geometry": {"type": "Point", "coordinates": [117.515138, 31.672393]}}, {"type": "Feature", "properties": {"name": "郭河镇广寒村卫生室", "type": "诊所", "address": "072县道北侧", "tel": "", "lng": 117.191578, "lat": 31.490153}, "geometry": {"type": "Point", "coordinates": [117.191578, 31.490153]}}, {"type": "Feature", "properties": {"name": "南街卫生站", "type": "诊所", "address": "杨振宁旧居南门旁", "tel": "", "lng": 117.243782, "lat": 31.508904}, "geometry": {"type": "Point", "coordinates": [117.243782, 31.508904]}}, {"type": "Feature", "properties": {"name": "江夏街道卫生室", "type": "诊所", "address": "农商银行江夏支行附近", "tel": "18326620998", "lng": 116.801552, "lat": 31.824724}, "geometry": {"type": "Point", "coordinates": [116.801552, 31.824724]}}, {"type": "Feature", "properties": {"name": "洪峰卫生室", "type": "诊所", "address": "龙子湖路与光明路交叉口西北200米", "tel": "", "lng": 117.380513, "lat": 31.936247}, "geometry": {"type": "Point", "coordinates": [117.380513, 31.936247]}}, {"type": "Feature", "properties": {"name": "永安村卫生室", "type": "诊所", "address": "103省道", "tel": "", "lng": 117.345801, "lat": 31.486686}, "geometry": {"type": "Point", "coordinates": [117.345801, 31.486686]}}, {"type": "Feature", "properties": {"name": "长丰县下塘镇新集村卫生室", "type": "诊所", "address": "323省道与314县道交叉口东280米", "tel": "", "lng": 117.145156, "lat": 32.181739}, "geometry": {"type": "Point", "coordinates": [117.145156, 32.181739]}}, {"type": "Feature", "properties": {"name": "花岗中心卫生院花园卫生室", "type": "诊所", "address": "花岗镇206国道", "tel": "", "lng": 117.007654, "lat": 31.55369}, "geometry": {"type": "Point", "coordinates": [117.007654, 31.55369]}}, {"type": "Feature", "properties": {"name": "刘河卫生院大丰卫生室", "type": "诊所", "address": "严店乡大丰村", "tel": "", "lng": 117.249441, "lat": 31.638329}, "geometry": {"type": "Point", "coordinates": [117.249441, 31.638329]}}, {"type": "Feature", "properties": {"name": "肥东县石塘镇新联村卫生室", "type": "诊所", "address": "新联社区居委会南侧80米", "tel": "", "lng": 117.614404, "lat": 31.884535}, "geometry": {"type": "Point", "coordinates": [117.614404, 31.884535]}}, {"type": "Feature", "properties": {"name": "肥东县白龙镇镇南社区卫生室", "type": "诊所", "address": "店费路与022县道交叉口南150米", "tel": "", "lng": 117.459041, "lat": 32.100244}, "geometry": {"type": "Point", "coordinates": [117.459041, 32.100244]}}, {"type": "Feature", "properties": {"name": "合肥市儿童福利院卫生所", "type": "诊所", "address": "魏武路与李湾路交叉口东240米", "tel": "", "lng": 117.311875, "lat": 31.984325}, "geometry": {"type": "Point", "coordinates": [117.311875, 31.984325]}}, {"type": "Feature", "properties": {"name": "铭传乡卫生院鸽子笼卫生室", "type": "诊所", "address": "111乡道西50米", "tel": "", "lng": 116.819176, "lat": 31.73313}, "geometry": {"type": "Point", "coordinates": [116.819176, 31.73313]}}, {"type": "Feature", "properties": {"name": "长丰县双墩镇兴岭村卫生室", "type": "诊所", "address": "龙湖北路与蒙城北路交叉口西200米", "tel": "", "lng": 117.230658, "lat": 32.042673}, "geometry": {"type": "Point", "coordinates": [117.230658, 32.042673]}}, {"type": "Feature", "properties": {"name": "同大镇常丰村卫生室", "type": "诊所", "address": "066县道与常丰路交叉口东360米", "tel": "", "lng": 117.315141, "lat": 31.476146}, "geometry": {"type": "Point", "coordinates": [117.315141, 31.476146]}}, {"type": "Feature", "properties": {"name": "西湾村卫生室", "type": "诊所", "address": "金农村生态农庄南侧220米", "tel": "", "lng": 117.295928, "lat": 31.50614}, "geometry": {"type": "Point", "coordinates": [117.295928, 31.50614]}}, {"type": "Feature", "properties": {"name": "山南镇中心卫生院街道卫生室", "type": "诊所", "address": "440省道与045县道交叉口西260米", "tel": "", "lng": 116.880588, "lat": 31.621038}, "geometry": {"type": "Point", "coordinates": [116.880588, 31.621038]}}, {"type": "Feature", "properties": {"name": "同春村卫生室", "type": "诊所", "address": "皖中冷冻厂南侧", "tel": "", "lng": 117.424914, "lat": 31.499393}, "geometry": {"type": "Point", "coordinates": [117.424914, 31.499393]}}, {"type": "Feature", "properties": {"name": "白山镇觉海村卫生室", "type": "诊所", "address": "环巢湖大道1号", "tel": "", "lng": 117.428818, "lat": 31.481064}, "geometry": {"type": "Point", "coordinates": [117.428818, 31.481064]}}, {"type": "Feature", "properties": {"name": "同大镇北圩村卫生室", "type": "诊所", "address": "431县道与牛金路交叉口西400米", "tel": "", "lng": 117.247093, "lat": 31.469664}, "geometry": {"type": "Point", "coordinates": [117.247093, 31.469664]}}, {"type": "Feature", "properties": {"name": "撮东社区卫生所", "type": "诊所", "address": "火车站街与南大街交叉口东60米", "tel": "", "lng": 117.468183, "lat": 31.824271}, "geometry": {"type": "Point", "coordinates": [117.468183, 31.824271]}}, {"type": "Feature", "properties": {"name": "杨店乡姚岗村卫生室", "type": "诊所", "address": "030县道东50米", "tel": "", "lng": 117.545778, "lat": 32.054667}, "geometry": {"type": "Point", "coordinates": [117.545778, 32.054667]}}, {"type": "Feature", "properties": {"name": "山南镇中心卫生院金牛卫生室", "type": "诊所", "address": "440省道北40米", "tel": "0551-68281510", "lng": 116.799534, "lat": 31.657683}, "geometry": {"type": "Point", "coordinates": [116.799534, 31.657683]}}, {"type": "Feature", "properties": {"name": "山南镇中心卫生院沈店卫生室", "type": "诊所", "address": "236省道", "tel": "", "lng": 116.857025, "lat": 31.665925}, "geometry": {"type": "Point", "coordinates": [116.857025, 31.665925]}}, {"type": "Feature", "properties": {"name": "长丰县吴山镇梨园村卫生室", "type": "诊所", "address": "岗楼路", "tel": "", "lng": 117.030353, "lat": 32.135867}, "geometry": {"type": "Point", "coordinates": [117.030353, 32.135867]}}, {"type": "Feature", "properties": {"name": "店埠镇安乐社区卫生室", "type": "诊所", "address": "泗水路与沿河路交叉口西北200米", "tel": "", "lng": 117.459475, "lat": 31.895075}, "geometry": {"type": "Point", "coordinates": [117.459475, 31.895075]}}, {"type": "Feature", "properties": {"name": "民主社区卫生室", "type": "诊所", "address": "329国道与050乡道交叉口西140米", "tel": "", "lng": 117.534075, "lat": 31.963725}, "geometry": {"type": "Point", "coordinates": [117.534075, 31.963725]}}, {"type": "Feature", "properties": {"name": "丰乐镇中心卫生院双枣卫生室", "type": "诊所", "address": "严丰路与018乡道交叉口东北80米", "tel": "", "lng": 117.196725, "lat": 31.604975}, "geometry": {"type": "Point", "coordinates": [117.196725, 31.604975]}}, {"type": "Feature", "properties": {"name": "肥西县紫蓬镇兴庄村卫生室", "type": "诊所", "address": "兴庄村村民委员会西侧160米", "tel": "", "lng": 116.981475, "lat": 31.757675}, "geometry": {"type": "Point", "coordinates": [116.981475, 31.757675]}}, {"type": "Feature", "properties": {"name": "刘集社区卫生室", "type": "诊所", "address": "撮镇路辅路与众欢路交叉口南180米", "tel": "", "lng": 117.486918, "lat": 31.813284}, "geometry": {"type": "Point", "coordinates": [117.486918, 31.813284]}}, {"type": "Feature", "properties": {"name": "杨店乡跃进村卫生室", "type": "诊所", "address": "027县道与范同路交叉口西南480米", "tel": "", "lng": 117.511143, "lat": 32.115547}, "geometry": {"type": "Point", "coordinates": [117.511143, 32.115547]}}, {"type": "Feature", "properties": {"name": "长丰县吴山镇涂郢社区卫生室", "type": "诊所", "address": "053县道东50米", "tel": "", "lng": 117.022945, "lat": 32.146209}, "geometry": {"type": "Point", "coordinates": [117.022945, 32.146209]}}, {"type": "Feature", "properties": {"name": "胜岗村卫生室", "type": "诊所", "address": "吴山镇胜岗村民委员会西侧240米", "tel": "", "lng": 117.114875, "lat": 32.066321}, "geometry": {"type": "Point", "coordinates": [117.114875, 32.066321]}}, {"type": "Feature", "properties": {"name": "龙集社区卫生室", "type": "诊所", "address": "林霏路新龙家园一期北门", "tel": "", "lng": 117.490525, "lat": 31.827975}, "geometry": {"type": "Point", "coordinates": [117.490525, 31.827975]}}, {"type": "Feature", "properties": {"name": "撮镇镇仙临村卫生室", "type": "诊所", "address": "众欢路与四顶山路辅路交叉口西200米", "tel": "", "lng": 117.491263, "lat": 31.814449}, "geometry": {"type": "Point", "coordinates": [117.491263, 31.814449]}}, {"type": "Feature", "properties": {"name": "合肥循环经济示范园泰和社区卫生室", "type": "诊所", "address": "众欢路与四顶山路辅路交叉口西200米", "tel": "", "lng": 117.491275, "lat": 31.814375}, "geometry": {"type": "Point", "coordinates": [117.491275, 31.814375]}}, {"type": "Feature", "properties": {"name": "长丰县造甲乡双河村卫生室", "type": "诊所", "address": "造甲乡双河村", "tel": "", "lng": 117.291046, "lat": 32.233881}, "geometry": {"type": "Point", "coordinates": [117.291046, 32.233881]}}]}